
2020050100 - SABZ18 SBSP 010000
2020050100 - METAR SBSP 010000Z 03001KT CAVOK 22/13 Q1022=
2020050101 - SABZ18 SBSP 010100
2020050101 - METAR SBSP 010100Z 34002KT CAVOK 21/13 Q1022=
2020050102 - SABZ18 SBSP 010200
2020050102 - METAR SBSP 010200Z 33002KT CAVOK 21/13 Q1022=
2020050102 - SPECI SBSP 010200Z 31002KT CAVOK 20/13 Q1021=
2020050103 - SABZ21 SBSP 010300
2020050103 - METAR SBSP 010300Z AUTO 34002KT CAVOK 20/14 Q1021=
2020050104 - SABZ21 SBSP 010400
2020050104 - METAR SBSP 010400Z AUTO 30002KT CAVOK 19/13 Q1021=
2020050105 - SABZ21 SBSP 010500
2020050105 - METAR SBSP 010500Z AUTO 34002KT CAVOK 19/14 Q1020=
2020050106 - SABZ21 SBSP 010600
2020050106 - METAR SBSP 010600Z AUTO 31002KT CAVOK 18/13 Q1020=
2020050107 - SABZ21 SBSP 010700
2020050107 - METAR SBSP 010700Z AUTO 20006KT 9000 FEW006 18/15 Q1021=
2020050107 - SPECI SBSP 010705Z AUTO 20009KT 2200 FEW000 17/15 Q1021=
2020050107 - SPECI SBSP 010708Z AUTO 19009KT 1600 DZ BR SCT000 17/15 Q1021=
2020050107 - SPECI SBSP 010709Z AUTO 20008KT 0900 R17/P2000N DZ BR FEW000 SCT00317/15 Q1021=
2020050107 - SPECI SBSP 010716Z AUTO 20007KT 0700 R17/P2000N -RA BR FEW000 SCT00317/15 Q1021 REDZ=
2020050107 - SPECI SBSP 010718Z AUTO 20007KT 0700 R17/2000D -RA FG FEW000 BKN00317/15 Q1021 REDZ=
2020050107 - SPECI SBSP 010729Z AUTO 19006KT 0900 R17/1800U -RA FG BKN000 BKN00317/15 Q1021 REDZ=
2020050107 - SPECI SBSP 010747Z AUTO 18007KT 5000 BR BKN001 17/16 Q1021 REDZ=
2020050107 - SPECI SBSP 010758Z AUTO 16005KT 7000 OVC002 17/16 Q1021 REDZ=
2020050108 - SABZ21 SBSP 010800
2020050108 - METAR SBSP 010800Z AUTO 16005KT 7000 OVC002 17/16 Q1021 REDZ=
2020050108 - SPECI SBSP 010823Z AUTO VRB02KT 8000 SCT005 BKN007 17/16 Q1021=
2020050108 - SPECI SBSP 010847Z AUTO VRB01KT 8000 FEW009 17/16 Q1022=
2020050109 - SABZ18 SBSP 010900
2020050109 - METAR SBSP 010900Z 07002KT 5000 BR SCT011 17/15 Q1022=
2020050110 - SABZ18 SBSP 011000
2020050110 - METAR SBSP 011000Z 28002KT 6000 FEW011 17/16 Q1023=
2020050110 - SPECI SBSP 011030Z 25002KT 6000 BKN006 18/16 Q1023=
2020050111 - SABZ18 SBSP 011100
2020050111 - METAR SBSP 011100Z VRB02KT 6000 BKN005 BKN007 19/16 Q1023=
2020050111 - SPECI SBSP 011130Z VRB02KT 7000 SCT005 BKN007 19/17 Q1024=
2020050112 - SABZ18 SBSP 011200
2020050112 - METAR SBSP 011200Z VRB02KT 8000 BKN009 20/17 Q1024=
2020050113 - SABZ18 SBSP 011300
2020050113 - METAR SBSP 011300Z VRB02KT 9000 BKN013 22/17 Q1024=
2020050113 - SPECI SBSP 011330Z VRB02KT 9999 SCT013 23/17 Q1024=
2020050114 - SABZ18 SBSP 011400
2020050114 - METAR SBSP 011400Z VRB02KT 9999 SCT023 23/16 Q1023=
2020050115 - SABZ18 SBSP 011500
2020050115 - METAR SBSP 011500Z VRB03KT 9999 SCT030 25/16 Q1023=
2020050116 - SABZ18 SBSP 011600
2020050116 - METAR SBSP 011600Z VRB04KT 9999 FEW037 25/15 Q1022=
2020050117 - SABZ18 SBSP 011700
2020050117 - METAR SBSP 011700Z 34004KT 230V030 9999 FEW047 27/15 Q1021=
2020050118 - SABZ18 SBSP 011800
2020050118 - METAR SBSP 011800Z 24004KT 9999 FEW043 27/14 Q1021=
2020050119 - SABZ18 SBSP 011900
2020050119 - METAR SBSP 011900Z 21006KT 9999 FEW043 SCT083 26/15 Q1021=
2020050120 - SABZ18 SBSP 012000
2020050120 - METAR SBSP 012000Z 18010KT 9999 SCT009 22/18 Q1021=
2020050120 - SPECI SBSP 012025Z 17007KT 9999 BKN010 21/18 Q1021=
2020050121 - SABZ18 SBSP 012100
2020050121 - METAR SBSP 012100Z 11005KT 9999 FEW010 21/18 Q1021=
2020050122 - SABZ18 SBSP 012200
2020050122 - METAR SBSP 012200Z 16004KT CAVOK 20/17 Q1021=
2020050123 - SABZ18 SBSP 012300
2020050123 - METAR SBSP 012300Z 14003KT CAVOK 20/18 Q1022=
2020050200 - SABZ18 SBSP 020000
2020050200 - METAR SBSP 020000Z 10002KT CAVOK 20/18 Q1021=
2020050201 - SABZ18 SBSP 020100
2020050201 - METAR SBSP 020100Z 14003KT 5000 BR NSC 20/17 Q1021=
2020050202 - SABZ18 SBSP 020200
2020050202 - METAR SBSP 020200Z 13001KT 5000 BR NSC 19/17 Q1021=
2020050202 - SPECI SBSP 020205Z 05002KT 6000 NSC 19/17 Q1021=
2020050203 - SABZ21 SBSP 020300
2020050203 - METAR SBSP 020300Z AUTO VRB02KT 6000 NCD 20/17 Q1020=
2020050204 - SABZ21 SBSP 020400
2020050204 - METAR SBSP 020400Z AUTO VRB02KT 5000 BR NCD 19/17 Q1020=
2020050204 - SPECI SBSP 020405Z AUTO 14004KT 090V160 4300 BR NCD 19/17 Q1020=
2020050204 - SPECI SBSP 020419Z AUTO 05003KT 5000 BR NCD 19/17 Q1019=
2020050204 - SPECI SBSP 020434Z AUTO VRB01KT 4300 BR NCD 19/17 Q1019=
2020050204 - SPECI SBSP 020448Z AUTO 00000KT 2800 BR NCD 19/17 Q1019=
2020050205 - SABZ21 SBSP 020500
2020050205 - METAR SBSP 020500Z AUTO VRB01KT 2600 BR NCD 19/17 Q1019=
2020050205 - SPECI SBSP 020509Z AUTO VRB02KT 5000 BR NCD 19/17 Q1019=
2020050206 - SABZ21 SBSP 020600
2020050206 - METAR SBSP 020600Z AUTO VRB01KT 5000 BR NCD 19/17 Q1019=
2020050206 - SPECI SBSP 020618Z AUTO 00000KT 4600 BR NCD 18/17 Q1019=
2020050206 - SPECI SBSP 020634Z AUTO 23002KT 5000 BR FEW007 19/17 Q1019=
2020050206 - SPECI SBSP 020644Z AUTO 22002KT 4800 BR FEW006 19/17 Q1019=
2020050207 - SABZ21 SBSP 020700
2020050207 - METAR SBSP 020700Z AUTO 20002KT 5000 BR FEW007 19/17 Q1019=
2020050207 - SPECI SBSP 020715Z AUTO 20003KT 5000 BR BKN005 19/17 Q1019=
2020050207 - SPECI SBSP 020715Z AUTO 20003KT 4600 BR BKN005 19/17 Q1019=
2020050207 - SPECI SBSP 020745Z AUTO 00000KT 2800 BR BKN005 18/17 Q1019=
2020050207 - SPECI SBSP 020758Z AUTO 22002KT 5000 BR BKN004 19/17 Q1019=
2020050208 - SABZ21 SBSP 020800
2020050208 - METAR SBSP 020800Z AUTO 22002KT 5000 BR BKN004 19/17 Q1019=
2020050208 - SPECI SBSP 020802Z AUTO 22002KT 4900 BR BKN004 19/17 Q1019=
2020050208 - SPECI SBSP 020828Z AUTO 01001KT 5000 BR SCT004 19/17 Q1019=
2020050209 - SABZ18 SBSP 020900
2020050209 - METAR SBSP 020900Z 33002KT 3000 BR FEW006 BKN067 18/17 Q1019=
2020050210 - SABZ18 SBSP 021000
2020050210 - METAR SBSP 021000Z 25003KT 4000 BR SCT005 19/17 Q1020=
2020050211 - SABZ18 SBSP 021100
2020050211 - METAR SBSP 021100Z 26003KT 4000 BR FEW005 19/17 Q1020=
2020050212 - SABZ18 SBSP 021200
2020050212 - METAR SBSP 021200Z 31005KT 7000 NSC 21/17 Q1020=
2020050213 - SABZ18 SBSP 021300
2020050213 - METAR SBSP 021300Z 26005KT 9000 NSC 23/16 Q1021=
2020050214 - SABZ18 SBSP 021400
2020050214 - METAR SBSP 021400Z 27005KT 9999 FEW033 25/15 Q1020=
2020050215 - SABZ18 SBSP 021500
2020050215 - METAR SBSP 021500Z 23005KT 9999 SCT033 BKN100 25/16 Q1019=
2020050216 - SABZ18 SBSP 021600
2020050216 - METAR SBSP 021600Z 23006KT 9999 BKN040 24/16 Q1019=
2020050217 - SABZ18 SBSP 021700
2020050217 - METAR SBSP 021700Z 22010KT 9999 -RA FEW030 BKN040 24/15 Q1018=
2020050218 - SABZ18 SBSP 021800
2020050218 - METAR SBSP 021800Z 22011KT 190V250 9999 FEW027 BKN043 24/16 Q1018=
2020050218 - SPECI SBSP 021835Z 17016KT 9999 BKN013 BKN033 20/16 Q1018=
2020050219 - SABZ18 SBSP 021900
2020050219 - METAR SBSP 021900Z 18015KT 9999 BKN011 BKN017 20/16 Q1018=
2020050220 - SABZ18 SBSP 022000
2020050220 - METAR SBSP 022000Z 18014KT 9999 BKN009 OVC011 19/15 Q1019=
2020050221 - SABZ18 SBSP 022100
2020050221 - METAR SBSP 022100Z 17012KT 9999 -RA BKN005 OVC008 18/16 Q1020=
2020050222 - SABZ18 SBSP 022200
2020050222 - METAR SBSP 022200Z 17012KT 9000 -RA BKN005 OVC007 18/15 Q1020=
2020050223 - SABZ18 SBSP 022300
2020050223 - METAR SBSP 022300Z 16011KT 7000 -RA BKN004 OVC006 17/15 Q1021=
2020050300 - SABZ18 SBSP 030000
2020050300 - METAR SBSP 030000Z 18014KT 6000 -RA BKN007 OVC009 16/14 Q1022=
2020050300 - SPECI SBSP 030035Z 19011KT 8000 -RA SCT007 OVC011 16/13 Q1022=
2020050301 - SABZ18 SBSP 030100
2020050301 - METAR SBSP 030100Z 18010KT 9000 OVC011 16/13 Q1022=
2020050302 - SABZ18 SBSP 030200
2020050302 - METAR SBSP 030200Z 15010KT 9000 -RA BKN009 OVC011 16/13 Q1022=
2020050302 - SPECI SBSP 030201Z 16009KT 9999 OVC010 16/13 Q1021=
2020050302 - SPECI SBSP 030251Z AUTO 17010KT 9999 SCT013 SCT015 OVC021 16/13Q1021=
2020050303 - SABZ21 SBSP 030300
2020050303 - METAR SBSP 030300Z AUTO 17009KT 9999 FEW012 SCT016 OVC022 16/13Q1021=
2020050304 - SABZ21 SBSP 030400
2020050304 - METAR SBSP 030400Z AUTO 15011KT 9999 FEW014 OVC031 16/12 Q1021=
2020050305 - SABZ21 SBSP 030500
2020050305 - METAR SBSP 030500Z AUTO 16010KT 9999 SCT015 BKN018 OVC037 16/12Q1021=
2020050306 - SABZ21 SBSP 030600
2020050306 - METAR SBSP 030600Z AUTO 16010KT 9999 FEW015 SCT031 OVC041 15/12Q1020=
2020050307 - SABZ21 SBSP 030700
2020050307 - METAR SBSP 030700Z AUTO 16011KT 9999 -RA SCT010 BKN017 OVC022 15/12Q1020=
2020050307 - SPECI SBSP 030701Z AUTO 16010KT 9999 -RA FEW010 BKN014 OVC022 15/12Q1020=
2020050307 - SPECI SBSP 030711Z AUTO 16008KT 9999 SCT010 BKN024 OVC031 15/12Q1020=
2020050308 - SABZ21 SBSP 030800
2020050308 - METAR SBSP 030800Z AUTO 15009KT 9999 FEW011 BKN028 OVC042 15/12Q1020=
2020050309 - SABZ18 SBSP 030900
2020050309 - METAR SBSP 030900Z 16010KT 9999 FEW013 OVC037 15/11 Q1021=
2020050310 - SABZ18 SBSP 031000
2020050310 - METAR SBSP 031000Z 16007KT 9999 FEW015 SCT067 15/11 Q1022=
2020050311 - SABZ18 SBSP 031100
2020050311 - METAR SBSP 031100Z 15007KT 9999 FEW013 BKN067 16/11 Q1023=
2020050312 - SABZ18 SBSP 031200
2020050312 - METAR SBSP 031200Z 14008KT 110V180 9999 BKN023 17/11 Q1023=
2020050313 - SABZ18 SBSP 031300
2020050313 - METAR SBSP 031300Z 15010KT 100V180 9999 SCT027 18/10 Q1023=
2020050314 - SABZ18 SBSP 031400
2020050314 - METAR SBSP 031400Z 14008KT 110V170 9999 BKN030 19/10 Q1023=
2020050315 - SABZ18 SBSP 031500
2020050315 - METAR SBSP 031500Z VRB08KT 9999 BKN037 20/10 Q1022=
2020050316 - SABZ18 SBSP 031600
2020050316 - METAR SBSP 031600Z 15011KT 130V200 9999 FEW027 BKN037 19/11 Q1022=
2020050317 - SABZ18 SBSP 031700
2020050317 - METAR SBSP 031700Z 15008KT 9999 SCT043 20/10 Q1021=
2020050318 - SABZ18 SBSP 031800
2020050318 - METAR SBSP 031800Z 16012KT 9999 FEW023 SCT040 19/11 Q1021=
2020050319 - SABZ18 SBSP 031900
2020050319 - METAR SBSP 031900Z 17010KT 9999 SCT028 20/12 Q1021=
2020050320 - SABZ18 SBSP 032000
2020050320 - METAR SBSP 032000Z 15011KT 9999 SCT021 18/12 Q1021=
2020050321 - SABZ18 SBSP 032100
2020050321 - METAR SBSP 032100Z 16011KT 9999 FEW015 16/11 Q1021=
2020050322 - SABZ18 SBSP 032200
2020050322 - METAR SBSP 032200Z 15008KT 9999 FEW015 15/11 Q1022=
2020050323 - SABZ18 SBSP 032300
2020050323 - METAR SBSP 032300Z 15008KT 9999 FEW015 15/12 Q1022=
2020050400 - SABZ18 SBSP 040000
2020050400 - METAR SBSP 040000Z 15006KT 9999 FEW015 14/11 Q1022=
2020050401 - SABZ18 SBSP 040100
2020050401 - METAR SBSP 040100Z 13004KT 9999 SCT012 15/12 Q1022=
2020050402 - SABZ18 SBSP 040200
2020050402 - METAR SBSP 040200Z 13006KT 9999 FEW015 15/12 Q1022=
2020050402 - SPECI SBSP 040204Z 13004KT 9999 FEW013 14/11 Q1022=
2020050403 - SABZ21 SBSP 040300
2020050403 - METAR SBSP 040300Z AUTO 11006KT 080V140 9999 FEW012 15/11 Q1021=
2020050404 - SABZ21 SBSP 040400
2020050404 - METAR SBSP 040400Z AUTO 10004KT 9999 FEW012 14/11 Q1020=
2020050404 - SPECI SBSP 040427Z AUTO 11004KT 9999 BKN013 14/11 Q1020=
2020050404 - SPECI SBSP 040453Z AUTO 12005KT 9999 SCT012 BKN015 BKN018 14/11Q1020=
2020050405 - SABZ21 SBSP 040500
2020050405 - METAR SBSP 040500Z AUTO 12005KT 9999 SCT012 BKN016 BKN018 14/11Q1020=
2020050406 - SABZ21 SBSP 040600
2020050406 - METAR SBSP 040600Z AUTO 10004KT 9999 FEW013 BKN016 BKN020 14/11Q1019=
2020050407 - SABZ21 SBSP 040700
2020050407 - METAR SBSP 040700Z AUTO 09005KT 040V120 9999 BKN016 BKN018 14/11Q1019=
2020050408 - SABZ21 SBSP 040800
2020050408 - METAR SBSP 040800Z AUTO 10003KT 050V130 9999 FEW016 SCT018 14/11Q1019=
2020050408 - SPECI SBSP 040802Z AUTO 09004KT 050V130 9999 BKN014 14/11 Q1019=
2020050408 - SPECI SBSP 040823Z AUTO 10005KT 060V140 9999 BKN015 14/11 Q1019=
2020050408 - SPECI SBSP 040825Z AUTO 11004KT 060V140 9999 FEW012 BKN014 14/11Q1019=
2020050408 - SPECI SBSP 040836Z AUTO 09004KT 040V130 9999 FEW011 SCT015 14/11Q1019=
2020050409 - SABZ18 SBSP 040900
2020050409 - METAR SBSP 040900Z 09004KT 9999 FEW013 14/11 Q1020=
2020050410 - SABZ18 SBSP 041000
2020050410 - METAR SBSP 041000Z 13004KT CAVOK 14/11 Q1020=
2020050411 - SABZ18 SBSP 041100
2020050411 - METAR SBSP 041100Z 09006KT CAVOK 16/11 Q1021=
2020050412 - SABZ18 SBSP 041200
2020050412 - METAR SBSP 041200Z 08006KT 9999 FEW021 17/11 Q1022=
2020050413 - SABZ18 SBSP 041300
2020050413 - METAR SBSP 041300Z 09008KT 9999 BKN021 18/11 Q1022=
2020050414 - SABZ18 SBSP 041400
2020050414 - METAR SBSP 041400Z 09007KT 9999 BKN025 18/12 Q1021=
2020050415 - SABZ18 SBSP 041500
2020050415 - METAR SBSP 041500Z 05008KT 9999 BKN030 20/12 Q1020=
2020050416 - SABZ18 SBSP 041600
2020050416 - METAR SBSP 041600Z 36006KT 9999 BKN037 22/11 Q1019=
2020050417 - SABZ18 SBSP 041700
2020050417 - METAR SBSP 041700Z VRB02KT 9999 SCT043 23/11 Q1018=
2020050418 - SABZ18 SBSP 041800
2020050418 - METAR SBSP 041800Z VRB03KT 9999 FEW047 24/10 Q1017=
2020050419 - SABZ18 SBSP 041900
2020050419 - METAR SBSP 041900Z VRB03KT CAVOK 23/10 Q1017=
2020050420 - SABZ18 SBSP 042000
2020050420 - METAR SBSP 042000Z 16009KT CAVOK 19/14 Q1017=
2020050421 - SABZ18 SBSP 042100
2020050421 - METAR SBSP 042100Z 16008KT CAVOK 17/14 Q1018=
2020050422 - SABZ18 SBSP 042200
2020050422 - METAR SBSP 042200Z 16008KT 9999 SCT009 BKN013 16/13 Q1017=
2020050423 - SABZ18 SBSP 042300
2020050423 - METAR SBSP 042300Z 13003KT 100V170 9999 OVC011 17/14 Q1018=
2020050500 - SABZ18 SBSP 050000
2020050500 - METAR SBSP 050000Z 11004KT 9999 OVC013 17/13 Q1018=
2020050501 - SABZ18 SBSP 050100
2020050501 - METAR SBSP 050100Z 13004KT 090V150 9999 BKN013 17/13 Q1018=
2020050502 - SABZ18 SBSP 050200
2020050502 - METAR SBSP 050200Z 10004KT 9999 BKN015 17/13 Q1018=
2020050502 - SPECI SBSP 050201Z 08004KT 040V110 9999 FEW012 BKN015 17/13 Q1018=
2020050502 - SPECI SBSP 050203Z AUTO 08004KT 040V120 9999 BKN013 BKN016 17/13Q1018=
2020050502 - SPECI SBSP 050214Z AUTO 09003KT 050V130 9999 SCT012 BKN015 17/13Q1018=
2020050502 - SPECI SBSP 050217Z AUTO 09004KT 050V130 9999 SCT012 BKN014 17/13Q1018=
2020050502 - SPECI SBSP 050223Z AUTO 08005KT 050V130 9999 BKN012 BKN014 17/13Q1018=
2020050503 - SABZ21 SBSP 050300
2020050503 - METAR SBSP 050300Z AUTO 05005KT 010V100 9999 BKN012 BKN014 16/13Q1018=
2020050503 - SPECI SBSP 050308Z AUTO VRB03KT 9999 BKN013 16/13 Q1017=
2020050503 - SPECI SBSP 050337Z AUTO 05004KT 010V090 9999 FEW013 16/13 Q1017=
2020050504 - SABZ21 SBSP 050400
2020050504 - METAR SBSP 050400Z AUTO 03003KT 360V060 9999 SCT012 16/13 Q1016=
2020050504 - SPECI SBSP 050422Z AUTO 03004KT 360V080 9999 BKN012 16/13 Q1016=
2020050504 - SPECI SBSP 050434Z AUTO 02004KT 9999 SCT011 16/13 Q1016=
2020050505 - SABZ21 SBSP 050500
2020050505 - METAR SBSP 050500Z AUTO 03003KT 9999 FEW011 16/13 Q1016=
2020050506 - SABZ21 SBSP 050600
2020050506 - METAR SBSP 050600Z AUTO 05003KT CAVOK 15/13 Q1016=
2020050507 - SABZ21 SBSP 050700
2020050507 - METAR SBSP 050700Z AUTO 04003KT CAVOK 15/13 Q1016=
2020050508 - SABZ21 SBSP 050800
2020050508 - METAR SBSP 050800Z AUTO 33002KT 8000 NCD 14/12 Q1016=
2020050508 - SPECI SBSP 050835Z AUTO 31005KT 7000 BKN007 14/12 Q1017=
2020050508 - SPECI SBSP 050846Z AUTO 31004KT 7000 SCT007 14/12 Q1017=
2020050509 - SABZ18 SBSP 050900
2020050509 - METAR SBSP 050900Z 31005KT 5000 BR FEW007 14/12 Q1017=
2020050510 - SABZ18 SBSP 051000
2020050510 - METAR SBSP 051000Z 33004KT 5000 BR NSC 13/12 Q1018=
2020050511 - SABZ18 SBSP 051100
2020050511 - METAR SBSP 051100Z 32004KT 6000 NSC 14/12 Q1018=
2020050512 - SABZ18 SBSP 051200
2020050512 - METAR SBSP 051200Z 32005KT 9000 NSC 17/12 Q1018=
2020050513 - SABZ18 SBSP 051300
2020050513 - METAR SBSP 051300Z 33007KT 290V350 CAVOK 20/11 Q1019=
2020050514 - SABZ18 SBSP 051400
2020050514 - METAR SBSP 051400Z 32011KT CAVOK 23/09 Q1018=
2020050515 - SABZ18 SBSP 051500
2020050515 - METAR SBSP 051500Z 34011KT 300V010 CAVOK 24/09 Q1017=
2020050516 - SABZ18 SBSP 051600
2020050516 - METAR SBSP 051600Z 31012KT CAVOK 25/10 Q1016=
2020050517 - SABZ18 SBSP 051700
2020050517 - METAR SBSP 051700Z 32015G27KT CAVOK 26/08 Q1016=
2020050518 - SABZ18 SBSP 051800
2020050518 - METAR SBSP 051800Z 30009KT CAVOK 26/08 Q1016=
2020050519 - SABZ18 SBSP 051900
2020050519 - METAR SBSP 051900Z 30012KT CAVOK 26/07 Q1016=
2020050520 - SABZ18 SBSP 052000
2020050520 - METAR SBSP 052000Z 29007KT CAVOK 24/06 Q1016=
2020050521 - SABZ18 SBSP 052100
2020050521 - METAR SBSP 052100Z 28005KT CAVOK 23/06 Q1016=
2020050522 - SABZ18 SBSP 052200
2020050522 - METAR SBSP 052200Z 33005KT CAVOK 23/07 Q1016=
2020050523 - SABZ18 SBSP 052300
2020050523 - METAR SBSP 052300Z 31004KT CAVOK 22/07 Q1017=
2020050600 - SABZ18 SBSP 060000
2020050600 - METAR SBSP 060000Z 31005KT CAVOK 22/07 Q1017=
2020050601 - SABZ18 SBSP 060100
2020050601 - METAR SBSP 060100Z 33005KT CAVOK 21/08 Q1017=
2020050602 - SABZ18 SBSP 060200
2020050602 - METAR SBSP 060200Z 25003KT CAVOK 21/08 Q1017=
2020050602 - SPECI SBSP 060205Z VRB01KT CAVOK 21/08 Q1016=
2020050603 - SABZ21 SBSP 060300
2020050603 - METAR SBSP 060300Z AUTO 32002KT CAVOK 19/08 Q1016=
2020050604 - SABZ21 SBSP 060400
2020050604 - METAR SBSP 060400Z AUTO VRB01KT CAVOK 19/09 Q1016=
2020050605 - SABZ21 SBSP 060500
2020050605 - METAR SBSP 060500Z AUTO 33003KT CAVOK 19/09 Q1016=
2020050606 - SABZ21 SBSP 060600
2020050606 - METAR SBSP 060600Z AUTO 32003KT CAVOK 18/09 Q1016=
2020050607 - SABZ21 SBSP 060700
2020050607 - METAR SBSP 060700Z AUTO 32003KT CAVOK 18/10 Q1016=
2020050608 - SABZ21 SBSP 060800
2020050608 - METAR SBSP 060800Z AUTO 33004KT CAVOK 18/10 Q1016=
2020050609 - SABZ18 SBSP 060900
2020050609 - METAR SBSP 060900Z 34002KT CAVOK 18/10 Q1016=
2020050610 - SABZ18 SBSP 061000
2020050610 - METAR SBSP 061000Z 29002KT CAVOK 18/11 Q1017=
2020050611 - SABZ18 SBSP 061100
2020050611 - METAR SBSP 061100Z 32004KT CAVOK 19/11 Q1018=
2020050612 - SABZ18 SBSP 061200
2020050612 - METAR SBSP 061200Z 35003KT CAVOK 21/11 Q1018=
2020050613 - SABZ18 SBSP 061300
2020050613 - METAR SBSP 061300Z 33007KT CAVOK 24/10 Q1018=
2020050614 - SABZ18 SBSP 061400
2020050614 - METAR SBSP 061400Z 35006KT CAVOK 25/10 Q1018=
2020050615 - SABZ18 SBSP 061500
2020050615 - METAR SBSP 061500Z 32011KT CAVOK 26/10 Q1017=
2020050616 - SABZ18 SBSP 061600
2020050616 - METAR SBSP 061600Z 30009KT CAVOK 25/10 Q1016=
2020050617 - SABZ18 SBSP 061700
2020050617 - METAR SBSP 061700Z 25006KT 210V310 9999 SCT047 25/12 Q1016=
2020050618 - SABZ18 SBSP 061800
2020050618 - METAR SBSP 061800Z 17009KT 9999 BKN047 23/13 Q1015=
2020050619 - SABZ18 SBSP 061900
2020050619 - METAR SBSP 061900Z 18010KT 9999 SCT047 BKN083 22/14 Q1016=
2020050620 - SABZ18 SBSP 062000
2020050620 - METAR SBSP 062000Z 18012KT 9999 SCT013 BKN050 19/14 Q1017=
2020050621 - SABZ18 SBSP 062100
2020050621 - METAR SBSP 062100Z 21007KT 3000 RA BR BKN015 OVC047 18/15 Q1018=
2020050621 - SPECI SBSP 062140Z 19005KT 6000 -RA FEW009 OVC030 18/15 Q1018 RERA=
2020050622 - SABZ18 SBSP 062200
2020050622 - METAR SBSP 062200Z 18004KT 160V220 7000 -RA FEW009 OVC027 18/15 Q1018 RERA=
2020050623 - SABZ18 SBSP 062300
2020050623 - METAR SBSP 062300Z 19005KT 8000 -RA FEW015 OVC083 17/15 Q1018=
2020050623 - SPECI SBSP 062330Z 21005KT 5000 RA BR FEW013 SCT027 OVC050 17/15 Q1019=
2020050623 - SPECI SBSP 062344Z 22006KT 6000 -RA SCT008 BKN015 OVC050 17/15 Q1019 RERA=
2020050700 - SABZ18 SBSP 070000
2020050700 - METAR SBSP 070000Z 20007KT 170V230 6000 -RA BKN013 OVC043 17/15 Q1019 RERA=
2020050700 - SPECI SBSP 070012Z 22008KT 190V250 4000 RA BR BKN009 OVC043 16/14 Q1019=
2020050701 - SABZ18 SBSP 070100
2020050701 - METAR SBSP 070100Z 18014KT 6000 -RA BKN009 OVC027 16/14 Q1019 RERA=
2020050702 - SABZ18 SBSP 070200
2020050702 - METAR SBSP 070200Z 19013KT 9000 -RA BKN006 OVC013 13/12 Q1020=
2020050702 - SPECI SBSP 070201Z 19014KT 9999 -RA BKN006 OVC014 13/11 Q1020=
2020050702 - SPECI SBSP 070230Z AUTO 17013KT 9999 OVC007 13/11 Q1020=
2020050702 - SPECI SBSP 070250Z AUTO 18013KT 9999 BKN006 OVC008 13/11 Q1020=
2020050703 - SABZ21 SBSP 070300
2020050703 - METAR SBSP 070300Z AUTO 18012KT 9999 BKN006 OVC008 13/11 Q1020=
2020050703 - SPECI SBSP 070307Z AUTO 17011KT 3200 OVC006 13/11 Q1020=
2020050703 - SPECI SBSP 070308Z AUTO 17011KT 3100 -RA BR BKN005 OVC008 13/11Q1020=
2020050703 - SPECI SBSP 070312Z AUTO 17011KT 5000 -DZ BKN004 OVC007 13/12 Q1020=
2020050703 - SPECI SBSP 070337Z AUTO 17011KT 9999 -RA OVC005 13/12 Q1020=
2020050704 - SABZ21 SBSP 070400
2020050704 - METAR SBSP 070400Z AUTO 18013KT 9999 -RA OVC006 13/11 Q1020=
2020050704 - SPECI SBSP 070440Z AUTO 19010KT 9999 -RA BKN005 OVC009 13/11 Q1020=
2020050704 - SPECI SBSP 070445Z AUTO 19011KT 9000 -DZ BKN004 BKN007 OVC009 13/11Q1020=
2020050704 - SPECI SBSP 070450Z AUTO 19011KT 4200 -DZ BKN004 BKN007 OVC009 13/11Q1020=
2020050705 - SABZ21 SBSP 070500
2020050705 - METAR SBSP 070500Z AUTO 20011KT 6000 -RA BKN004 BKN007 OVC009 13/11Q1020=
2020050705 - SPECI SBSP 070525Z AUTO 17009KT 9999 FEW005 SCT011 OVC015 13/11Q1020=
2020050705 - SPECI SBSP 070528Z AUTO 17009KT 9999 SCT011 BKN013 OVC020 13/11Q1020=
2020050705 - SPECI SBSP 070540Z AUTO 17009KT 9999 SCT010 BKN021 OVC028 13/11Q1020=
2020050705 - SPECI SBSP 070552Z AUTO 17008KT 9999 FEW010 BKN012 OVC045 13/11Q1020=
2020050706 - SABZ21 SBSP 070600
2020050706 - METAR SBSP 070600Z AUTO 18008KT 9999 SCT011 BKN021 OVC045 13/11Q1020=
2020050706 - SPECI SBSP 070601Z AUTO 17008KT 140V200 9999 SCT011 BKN016 OVC04513/11 Q1020=
2020050706 - SPECI SBSP 070606Z AUTO 16008KT 130V190 9999 BKN011 BKN019 OVC04513/11 Q1020=
2020050706 - SPECI SBSP 070612Z AUTO 15008KT 9999 BKN011 BKN014 OVC045 13/11Q1020=
2020050706 - SPECI SBSP 070626Z AUTO 17008KT 9999 SCT010 BKN012 OVC017 13/11Q1020=
2020050706 - SPECI SBSP 070645Z AUTO 16011KT 8000 -DZ SCT006 BKN010 OVC012 13/11Q1020=
2020050706 - SPECI SBSP 070647Z AUTO 16011KT 7000 -DZ BKN006 BKN010 OVC012 13/11Q1020=
2020050706 - SPECI SBSP 070649Z AUTO 16011KT 7000 -DZ BKN006 OVC009 13/11 Q1020=
2020050707 - SABZ21 SBSP 070700
2020050707 - METAR SBSP 070700Z AUTO 16010KT 9000 -DZ BKN006 OVC008 13/11 Q1020=
2020050707 - SPECI SBSP 070702Z AUTO 17009KT 8000 -DZ BKN006 OVC014 13/11 Q1020=
2020050707 - SPECI SBSP 070712Z AUTO 19009KT 8000 -DZ BKN006 OVC015 13/12 Q1019=
2020050707 - SPECI SBSP 070726Z AUTO 19009KT 8000 -DZ OVC004 13/11 Q1020=
2020050707 - SPECI SBSP 070754Z AUTO 18008KT 9999 -RA SCT004 BKN011 OVC022 13/11Q1020=
2020050708 - SABZ21 SBSP 070800
2020050708 - METAR SBSP 070800Z AUTO 18008KT 9999 -RA SCT004 BKN011 OVC022 13/11Q1020=
2020050708 - SPECI SBSP 070804Z AUTO 18011KT 9999 SCT004 BKN018 OVC022 13/11Q1020=
2020050708 - SPECI SBSP 070808Z AUTO 17012KT 9999 FEW006 BKN012 OVC022 13/11Q1020=
2020050708 - SPECI SBSP 070826Z AUTO 17009KT 9999 FEW010 SCT014 OVC032 13/10Q1020=
2020050709 - SABZ18 SBSP 070900
2020050709 - METAR SBSP 070900Z 17009KT 9999 FEW015 OVC037 13/11 Q1020=
2020050709 - SPECI SBSP 070920Z 17008KT 9999 BKN013 OVC019 13/11 Q1021=
2020050709 - SPECI SBSP 070935Z 17009KT 5000 -DZ BR BKN007 OVC013 13/11 Q1021=
2020050710 - SABZ18 SBSP 071000
2020050710 - METAR SBSP 071000Z 18006KT 5000 -DZ BR OVC007 13/11 Q1022=
2020050711 - SABZ18 SBSP 071100
2020050711 - METAR SBSP 071100Z 17008KT 7000 BKN011 OVC023 14/12 Q1022=
2020050712 - SABZ18 SBSP 071200
2020050712 - METAR SBSP 071200Z 17010KT 8000 BKN011 OVC027 14/12 Q1023=
2020050713 - SABZ18 SBSP 071300
2020050713 - METAR SBSP 071300Z 20008KT 9000 -RA BKN013 OVC027 14/12 Q1024=
2020050714 - SABZ18 SBSP 071400
2020050714 - METAR SBSP 071400Z 19012KT 9999 BKN015 OVC021 15/11 Q1024=
2020050715 - SABZ18 SBSP 071500
2020050715 - METAR SBSP 071500Z 19010KT 9999 OVC023 15/11 Q1024=
2020050716 - SABZ18 SBSP 071600
2020050716 - METAR SBSP 071600Z 18013KT 9999 SCT017 OVC030 16/11 Q1023=
2020050717 - SABZ18 SBSP 071700
2020050717 - METAR SBSP 071700Z 17009KT 9999 BKN009 OVC015 14/11 Q1023=
2020050718 - SABZ18 SBSP 071800
2020050718 - METAR SBSP 071800Z 18011KT 9999 SCT009 OVC016 15/11 Q1023=
2020050719 - SABZ18 SBSP 071900
2020050719 - METAR SBSP 071900Z 18009KT 9999 SCT011 OVC017 14/11 Q1023=
2020050720 - SABZ18 SBSP 072000
2020050720 - METAR SBSP 072000Z 16008KT 9999 FEW011 BKN015 14/11 Q1023=
2020050721 - SABZ18 SBSP 072100
2020050721 - METAR SBSP 072100Z 17009KT 9000 SCT009 BKN017 14/11 Q1024=
2020050722 - SABZ18 SBSP 072200
2020050722 - METAR SBSP 072200Z 18011KT 8000 BKN011 14/11 Q1024=
2020050723 - SABZ18 SBSP 072300
2020050723 - METAR SBSP 072300Z 19010KT 7000 SCT009 BKN013 14/11 Q1025=
2020050800 - SABZ18 SBSP 080000
2020050800 - METAR SBSP 080000Z 20010KT 7000 BKN011 13/11 Q1025=
2020050801 - SABZ18 SBSP 080100
2020050801 - METAR SBSP 080100Z 20007KT 7000 FEW009 BKN013 13/10 Q1025=
2020050802 - SABZ18 SBSP 080200
2020050802 - METAR SBSP 080200Z 19006KT 9000 BKN010 13/11 Q1025=
2020050802 - SPECI SBSP 080201Z 19007KT 9999 SCT008 BKN011 13/10 Q1025=
2020050802 - SPECI SBSP 080217Z AUTO 18006KT 9999 FEW008 SCT010 13/10 Q1025=
2020050802 - SPECI SBSP 080231Z AUTO 18005KT 9999 BKN009 13/10 Q1025=
2020050802 - SPECI SBSP 080242Z AUTO 19005KT 9999 SCT008 BKN010 13/11 Q1025=
2020050802 - SPECI SBSP 080259Z AUTO 19005KT 9999 BKN008 BKN042 13/11 Q1025=
2020050803 - SABZ21 SBSP 080300
2020050803 - METAR SBSP 080300Z AUTO 19005KT 9999 BKN008 BKN042 13/11 Q1025=
2020050803 - SPECI SBSP 080337Z AUTO 19008KT 9999 SCT006 13/11 Q1025=
2020050803 - SPECI SBSP 080351Z AUTO 19006KT 9999 SCT005 BKN009 13/11 Q1025=
2020050804 - SABZ21 SBSP 080400
2020050804 - METAR SBSP 080400Z AUTO 19005KT 9999 SCT005 BKN009 13/11 Q1025=
2020050804 - SPECI SBSP 080401Z AUTO 19005KT 9999 SCT005 BKN007 BKN013 13/11Q1025=
2020050804 - SPECI SBSP 080422Z AUTO 18003KT 160V220 9999 BKN006 BKN009 BKN01113/11 Q1025=
2020050804 - SPECI SBSP 080438Z AUTO 18004KT 9999 BKN007 OVC009 13/11 Q1025=
2020050804 - SPECI SBSP 080448Z AUTO 19004KT 160V230 9999 BKN006 BKN009 OVC01413/11 Q1025=
2020050805 - SABZ21 SBSP 080500
2020050805 - METAR SBSP 080500Z AUTO 19004KT 9999 BKN007 BKN009 13/11 Q1025=
2020050805 - SPECI SBSP 080506Z AUTO 18003KT 140V210 9999 SCT007 BKN010 13/11Q1025=
2020050805 - SPECI SBSP 080508Z AUTO 19003KT 9999 SCT007 BKN009 BKN024 13/11Q1024=
2020050805 - SPECI SBSP 080509Z AUTO 19003KT 160V220 9999 SCT007 BKN009 BKN01113/11 Q1024=
2020050805 - SPECI SBSP 080514Z AUTO 20003KT 170V230 9999 BKN007 BKN011 BKN01313/11 Q1025=
2020050805 - SPECI SBSP 080525Z AUTO 22003KT 190V260 9000 SCT006 BKN008 BKN01413/11 Q1024=
2020050805 - SPECI SBSP 080527Z AUTO 22004KT 190V260 9000 BKN006 BKN008 13/11Q1025=
2020050805 - SPECI SBSP 080552Z AUTO 20005KT 9999 SCT006 BKN009 OVC035 13/11Q1024=
2020050806 - SABZ21 SBSP 080600
2020050806 - METAR SBSP 080600Z AUTO 19005KT 150V220 9999 SCT007 BKN009 OVC03613/11 Q1024=
2020050806 - SPECI SBSP 080602Z AUTO 19004KT 150V220 9999 SCT006 BKN034 OVC04513/11 Q1024=
2020050806 - SPECI SBSP 080659Z AUTO 21004KT 9999 FEW008 BKN010 BKN035 13/11Q1024=
2020050807 - SABZ21 SBSP 080700
2020050807 - METAR SBSP 080700Z AUTO 21004KT 9999 FEW008 BKN010 BKN035 13/11Q1024=
2020050807 - SPECI SBSP 080704Z AUTO 21004KT 9999 BKN009 BKN030 BKN035 13/11Q1024=
2020050807 - SPECI SBSP 080719Z AUTO 20005KT 9999 FEW007 SCT009 BKN021 13/11Q1024=
2020050807 - SPECI SBSP 080726Z AUTO 20005KT 9999 SCT006 BKN009 BKN021 13/11Q1024=
2020050807 - SPECI SBSP 080739Z AUTO 20004KT 9000 BKN005 BKN008 BKN019 13/11Q1024=
2020050807 - SPECI SBSP 080740Z AUTO 20004KT 4200 BR BKN005 BKN008 BKN019 13/11Q1024=
2020050807 - SPECI SBSP 080742Z AUTO 20005KT 4000 BR BKN004 BKN007 BKN019 13/11Q1024=
2020050807 - SPECI SBSP 080758Z AUTO 20003KT 160V220 4100 BR BKN002 BKN005 OVC00813/11 Q1024=
2020050808 - SABZ21 SBSP 080800
2020050808 - METAR SBSP 080800Z AUTO 20003KT 160V220 4100 BR BKN002 BKN005 OVC00813/11 Q1024=
2020050808 - SPECI SBSP 080829Z AUTO 20005KT 4600 BR BKN003 OVC009 13/11 Q1024=
2020050808 - SPECI SBSP 080840Z AUTO 19005KT 7000 BKN003 BKN005 OVC016 13/11Q1024=
2020050808 - SPECI SBSP 080844Z AUTO 19005KT 8000 BKN004 BKN016 OVC019 13/12Q1024=
2020050808 - SPECI SBSP 080854Z AUTO 18007KT 9999 FEW003 SCT007 OVC017 13/11Q1024=
2020050809 - SABZ18 SBSP 080900
2020050809 - METAR SBSP 080900Z 18007KT 9000 BKN009 BKN017 13/12 Q1025=
2020050810 - SABZ18 SBSP 081000
2020050810 - METAR SBSP 081000Z 16006KT 5000 -DZ BR BKN004 BKN008 13/11 Q1025=
2020050810 - SPECI SBSP 081020Z 16007KT 6000 SCT004 BKN009 13/12 Q1026=
2020050810 - SPECI SBSP 081035Z 14005KT 7000 FEW009 BKN023 13/11 Q1026=
2020050811 - SABZ18 SBSP 081100
2020050811 - METAR SBSP 081100Z 14007KT 8000 SCT011 BKN033 14/12 Q1026=
2020050812 - SABZ18 SBSP 081200
2020050812 - METAR SBSP 081200Z 14005KT 9999 SCT011 BKN037 15/12 Q1027=
2020050813 - SABZ18 SBSP 081300
2020050813 - METAR SBSP 081300Z 15007KT 9999 FEW015 BKN027 15/11 Q1027=
2020050814 - SABZ18 SBSP 081400
2020050814 - METAR SBSP 081400Z 12007KT 9999 FEW023 BKN030 17/11 Q1027=
2020050815 - SABZ18 SBSP 081500
2020050815 - METAR SBSP 081500Z 13005KT 080V180 9999 OVC037 17/11 Q1026=
2020050816 - SABZ18 SBSP 081600
2020050816 - METAR SBSP 081600Z 15004KT 070V200 9999 FEW023 BKN043 18/12 Q1025=
2020050817 - SABZ18 SBSP 081700
2020050817 - METAR SBSP 081700Z 17005KT 9999 FEW030 OVC047 18/12 Q1025=
2020050818 - SABZ18 SBSP 081800
2020050818 - METAR SBSP 081800Z 17010KT 9999 FEW015 BKN050 18/13 Q1024=
2020050819 - SABZ18 SBSP 081900
2020050819 - METAR SBSP 081900Z 16011KT 9999 SCT021 17/12 Q1025=
2020050820 - SABZ18 SBSP 082000
2020050820 - METAR SBSP 082000Z 16012KT 9999 BKN018 16/12 Q1025=
2020050821 - SABZ18 SBSP 082100
2020050821 - METAR SBSP 082100Z 15008KT 9999 OVC015 15/12 Q1025=
2020050822 - SABZ18 SBSP 082200
2020050822 - METAR SBSP 082200Z 15009KT 9999 BKN015 15/11 Q1026=
2020050823 - SABZ18 SBSP 082300
2020050823 - METAR SBSP 082300Z 12009KT 9999 BKN011 BKN014 14/11 Q1026=
2020050900 - SABZ18 SBSP 090000
2020050900 - METAR SBSP 090000Z 11007KT 9999 BKN012 15/12 Q1026=
2020050901 - SABZ18 SBSP 090100
2020050901 - METAR SBSP 090100Z 11007KT 9999 OVC010 15/12 Q1026=
2020050902 - SABZ18 SBSP 090200
2020050902 - METAR SBSP 090200Z 11007KT 9999 BKN014 14/11 Q1026=
2020050902 - SPECI SBSP 090201Z 11007KT 080V140 9999 SCT012 BKN015 14/11 Q1026=
2020050903 - SABZ21 SBSP 090300
2020050903 - METAR SBSP 090300Z AUTO 11004KT 9999 FEW013 14/11 Q1026=
2020050904 - SABZ21 SBSP 090400
2020050904 - METAR SBSP 090400Z AUTO 10003KT 050V140 9999 FEW022 14/11 Q1025=
2020050905 - SABZ21 SBSP 090500
2020050905 - METAR SBSP 090500Z AUTO 11005KT 080V140 9999 FEW019 13/11 Q1025=
2020050906 - SABZ21 SBSP 090600
2020050906 - METAR SBSP 090600Z AUTO 11005KT 070V150 9999 FEW021 13/10 Q1025=
2020050907 - SABZ21 SBSP 090700
2020050907 - METAR SBSP 090700Z AUTO 11005KT 060V130 9999 BKN015 14/10 Q1024=
2020050907 - SPECI SBSP 090701Z AUTO 10005KT 050V140 9999 OVC014 14/10 Q1024=
2020050908 - SABZ21 SBSP 090800
2020050908 - METAR SBSP 090800Z AUTO 08007KT 050V110 9999 BKN013 14/10 Q1024=
2020050909 - SABZ18 SBSP 090900
2020050909 - METAR SBSP 090900Z 08007KT 9999 BKN010 14/10 Q1025=
2020050910 - SABZ18 SBSP 091000
2020050910 - METAR SBSP 091000Z 08007KT 9999 BKN009 14/11 Q1026=
2020050911 - SABZ18 SBSP 091100
2020050911 - METAR SBSP 091100Z 07008KT 9999 SCT009 14/11 Q1026=
2020050912 - SABZ18 SBSP 091200
2020050912 - METAR SBSP 091200Z 07007KT CAVOK 16/11 Q1026=
2020050913 - SABZ18 SBSP 091300
2020050913 - METAR SBSP 091300Z 07006KT CAVOK 17/11 Q1027=
2020050914 - SABZ18 SBSP 091400
2020050914 - METAR SBSP 091400Z 07007KT CAVOK 19/10 Q1027=
2020050915 - SABZ18 SBSP 091500
2020050915 - METAR SBSP 091500Z 06006KT CAVOK 21/10 Q1026=
2020050916 - SABZ18 SBSP 091600
2020050916 - METAR SBSP 091600Z 09005KT CAVOK 21/09 Q1025=
2020050917 - SABZ18 SBSP 091700
2020050917 - METAR SBSP 091700Z 04005KT CAVOK 22/08 Q1024=
2020050918 - SABZ18 SBSP 091800
2020050918 - METAR SBSP 091800Z 09004KT CAVOK 23/07 Q1023=
2020050919 - SABZ18 SBSP 091900
2020050919 - METAR SBSP 091900Z 22002KT CAVOK 23/08 Q1023=
2020050920 - SABZ18 SBSP 092000
2020050920 - METAR SBSP 092000Z 16009KT CAVOK 19/13 Q1024=
2020050921 - SABZ18 SBSP 092100
2020050921 - METAR SBSP 092100Z 16008KT CAVOK 17/13 Q1024=
2020050922 - SABZ18 SBSP 092200
2020050922 - METAR SBSP 092200Z 16007KT CAVOK 16/13 Q1025=
2020050923 - SABZ18 SBSP 092300
2020050923 - METAR SBSP 092300Z 16005KT CAVOK 15/12 Q1025=
2020051000 - SABZ18 SBSP 100000
2020051000 - METAR SBSP 100000Z 16004KT CAVOK 15/12 Q1025=
2020051001 - SABZ18 SBSP 100100
2020051001 - METAR SBSP 100100Z 13002KT CAVOK 15/12 Q1025=
2020051002 - SABZ18 SBSP 100200
2020051002 - METAR SBSP 100200Z 08003KT CAVOK 16/12 Q1025=
2020051002 - SPECI SBSP 100202Z 08003KT 050V110 CAVOK 16/12 Q1025=
2020051003 - SABZ21 SBSP 100300
2020051003 - METAR SBSP 100300Z AUTO VRB02KT CAVOK 15/11 Q1025=
2020051004 - SABZ21 SBSP 100400
2020051004 - METAR SBSP 100400Z AUTO 05006KT CAVOK 15/12 Q1024=
2020051005 - SABZ21 SBSP 100500
2020051005 - METAR SBSP 100500Z AUTO 07004KT 020V120 CAVOK 15/11 Q1024=
2020051006 - SABZ21 SBSP 100600
2020051006 - METAR SBSP 100600Z AUTO 05006KT 020V090 CAVOK 15/11 Q1023=
2020051007 - SABZ21 SBSP 100700
2020051007 - METAR SBSP 100700Z AUTO 06006KT CAVOK 14/11 Q1023=
2020051008 - SABZ21 SBSP 100800
2020051008 - METAR SBSP 100800Z AUTO 05003KT 010V090 CAVOK 14/11 Q1023=
2020051009 - SABZ18 SBSP 100900
2020051009 - METAR SBSP 100900Z 06004KT CAVOK 13/11 Q1024=
2020051010 - SABZ18 SBSP 101000
2020051010 - METAR SBSP 101000Z 06003KT CAVOK 13/11 Q1024=
2020051011 - SABZ18 SBSP 101100
2020051011 - METAR SBSP 101100Z 05006KT CAVOK 14/11 Q1025=
2020051012 - SABZ18 SBSP 101200
2020051012 - METAR SBSP 101200Z 04005KT CAVOK 16/11 Q1025=
2020051013 - SABZ18 SBSP 101300
2020051013 - METAR SBSP 101300Z 04004KT CAVOK 18/11 Q1025=
2020051014 - SABZ18 SBSP 101400
2020051014 - METAR SBSP 101400Z 35006KT CAVOK 20/11 Q1025=
2020051015 - SABZ18 SBSP 101500
2020051015 - METAR SBSP 101500Z 35005KT 220V030 CAVOK 21/10 Q1024=
2020051016 - SABZ18 SBSP 101600
2020051016 - METAR SBSP 101600Z VRB05KT CAVOK 22/10 Q1023=
2020051017 - SABZ18 SBSP 101700
2020051017 - METAR SBSP 101700Z 32006KT 230V360 CAVOK 23/09 Q1022=
2020051018 - SABZ18 SBSP 101800
2020051018 - METAR SBSP 101800Z 30004KT CAVOK 24/08 Q1022=
2020051019 - SABZ18 SBSP 101900
2020051019 - METAR SBSP 101900Z VRB03KT CAVOK 24/08 Q1021=
2020051020 - SABZ18 SBSP 102000
2020051020 - METAR SBSP 102000Z VRB02KT CAVOK 23/08 Q1021=
2020051021 - SABZ18 SBSP 102100
2020051021 - METAR SBSP 102100Z 13007KT CAVOK 20/13 Q1022=
2020051022 - SABZ18 SBSP 102200
2020051022 - METAR SBSP 102200Z 12006KT CAVOK 19/13 Q1022=
2020051023 - SABZ18 SBSP 102300
2020051023 - METAR SBSP 102300Z 10005KT CAVOK 19/13 Q1022=
2020051100 - SABZ18 SBSP 110000
2020051100 - METAR SBSP 110000Z 08002KT CAVOK 18/10 Q1022=
2020051101 - SABZ18 SBSP 110100
2020051101 - METAR SBSP 110100Z 10003KT 050V150 CAVOK 17/09 Q1022=
2020051102 - SABZ18 SBSP 110200
2020051102 - METAR SBSP 110200Z 05002KT CAVOK 17/10 Q1022=
2020051102 - SPECI SBSP 110202Z 05002KT CAVOK 17/10 Q1022=
2020051103 - SABZ21 SBSP 110300
2020051103 - METAR SBSP 110300Z AUTO 06006KT 030V110 CAVOK 17/09 Q1021=
2020051104 - SABZ21 SBSP 110400
2020051104 - METAR SBSP 110400Z AUTO VRB02KT CAVOK 16/09 Q1022=
2020051105 - SABZ21 SBSP 110500
2020051105 - METAR SBSP 110500Z AUTO VRB02KT CAVOK 15/09 Q1021=
2020051106 - SABZ21 SBSP 110600
2020051106 - METAR SBSP 110600Z AUTO 05004KT CAVOK 16/10 Q1021=
2020051107 - SABZ21 SBSP 110700
2020051107 - METAR SBSP 110700Z AUTO 03003KT CAVOK 15/10 Q1021=
2020051108 - SABZ21 SBSP 110800
2020051108 - METAR SBSP 110800Z AUTO 05004KT CAVOK 15/10 Q1021=
2020051109 - SABZ18 SBSP 110900
2020051109 - METAR SBSP 110900Z 04004KT CAVOK 14/10 Q1022=
2020051110 - SABZ18 SBSP 111000
2020051110 - METAR SBSP 111000Z 04004KT CAVOK 14/10 Q1022=
2020051111 - SABZ18 SBSP 111100
2020051111 - METAR SBSP 111100Z 04005KT CAVOK 16/11 Q1023=
2020051112 - SABZ18 SBSP 111200
2020051112 - METAR SBSP 111200Z 02006KT CAVOK 17/11 Q1024=
2020051113 - SABZ18 SBSP 111300
2020051113 - METAR SBSP 111300Z 02008KT CAVOK 19/10 Q1025=
2020051114 - SABZ18 SBSP 111400
2020051114 - METAR SBSP 111400Z 36007KT CAVOK 22/10 Q1024=
2020051115 - SABZ18 SBSP 111500
2020051115 - METAR SBSP 111500Z 35011KT CAVOK 22/11 Q1023=
2020051116 - SABZ18 SBSP 111600
2020051116 - METAR SBSP 111600Z 34008KT CAVOK 24/10 Q1023=
2020051117 - SABZ18 SBSP 111700
2020051117 - METAR SBSP 111700Z 34007KT CAVOK 24/11 Q1022=
2020051118 - SABZ18 SBSP 111800
2020051118 - METAR SBSP 111800Z 30007KT CAVOK 24/09 Q1021=
2020051119 - SABZ18 SBSP 111900
2020051119 - METAR SBSP 111900Z 31008KT CAVOK 24/10 Q1021=
2020051120 - SABZ18 SBSP 112000
2020051120 - METAR SBSP 112000Z 34006KT CAVOK 23/10 Q1022=
2020051121 - SABZ18 SBSP 112100
2020051121 - METAR SBSP 112100Z 32004KT CAVOK 22/11 Q1022=
2020051122 - SABZ18 SBSP 112200
2020051122 - METAR SBSP 112200Z 30002KT CAVOK 21/10 Q1023=
2020051123 - SABZ18 SBSP 112300
2020051123 - METAR SBSP 112300Z 33002KT CAVOK 19/10 Q1023=
2020051200 - SABZ18 SBSP 120000
2020051200 - METAR SBSP 120000Z 05002KT CAVOK 20/10 Q1023=
2020051201 - SABZ18 SBSP 120100
2020051201 - METAR SBSP 120100Z 00000KT CAVOK 18/10 Q1022=
2020051202 - SABZ18 SBSP 120200
2020051202 - METAR SBSP 120200Z 33002KT CAVOK 18/11 Q1022=
2020051202 - SPECI SBSP 120202Z 33002KT CAVOK 17/11 Q1022=
2020051203 - SABZ21 SBSP 120300
2020051203 - METAR SBSP 120300Z AUTO 32002KT CAVOK 17/11 Q1022=
2020051204 - SABZ21 SBSP 120400
2020051204 - METAR SBSP 120400Z AUTO 32002KT CAVOK 16/11 Q1022=
2020051205 - SABZ21 SBSP 120500
2020051205 - METAR SBSP 120500Z AUTO 04004KT CAVOK 17/11 Q1021=
2020051206 - SABZ21 SBSP 120600
2020051206 - METAR SBSP 120600Z AUTO 33004KT CAVOK 15/11 Q1021=
2020051207 - SABZ21 SBSP 120700
2020051207 - METAR SBSP 120700Z AUTO 32003KT CAVOK 14/11 Q1021=
2020051208 - SABZ21 SBSP 120800
2020051208 - METAR SBSP 120800Z AUTO 33002KT CAVOK 14/11 Q1020=
2020051209 - SABZ18 SBSP 120900
2020051209 - METAR SBSP 120900Z 34003KT CAVOK 14/11 Q1021=
2020051210 - SABZ18 SBSP 121000
2020051210 - METAR SBSP 121000Z 32003KT CAVOK 13/10 Q1021=
2020051211 - SABZ18 SBSP 121100
2020051211 - METAR SBSP 121100Z 32004KT CAVOK 16/11 Q1021=
2020051212 - SABZ18 SBSP 121200
2020051212 - METAR SBSP 121200Z 35003KT CAVOK 19/11 Q1022=
2020051213 - SABZ18 SBSP 121300
2020051213 - METAR SBSP 121300Z 35008KT CAVOK 21/10 Q1022=
2020051214 - Mensagem METAR de 'SBSP' para 12/05/2020 as 14(UTC) não localizada na base de dados da REDEMET
2020051215 - Mensagem METAR de 'SBSP' para 12/05/2020 as 15(UTC) não localizada na base de dados da REDEMET
2020051216 - Mensagem METAR de 'SBSP' para 12/05/2020 as 16(UTC) não localizada na base de dados da REDEMET
2020051217 - Mensagem METAR de 'SBSP' para 12/05/2020 as 17(UTC) não localizada na base de dados da REDEMET
2020051218 - Mensagem METAR de 'SBSP' para 12/05/2020 as 18(UTC) não localizada na base de dados da REDEMET
2020051219 - Mensagem METAR de 'SBSP' para 12/05/2020 as 19(UTC) não localizada na base de dados da REDEMET
2020051220 - Mensagem METAR de 'SBSP' para 12/05/2020 as 20(UTC) não localizada na base de dados da REDEMET
2020051221 - Mensagem METAR de 'SBSP' para 12/05/2020 as 21(UTC) não localizada na base de dados da REDEMET
2020051222 - Mensagem METAR de 'SBSP' para 12/05/2020 as 22(UTC) não localizada na base de dados da REDEMET
2020051223 - Mensagem METAR de 'SBSP' para 12/05/2020 as 23(UTC) não localizada na base de dados da REDEMET
2020051300 - SABZ18 SBSP 130000
2020051300 - METAR SBSP 130000Z 22002KT CAVOK 19/11 Q1020=
2020051301 - SABZ18 SBSP 130100
2020051301 - METAR SBSP 130100Z 08002KT CAVOK 17/11 Q1020=
2020051302 - SABZ18 SBSP 130200
2020051302 - METAR SBSP 130200Z 25001KT CAVOK 18/10 Q1020=
2020051302 - SPECI SBSP 130201Z 00000KT CAVOK 18/10 Q1019=
2020051303 - SABZ21 SBSP 130300
2020051303 - METAR SBSP 130300Z AUTO 00000KT CAVOK 18/10 Q1019=
2020051304 - SABZ21 SBSP 130400
2020051304 - METAR SBSP 130400Z AUTO VRB02KT CAVOK 18/11 Q1018=
2020051305 - SABZ21 SBSP 130500
2020051305 - METAR SBSP 130500Z AUTO 04004KT 010V070 CAVOK 18/11 Q1017=
2020051306 - SABZ21 SBSP 130600
2020051306 - METAR SBSP 130600Z AUTO 01004KT CAVOK 17/10 Q1017=
2020051307 - SABZ21 SBSP 130700
2020051307 - METAR SBSP 130700Z AUTO 29002KT CAVOK 16/10 Q1017=
2020051308 - SABZ21 SBSP 130800
2020051308 - METAR SBSP 130800Z AUTO 00000KT CAVOK 15/10 Q1017=
2020051309 - SABZ18 SBSP 130900
2020051309 - METAR SBSP 130900Z 06004KT CAVOK 16/10 Q1017=
2020051310 - SABZ18 SBSP 131000
2020051310 - METAR SBSP 131000Z 04003KT CAVOK 17/10 Q1018=
2020051311 - SABZ18 SBSP 131100
2020051311 - METAR SBSP 131100Z 31004KT CAVOK 18/10 Q1019=
2020051312 - SABZ18 SBSP 131200
2020051312 - METAR SBSP 131200Z 02003KT CAVOK 19/11 Q1019=
2020051313 - SABZ18 SBSP 131300
2020051313 - METAR SBSP 131300Z 34006KT CAVOK 21/11 Q1019=
2020051314 - SABZ18 SBSP 131400
2020051314 - METAR SBSP 131400Z 33012KT CAVOK 22/11 Q1018=
2020051315 - SABZ18 SBSP 131500
2020051315 - METAR SBSP 131500Z 35013KT CAVOK 22/12 Q1018=
2020051316 - SABZ18 SBSP 131600
2020051316 - METAR SBSP 131600Z 35013KT CAVOK 23/11 Q1016=
2020051317 - SABZ18 SBSP 131700
2020051317 - METAR SBSP 131700Z 33015KT CAVOK 25/11 Q1016=
2020051318 - SABZ18 SBSP 131800
2020051318 - METAR SBSP 131800Z 32014KT CAVOK 24/11 Q1016=
2020051319 - SABZ18 SBSP 131900
2020051319 - METAR SBSP 131900Z 32012KT CAVOK 23/12 Q1016=
2020051320 - SABZ18 SBSP 132000
2020051320 - METAR SBSP 132000Z 33007KT CAVOK 23/12 Q1016=
2020051321 - SABZ18 SBSP 132100
2020051321 - METAR SBSP 132100Z 31006KT CAVOK 22/12 Q1016=
2020051322 - SABZ18 SBSP 132200
2020051322 - METAR SBSP 132200Z 32006KT CAVOK 22/13 Q1016=
2020051323 - SABZ18 SBSP 132300
2020051323 - METAR SBSP 132300Z 34005KT CAVOK 21/13 Q1017=
2020051400 - SABZ18 SBSP 140000
2020051400 - METAR SBSP 140000Z 33006KT CAVOK 21/13 Q1017=
2020051401 - SABZ18 SBSP 140100
2020051401 - METAR SBSP 140100Z 29003KT CAVOK 20/13 Q1017=
2020051402 - SABZ18 SBSP 140200
2020051402 - METAR SBSP 140200Z 28002KT CAVOK 20/13 Q1018=
2020051402 - SPECI SBSP 140203Z VRB02KT CAVOK 20/13 Q1017=
2020051403 - SABZ21 SBSP 140300
2020051403 - METAR SBSP 140300Z AUTO 33003KT CAVOK 20/13 Q1017=
2020051404 - SABZ21 SBSP 140400
2020051404 - METAR SBSP 140400Z AUTO 35003KT CAVOK 19/13 Q1017=
2020051405 - SABZ21 SBSP 140500
2020051405 - METAR SBSP 140500Z AUTO 31003KT 280V340 CAVOK 19/13 Q1017=
2020051406 - SABZ21 SBSP 140600
2020051406 - METAR SBSP 140600Z AUTO 27003KT 220V320 9999 FEW039 19/13 Q1017=
2020051407 - SABZ21 SBSP 140700
2020051407 - METAR SBSP 140700Z AUTO 32003KT CAVOK 19/13 Q1017=
2020051408 - SABZ21 SBSP 140800
2020051408 - METAR SBSP 140800Z AUTO VRB01KT CAVOK 19/13 Q1016=
2020051409 - SABZ18 SBSP 140900
2020051409 - METAR SBSP 140900Z 01002KT 9999 FEW040 BKN090 19/13 Q1017=
2020051410 - SABZ18 SBSP 141000 CCA
2020051410 - METAR COR SBSP 141000Z 03002KT 8000 -RA FEW040 BKN070 18/14 Q1018=
2020051411 - SABZ18 SBSP 141100
2020051411 - METAR SBSP 141100Z 24006KT 9999 BKN021 BKN100 18/14 Q1019=
2020051412 - SABZ18 SBSP 141200
2020051412 - METAR SBSP 141200Z 22005KT 9999 BKN023 BKN100 18/15 Q1020=
2020051413 - SABZ18 SBSP 141300
2020051413 - METAR SBSP 141300Z 28003KT 9999 SCT011 BKN021 19/15 Q1020=
2020051414 - SABZ18 SBSP 141400
2020051414 - METAR SBSP 141400Z 25004KT 9999 BKN016 19/15 Q1020=
2020051415 - SABZ18 SBSP 141500
2020051415 - METAR SBSP 141500Z 26005KT 9999 BKN015 BKN100 20/15 Q1020=
2020051416 - SABZ18 SBSP 141600
2020051416 - METAR SBSP 141600Z 22005KT 9999 FEW005 BKN017 18/16 Q1020=
2020051417 - SABZ18 SBSP 141700
2020051417 - METAR SBSP 141700Z 23004KT 9999 BKN015 20/16 Q1019=
2020051418 - SABZ18 SBSP 141800 CCA
2020051418 - METAR COR SBSP 141800Z 20010KT 9999 -DZ SCT006 BKN011 19/16 Q1019=
2020051419 - SABZ18 SBSP 141900
2020051419 - METAR SBSP 141900Z 18013KT 9999 SCT007 BKN008 17/15 Q1020=
2020051420 - SABZ18 SBSP 142000
2020051420 - METAR SBSP 142000Z 16011KT 9999 SCT006 BKN009 17/15 Q1020=
2020051421 - SABZ18 SBSP 142100
2020051421 - METAR SBSP 142100Z 18010KT 9999 SCT006 BKN009 16/15 Q1021=
2020051422 - SABZ18 SBSP 142200
2020051422 - METAR SBSP 142200Z 17009KT 9999 BKN006 16/14 Q1021=
2020051423 - SABZ18 SBSP 142300
2020051423 - METAR SBSP 142300Z 18008KT 9999 SCT005 BKN007 16/15 Q1022=
2020051500 - SABZ18 SBSP 150000
2020051500 - METAR SBSP 150000Z 17008KT 9999 SCT006 BKN009 16/14 Q1022=
2020051501 - SABZ18 SBSP 150100
2020051501 - METAR SBSP 150100Z 17009KT 5000 BR SCT003 BKN007 16/14 Q1022=
2020051502 - SABZ18 SBSP 150200
2020051502 - METAR SBSP 150200Z 18009KT 9999 BKN006 16/14 Q1022=
2020051502 - SPECI SBSP 150201Z 18010KT 8000 OVC005 16/14 Q1022=
2020051502 - SPECI SBSP 150212Z AUTO 17010KT 6000 BKN004 OVC015 16/14 Q1022=
2020051502 - SPECI SBSP 150217Z AUTO 17010KT 6000 BKN004 BKN006 OVC015 15/14Q1022=
2020051502 - SPECI SBSP 150238Z AUTO 16008KT 9999 OVC005 15/14 Q1022=
2020051502 - SPECI SBSP 150242Z AUTO 16009KT 9999 BKN004 OVC006 15/14 Q1022=
2020051502 - SPECI SBSP 150253Z AUTO 16009KT 9000 FEW004 OVC006 15/14 Q1022=
2020051503 - SABZ21 SBSP 150300
2020051503 - METAR SBSP 150300Z AUTO 16010KT 9999 FEW004 OVC006 15/14 Q1022=
2020051503 - SPECI SBSP 150305Z AUTO 17011KT 9999 BKN005 BKN007 OVC016 15/14Q1022=
2020051504 - SABZ21 SBSP 150400
2020051504 - METAR SBSP 150400Z AUTO 16009KT 9999 BKN005 OVC007 15/14 Q1022=
2020051504 - SPECI SBSP 150401Z AUTO 16009KT 9999 BKN004 OVC007 15/14 Q1022=
2020051504 - SPECI SBSP 150421Z AUTO 16008KT 7000 BKN003 BKN005 OVC007 15/14Q1022=
2020051504 - SPECI SBSP 150432Z AUTO 18008KT 9999 FEW003 OVC005 15/14 Q1022=
2020051504 - SPECI SBSP 150435Z AUTO 19007KT 9999 OVC004 15/14 Q1022=
2020051504 - SPECI SBSP 150452Z AUTO 17008KT 9999 BKN005 OVC007 15/14 Q1022=
2020051504 - SPECI SBSP 150458Z AUTO 16008KT 9999 BKN004 OVC007 15/14 Q1022=
2020051505 - SABZ21 SBSP 150500
2020051505 - METAR SBSP 150500Z AUTO 16008KT 9999 BKN004 OVC007 15/14 Q1022=
2020051505 - SPECI SBSP 150523Z AUTO 16008KT 7000 BKN003 BKN005 OVC010 15/14Q1021=
2020051505 - SPECI SBSP 150547Z AUTO 17010KT 140V200 8000 BKN004 OVC006 15/14Q1021=
2020051506 - SABZ21 SBSP 150600
2020051506 - METAR SBSP 150600Z AUTO 17010KT 7000 BKN004 OVC006 15/14 Q1021=
2020051506 - SPECI SBSP 150621Z AUTO 18009KT 5000 BR BKN003 BKN005 OVC010 15/13Q1021=
2020051506 - SPECI SBSP 150635Z AUTO 17009KT 6000 BKN004 OVC012 15/14 Q1021=
2020051507 - SABZ21 SBSP 150700
2020051507 - METAR SBSP 150700Z AUTO 16009KT 7000 BKN004 OVC012 15/13 Q1021=
2020051507 - SPECI SBSP 150708Z AUTO 16008KT 9999 BKN004 BKN006 OVC024 15/13Q1021=
2020051508 - SABZ21 SBSP 150800
2020051508 - METAR SBSP 150800Z AUTO 16009KT 9000 OVC005 15/13 Q1021=
2020051508 - SPECI SBSP 150801Z AUTO 16008KT 9000 BKN004 OVC006 15/13 Q1021=
2020051509 - SABZ18 SBSP 150900
2020051509 - METAR SBSP 150900Z 16007KT 9999 SCT005 BKN009 15/13 Q1022=
2020051510 - SABZ18 SBSP 151000
2020051510 - METAR SBSP 151000Z 16010KT 9999 SCT005 BKN006 15/13 Q1022=
2020051511 - SABZ18 SBSP 151100
2020051511 - METAR SBSP 151100Z 16010KT 9999 SCT005 BKN007 14/13 Q1023=
2020051512 - SABZ18 SBSP 151200
2020051512 - METAR SBSP 151200Z 15011KT 9999 SCT005 BKN007 15/13 Q1024=
2020051513 - SABZ18 SBSP 151300
2020051513 - METAR SBSP 151300Z 15010KT 7000 -DZ SCT005 BKN007 15/13 Q1024=
2020051514 - SABZ18 SBSP 151400
2020051514 - METAR SBSP 151400Z 15010KT 9999 SCT009 BKN013 16/13 Q1024=
2020051515 - SABZ18 SBSP 151500
2020051515 - METAR SBSP 151500Z 16009KT 9999 SCT007 BKN009 16/13 Q1023=
2020051516 - SABZ18 SBSP 151600
2020051516 - METAR SBSP 151600Z 16010KT 9999 SCT006 BKN011 16/13 Q1022=
2020051517 - SABZ18 SBSP 151700
2020051517 - METAR SBSP 151700Z 15010KT 9999 BKN011 16/13 Q1021=
2020051518 - SABZ18 SBSP 151800
2020051518 - METAR SBSP 151800Z 16007KT 9999 BKN013 16/13 Q1021=
2020051519 - SABZ18 SBSP 151900
2020051519 - METAR SBSP 151900Z 16008KT 9999 SCT011 BKN013 16/12 Q1021=
2020051520 - SABZ18 SBSP 152000
2020051520 - METAR SBSP 152000Z 16009KT 9999 OVC011 15/12 Q1021=
2020051521 - SABZ18 SBSP 152100
2020051521 - METAR SBSP 152100Z 16006KT 9999 SCT011 BKN013 15/12 Q1022=
2020051522 - SABZ18 SBSP 152200
2020051522 - METAR SBSP 152200Z 15006KT 9999 BKN009 BKN013 15/12 Q1022=
2020051523 - SABZ18 SBSP 152300
2020051523 - METAR SBSP 152300Z 13004KT 9999 BKN013 15/12 Q1022=
2020051600 - SABZ18 SBSP 160000
2020051600 - METAR SBSP 160000Z 16006KT 9999 BKN011 15/12 Q1022=
2020051601 - SABZ18 SBSP 160100
2020051601 - METAR SBSP 160100Z 15005KT 9999 SCT011 BKN013 15/12 Q1022=
2020051602 - SABZ18 SBSP 160200
2020051602 - METAR SBSP 160200Z 13004KT 9999 BKN015 15/12 Q1022=
2020051602 - SPECI SBSP 160207Z 13005KT 100V160 9999 OVC014 15/12 Q1022=
2020051602 - SPECI SBSP 160213Z AUTO 13005KT 9999 OVC015 15/12 Q1022=
2020051602 - SPECI SBSP 160215Z AUTO 13005KT 9999 OVC014 15/12 Q1022=
2020051602 - SPECI SBSP 160241Z AUTO 13003KT 100V170 9999 BKN012 OVC014 15/12Q1022=
2020051603 - SABZ21 SBSP 160300
2020051603 - METAR SBSP 160300Z AUTO 13004KT 100V160 9999 OVC012 15/12 Q1022=
2020051603 - SPECI SBSP 160301Z AUTO 14004KT 100V170 9999 BKN011 OVC013 15/12Q1021=
2020051603 - SPECI SBSP 160353Z AUTO 16003KT 9999 FEW010 BKN013 15/12 Q1021=
2020051604 - SABZ21 SBSP 160400
2020051604 - METAR SBSP 160400Z AUTO 16003KT 9999 FEW010 BKN013 15/12 Q1021=
2020051604 - SPECI SBSP 160409Z AUTO 16003KT 9999 BKN012 BKN014 15/12 Q1021=
2020051604 - SPECI SBSP 160423Z AUTO 17003KT 9999 SCT009 BKN012 OVC016 15/12Q1021=
2020051604 - SPECI SBSP 160449Z AUTO 15003KT 090V180 9999 BKN009 BKN011 OVC01515/12 Q1020=
2020051605 - SABZ21 SBSP 160500
2020051605 - METAR SBSP 160500Z AUTO 15003KT 090V170 9999 BKN009 BKN011 OVC01415/12 Q1020=
2020051605 - SPECI SBSP 160510Z AUTO 16002KT 9999 BKN010 OVC017 15/12 Q1020=
2020051605 - SPECI SBSP 160515Z AUTO 16003KT 9999 BKN009 BKN015 OVC026 15/12Q1020=
2020051605 - SPECI SBSP 160516Z AUTO 16003KT 9999 BKN009 BKN014 OVC026 15/12Q1020=
2020051605 - SPECI SBSP 160528Z AUTO VRB01KT 9999 FEW008 SCT010 OVC012 15/13Q1020=
2020051605 - SPECI SBSP 160530Z AUTO VRB01KT 9999 SCT008 BKN010 OVC014 15/13Q1020=
2020051605 - SPECI SBSP 160539Z AUTO VRB01KT 9999 BKN008 BKN010 OVC014 15/13Q1020=
2020051606 - SABZ21 SBSP 160600
2020051606 - METAR SBSP 160600Z AUTO 00000KT 9999 BKN007 BKN010 OVC014 15/13Q1020=
2020051606 - SPECI SBSP 160624Z AUTO VRB02KT 9999 BKN008 OVC010 15/13 Q1020=
2020051606 - SPECI SBSP 160638Z AUTO VRB02KT 9999 BKN007 BKN010 OVC014 15/13Q1020=
2020051606 - SPECI SBSP 160650Z AUTO VRB02KT 9999 SCT007 BKN009 OVC012 15/13Q1020=
2020051607 - SABZ21 SBSP 160700
2020051607 - METAR SBSP 160700Z AUTO 06002KT 9000 FEW007 BKN009 OVC012 15/13Q1019=
2020051607 - SPECI SBSP 160705Z AUTO VRB02KT 8000 FEW007 BKN009 OVC018 15/13Q1019=
2020051607 - SPECI SBSP 160708Z AUTO VRB02KT 8000 FEW007 BKN009 OVC011 15/13Q1019=
2020051607 - SPECI SBSP 160713Z AUTO VRB02KT 8000 BKN005 BKN008 OVC018 15/13Q1019=
2020051607 - SPECI SBSP 160730Z AUTO 04003KT 360V070 7000 FEW005 BKN008 BKN01115/13 Q1019=
2020051607 - SPECI SBSP 160743Z AUTO 04004KT 010V070 7000 FEW006 BKN009 15/13Q1019=
2020051608 - SABZ21 SBSP 160800
2020051608 - METAR SBSP 160800Z AUTO 04004KT 360V070 8000 BKN008 15/13 Q1019=
2020051608 - SPECI SBSP 160849Z AUTO 03005KT 360V060 7000 BKN006 OVC008 15/13Q1020=
2020051609 - SABZ18 SBSP 160900 RRA
2020051609 - METAR SBSP 160900Z 05004KT 9999 BKN006 15/13 Q1020=
2020051609 - SPECI SBSP 160915Z AUTO 04004KT 360V070 7000 OVC007 15/13 Q1020=
2020051610 - SABZ18 SBSP 161000
2020051610 - METAR SBSP 161000Z 01003KT 7000 OVC006 15/13 Q1020=
2020051611 - SABZ18 SBSP 161100
2020051611 - METAR SBSP 161100Z 32003KT 7000 OVC006 16/13 Q1021=
2020051612 - SABZ18 SBSP 161200
2020051612 - METAR SBSP 161200Z 28002KT 9000 BKN009 17/13 Q1022=
2020051612 - SPECI SBSP 161240Z 29003KT 9999 FEW011 18/13 Q1022=
2020051613 - SABZ18 SBSP 161300
2020051613 - METAR SBSP 161300Z 32003KT CAVOK 19/13 Q1022=
2020051614 - SABZ18 SBSP 161400
2020051614 - METAR SBSP 161400Z 26003KT CAVOK 20/12 Q1021=
2020051615 - SABZ18 SBSP 161500
2020051615 - METAR SBSP 161500Z 26007KT 9999 FEW040 21/09 Q1021=
2020051616 - SABZ18 SBSP 161600
2020051616 - METAR SBSP 161600Z 20006KT 9999 FEW045 22/10 Q1020=
2020051617 - SABZ18 SBSP 161700
2020051617 - METAR SBSP 161700Z 19007KT 9999 FEW046 22/10 Q1019=
2020051618 - SABZ18 SBSP 161800
2020051618 - METAR SBSP 161800Z 23006KT CAVOK 23/10 Q1019=
2020051619 - SABZ18 SBSP 161900
2020051619 - METAR SBSP 161900Z 19007KT CAVOK 22/12 Q1019=
2020051620 - SABZ18 SBSP 162000
2020051620 - METAR SBSP 162000Z 17010KT CAVOK 20/14 Q1019=
2020051621 - SABZ18 SBSP 162100
2020051621 - METAR SBSP 162100Z 16009KT CAVOK 18/14 Q1020=
2020051622 - SABZ18 SBSP 162200
2020051622 - METAR SBSP 162200Z 16007KT CAVOK 16/13 Q1021=
2020051623 - SABZ18 SBSP 162300
2020051623 - METAR SBSP 162300Z 16005KT CAVOK 15/12 Q1021=
2020051700 - SABZ18 SBSP 170000
2020051700 - METAR SBSP 170000Z 18002KT CAVOK 16/13 Q1022=
2020051701 - SABZ18 SBSP 170100
2020051701 - METAR SBSP 170100Z 16003KT CAVOK 15/12 Q1022=
2020051702 - SABZ18 SBSP 170200
2020051702 - METAR SBSP 170200Z 16003KT CAVOK 15/13 Q1022=
2020051702 - SPECI SBSP 170207Z 18003KT CAVOK 15/12 Q1022=
2020051702 - SPECI SBSP 170206Z 18003KT CAVOK 15/12 Q1022=
2020051703 - SABZ21 SBSP 170300
2020051703 - METAR SBSP 170300Z AUTO 13002KT 8000 NCD 14/12 Q1022=
2020051703 - SPECI SBSP 170354Z AUTO 11001KT 4800 BR NCD 14/12 Q1021=
2020051704 - SABZ21 SBSP 170400
2020051704 - METAR SBSP 170400Z AUTO VRB01KT 4800 BR NCD 14/12 Q1021=
2020051704 - SPECI SBSP 170423Z AUTO VRB01KT 5000 BR NCD 14/12 Q1021=
2020051704 - SPECI SBSP 170442Z AUTO 00000KT 4500 BR NCD 14/12 Q1021=
2020051704 - SPECI SBSP 170455Z AUTO 00000KT 5000 BR NCD 14/12 Q1021=
2020051705 - SABZ21 SBSP 170500
2020051705 - METAR SBSP 170500Z AUTO 00000KT 5000 BR NCD 14/12 Q1021=
2020051706 - SABZ21 SBSP 170600
2020051706 - METAR SBSP 170600Z AUTO 20003KT 6000 NCD 12/11 Q1020=
2020051706 - SPECI SBSP 170632Z AUTO 21002KT 4900 BR NCD 13/11 Q1020=
2020051706 - SPECI SBSP 170641Z AUTO 22002KT 0550 R17/P2000N BR NCD 13/11 Q1020=
2020051706 - SPECI SBSP 170647Z AUTO 22002KT 0300 R17/0550D FG NCD 12/11 Q1020=
2020051706 - SPECI SBSP 170648Z AUTO 22002KT 0250 R17/0500D -RA BCFG FEW003 12/11Q1020=
2020051706 - SPECI SBSP 170653Z AUTO 21003KT 0250 R17/0275D -RA BCFG FEW000 12/11Q1020=
2020051707 - SABZ21 SBSP 170700
2020051707 - METAR SBSP 170700Z AUTO 21003KT 0250 R17/0275D -RA BCFG FEW000 12/11Q1020=
2020051707 - SPECI SBSP 170701Z AUTO 20003KT 0250 R17/0250N -RA BCFG FEW000 BKN00212/11 Q1020=
2020051707 - SPECI SBSP 170707Z AUTO 19003KT 0250 R17/0300N -RA FG VV000 12/11Q1020=
2020051707 - SPECI SBSP 170708Z AUTO 19003KT 0250 R17/0275N -RA FG VV000 12/11Q1020=
2020051708 - SABZ21 SBSP 170800
2020051708 - METAR SBSP 170800Z AUTO VRB01KT 0250 R17/0275N FG VV000 13/11 Q1020=
2020051709 - SABZ18 SBSP 170900
2020051709 - METAR SBSP 170900Z VRB01KT 0050 R17/0350N R35/0375N FG VV005 12/11 Q1021=
2020051710 - SABZ18 SBSP 171000
2020051710 - METAR SBSP 171000Z 00000KT 0050 R17/0200 R35/0200 FG VV005 12/11 Q1022=
2020051711 - SABZ18 SBSP 171100
2020051711 - METAR SBSP 171100Z 03003KT 0800 R17/0800U R35/0900U FG OVC005 13/12 Q1022=
2020051711 - SPECI SBSP 171131Z 04004KT 340V060 1500 BCFG BR BKN003 13/12 Q1023=
2020051712 - SABZ18 SBSP 171200
2020051712 - METAR SBSP 171200Z VRB02KT 6000 FEW004 14/13 Q1023=
2020051713 - SABZ18 SBSP 171300
2020051713 - METAR SBSP 171300Z 03003KT 350V080 9000 NSC 17/13 Q1023=
2020051714 - SABZ18 SBSP 171400
2020051714 - METAR SBSP 171400Z VRB03KT CAVOK 21/08 Q1023=
2020051715 - SABZ18 SBSP 171500
2020051715 - METAR SBSP 171500Z VRB03KT CAVOK 22/06 Q1022=
2020051716 - SABZ18 SBSP 171600
2020051716 - METAR SBSP 171600Z VRB03KT CAVOK 24/04 Q1021=
2020051717 - SABZ18 SBSP 171700
2020051717 - METAR SBSP 171700Z 12003KT 050V180 CAVOK 25/03 Q1021=
2020051718 - SABZ18 SBSP 171800
2020051718 - METAR SBSP 171800Z 16003KT 070V220 CAVOK 25/02 Q1020=
2020051719 - SABZ18 SBSP 171900
2020051719 - METAR SBSP 171900Z 22004KT 170V250 CAVOK 25/01 Q1020=
2020051720 - SABZ18 SBSP 172000
2020051720 - METAR SBSP 172000Z 18007KT CAVOK 23/11 Q1021=
2020051721 - SABZ18 SBSP 172100
2020051721 - METAR SBSP 172100Z 15008KT 9000 NSC 19/13 Q1021=
2020051722 - SABZ18 SBSP 172200
2020051722 - METAR SBSP 172200Z 16007KT CAVOK 17/13 Q1022=
2020051723 - SABZ18 SBSP 172300
2020051723 - METAR SBSP 172300Z 15005KT 8000 NSC 16/13 Q1022=
2020051800 - SABZ18 SBSP 180000
2020051800 - METAR SBSP 180000Z VRB02KT 6000 NSC 16/14 Q1023=
2020051801 - SABZ18 SBSP 180100
2020051801 - METAR SBSP 180100Z 20002KT 5000 BR NSC 15/13 Q1023=
2020051802 - SABZ18 SBSP 180200
2020051802 - METAR SBSP 180200Z 00000KT 5000 BR NSC 15/13 Q1023=
2020051802 - SPECI SBSP 180201Z 33001KT 7000 NSC 15/13 Q1023=
2020051802 - SPECI SBSP 180225Z AUTO 00000KT 4400 NCD 14/13 Q1023=
2020051802 - SPECI SBSP 180236Z AUTO 20002KT 6000 NCD 15/13 Q1023=
2020051802 - SPECI SBSP 180253Z AUTO 23001KT 3500 BR NCD 14/13 Q1023=
2020051803 - SABZ21 SBSP 180300
2020051803 - METAR SBSP 180300Z AUTO 23001KT 3500 BR NCD 14/13 Q1023=
2020051803 - SPECI SBSP 180336Z AUTO 21002KT 5000 BR FEW003 14/12 Q1023=
2020051803 - SPECI SBSP 180336Z AUTO 21002KT 4800 BR FEW003 14/12 Q1023=
2020051803 - SPECI SBSP 180355Z AUTO 18003KT 1900 BR SCT002 13/12 Q1023=
2020051803 - SPECI SBSP 180357Z AUTO 18003KT 1300 R17/P2000N BR BKN002 13/12Q1023=
2020051803 - SPECI SBSP 180357Z AUTO 18003KT 0350 R17/P2000N BR BKN002 13/12Q1023=
2020051804 - SABZ21 SBSP 180400
2020051804 - METAR SBSP 180400Z AUTO 18003KT 0350 R17/P2000N BR BKN002 13/12Q1023=
2020051804 - SPECI SBSP 180410Z AUTO 17002KT 0200 R17/0500D FG BKN002 13/12 Q1023=
2020051804 - SPECI SBSP 180449Z AUTO 18003KT 0200 R17/0275N FG BKN002 12/10 Q1023=
2020051805 - SABZ21 SBSP 180500
2020051805 - METAR SBSP 180500Z AUTO 19003KT 0200 R17/0250N FG BKN002 12/11 Q1023=
2020051805 - SPECI SBSP 180552Z AUTO 19002KT 0200 R17/0250N FG VV000 13/12 Q1023=
2020051806 - SABZ21 SBSP 180600
2020051806 - METAR SBSP 180600Z AUTO 19002KT 0200 R17/0250N FG VV000 13/12 Q1023=
2020051806 - SPECI SBSP 180638Z AUTO VRB01KT 0200 R17/0300N FG VV000 13/12 Q1022=
2020051807 - SABZ21 SBSP 180700
2020051807 - METAR SBSP 180700Z AUTO 20002KT 0200 R17/0325N FG VV000 13/12 Q1022=
2020051807 - SPECI SBSP 180702Z AUTO 19002KT 0250 R17/0275N FG VV000 13/12 Q1022=
2020051808 - SABZ21 SBSP 180800
2020051808 - METAR SBSP 180800Z AUTO 17002KT 0200 R17/0250N FG VV001 12/11 Q1023=
2020051808 - SPECI SBSP 180801Z AUTO 17002KT 0200 R17/0250N FG VV000 12/11 Q1023=
2020051808 - SPECI SBSP 180821Z AUTO 18002KT 0300 R17/0350N FG SCT002 11/10 Q1023=
2020051808 - SPECI SBSP 180856Z AUTO 20001KT 0550 R17/P2000N FG SCT002 13/12Q1023=
2020051809 - SABZ18 SBSP 180900
2020051809 - METAR SBSP 180900Z 19002KT 1500 R17/P2000 R35/P2000 BR SCT002 12/12 Q1023=
2020051810 - SABZ18 SBSP 181000
2020051810 - METAR SBSP 181000Z 12003KT 060V160 1100 R17/P2000 R35/P2000 BR FEW002 BKN005 13/12 Q1024=
2020051810 - SPECI SBSP 181014Z 07005KT 030V130 0800 R17/1600D R35/1700D FG BKN002 13/12 Q1024=
2020051810 - SPECI SBSP 181042Z 07005KT 040V110 0600 R35/0700N R17/0800N FG VV002 14/13 Q1024=
2020051811 - SABZ18 SBSP 181100
2020051811 - METAR SBSP 181100Z 08005KT 040V110 0400 R35/0600N R17/0900N FG VV002 14/13 Q1025=
2020051812 - SABZ18 SBSP 181200
2020051812 - METAR SBSP 181200Z 06005KT 030V100 1100 R35/1400U R17/1900U BR OVC003 14/14 Q1025=
2020051812 - SPECI SBSP 181222Z 05005KT 020V080 2500 BR OVC003 15/14 Q1026=
2020051813 - SABZ18 SBSP 181300
2020051813 - METAR SBSP 181300Z 09005KT 060V120 3500 BR OVC005 15/14 Q1026=
2020051813 - SPECI SBSP 181325Z 06004KT 030V110 6000 BKN007 16/15 Q1026=
2020051814 - SABZ18 SBSP 181400
2020051814 - METAR SBSP 181400Z VRB04KT 7000 SCT007 18/16 Q1025=
2020051815 - SABZ18 SBSP 181500
2020051815 - METAR SBSP 181500Z 09004KT 040V160 8000 NSC 21/14 Q1025=
2020051816 - SABZ18 SBSP 181600
2020051816 - METAR SBSP 181600Z VRB02KT 9000 NSC 23/09 Q1024=
2020051817 - SABZ18 SBSP 181700
2020051817 - METAR SBSP 181700Z 15005KT CAVOK 24/06 Q1023=
2020051818 - SABZ18 SBSP 181800
2020051818 - METAR SBSP 181800Z 14005KT CAVOK 25/05 Q1023=
2020051819 - SABZ18 SBSP 181900
2020051819 - METAR SBSP 181900Z 16009KT CAVOK 23/13 Q1023=
2020051820 - SABZ18 SBSP 182000
2020051820 - METAR SBSP 182000Z 16011KT CAVOK 20/15 Q1023=
2020051821 - SABZ18 SBSP 182100
2020051821 - METAR SBSP 182100Z 16011KT CAVOK 17/14 Q1024=
2020051822 - SABZ18 SBSP 182200
2020051822 - METAR SBSP 182200Z 16008KT 8000 NSC 16/13 Q1024=
2020051823 - SABZ18 SBSP 182300
2020051823 - METAR SBSP 182300Z 16008KT 7000 NSC 16/13 Q1025=
2020051900 - SABZ18 SBSP 190000
2020051900 - METAR SBSP 190000Z 13005KT 9000 FEW009 SCT011 16/13 Q1025=
2020051901 - SABZ18 SBSP 190100
2020051901 - METAR SBSP 190100Z 13006KT 7000 SCT010 16/13 Q1026=
2020051902 - SABZ18 SBSP 190200
2020051902 - METAR SBSP 190200Z 13007KT 9999 SCT009 16/13 Q1026=
2020051902 - SPECI SBSP 190201Z 13006KT 100V160 9999 BKN010 16/13 Q1026=
2020051902 - SPECI SBSP 190226Z AUTO 13006KT 9999 SCT010 15/13 Q1026=
2020051903 - SABZ21 SBSP 190300
2020051903 - METAR SBSP 190300Z AUTO 13005KT 090V160 CAVOK 15/13 Q1026=
2020051904 - SABZ21 SBSP 190400
2020051904 - METAR SBSP 190400Z AUTO 13006KT CAVOK 15/13 Q1025=
2020051904 - SPECI SBSP 190448Z AUTO 13006KT 100V160 9999 BKN008 15/14 Q1026=
2020051905 - SABZ21 SBSP 190500
2020051905 - METAR SBSP 190500Z AUTO 13007KT 9999 SCT007 BKN009 16/14 Q1025=
2020051905 - SPECI SBSP 190526Z AUTO 12005KT 9999 BKN007 OVC009 16/14 Q1025=
2020051905 - SPECI SBSP 190543Z AUTO 13004KT 090V160 9999 OVC009 16/14 Q1025=
2020051906 - SABZ21 SBSP 190600
2020051906 - METAR SBSP 190600Z AUTO 12005KT 9999 FEW006 BKN009 OVC019 16/14Q1025=
2020051906 - SPECI SBSP 190602Z AUTO 13005KT 9999 SCT006 BKN008 OVC010 16/14Q1025=
2020051906 - SPECI SBSP 190615Z AUTO 13005KT 9999 FEW006 SCT008 OVC013 16/14Q1025=
2020051906 - SPECI SBSP 190630Z AUTO 12005KT 9999 FEW006 BKN015 OVC018 16/14Q1025=
2020051907 - SABZ21 SBSP 190700
2020051907 - METAR SBSP 190700Z AUTO 11005KT 070V150 9999 SCT008 BKN019 16/14Q1025=
2020051908 - SABZ21 SBSP 190800
2020051908 - METAR SBSP 190800Z AUTO 12005KT 9999 FEW020 16/14 Q1026=
2020051909 - SABZ18 SBSP 190900
2020051909 - METAR SBSP 190900Z 10004KT 060V170 9999 FEW015 15/13 Q1026=
2020051910 - SABZ18 SBSP 191000
2020051910 - METAR SBSP 191000Z 10004KT 9999 FEW011 15/13 Q1027=
2020051911 - SABZ18 SBSP 191100
2020051911 - METAR SBSP 191100Z 06006KT 030V100 9999 FEW008 16/13 Q1027=
2020051912 - SABZ18 SBSP 191200
2020051912 - METAR SBSP 191200Z 08006KT 030V120 9999 FEW013 18/13 Q1028=
2020051913 - SABZ18 SBSP 191300
2020051913 - METAR SBSP 191300Z 06009KT 030V100 CAVOK 20/13 Q1028=
2020051914 - SABZ18 SBSP 191400
2020051914 - METAR SBSP 191400Z 08008KT 030V120 CAVOK 21/13 Q1028=
2020051915 - SABZ18 SBSP 191500
2020051915 - METAR SBSP 191500Z 10008KT 070V130 CAVOK 22/12 Q1027=
2020051916 - SABZ18 SBSP 191600
2020051916 - METAR SBSP 191600Z VRB04KT CAVOK 23/13 Q1026=
2020051917 - SABZ18 SBSP 191700
2020051917 - METAR SBSP 191700Z 05006KT 360V100 CAVOK 24/13 Q1025=
2020051918 - SABZ18 SBSP 191800
2020051918 - METAR SBSP 191800Z 15008KT 070V200 CAVOK 23/15 Q1024=
2020051919 - SABZ18 SBSP 191900
2020051919 - METAR SBSP 191900Z 16011KT CAVOK 21/15 Q1024=
2020051920 - SABZ18 SBSP 192000
2020051920 - METAR SBSP 192000Z 15011KT 9999 FEW009 20/15 Q1025=
2020051921 - SABZ18 SBSP 192100
2020051921 - METAR SBSP 192100Z 16010KT 9999 SCT009 BKN011 18/15 Q1025=
2020051922 - SABZ18 SBSP 192200
2020051922 - METAR SBSP 192200Z 15009KT 9999 SCT009 BKN013 18/15 Q1025=
2020051923 - SABZ18 SBSP 192300
2020051923 - METAR SBSP 192300Z 13006KT 090V160 9999 BKN011 BKN013 18/15 Q1026=
2020052000 - SABZ18 SBSP 200000
2020052000 - METAR SBSP 200000Z 14008KT 9000 SCT009 SCT011 18/15 Q1026=
2020052001 - SABZ18 SBSP 200100
2020052001 - METAR SBSP 200100Z 14007KT 8000 FEW013 SCT050 17/15 Q1026=
2020052002 - SABZ18 SBSP 200200
2020052002 - METAR SBSP 200200Z 11006KT CAVOK 17/15 Q1026=
2020052002 - SPECI SBSP 200201Z 11007KT 080V140 CAVOK 18/15 Q1026=
2020052003 - SABZ21 SBSP 200300
2020052003 - METAR SBSP 200300Z AUTO 11005KT CAVOK 17/14 Q1026=
2020052004 - SABZ21 SBSP 200400
2020052004 - METAR SBSP 200400Z AUTO 10005KT 050V130 CAVOK 17/14 Q1025=
2020052005 - SABZ21 SBSP 200500
2020052005 - METAR SBSP 200500Z AUTO 06005KT 010V090 9999 FEW012 17/14 Q1025=
2020052006 - SABZ21 SBSP 200600
2020052006 - METAR SBSP 200600Z AUTO 06006KT 030V100 7000 FEW010 17/14 Q1025=
2020052007 - SABZ21 SBSP 200700
2020052007 - METAR SBSP 200700Z AUTO 08007KT 030V110 9999 SCT008 17/14 Q1025=
2020052007 - SPECI SBSP 200711Z AUTO 08009KT 030V110 9999 BKN008 16/14 Q1025=
2020052007 - SPECI SBSP 200729Z AUTO 08009KT 040V120 9999 FEW008 SCT010 16/14Q1024=
2020052008 - SABZ21 SBSP 200800
2020052008 - METAR SBSP 200800Z AUTO 07008KT 030V100 9999 FEW008 16/14 Q1024=
2020052008 - SPECI SBSP 200817Z AUTO 06009KT 020V100 9000 SCT008 BKN010 16/14Q1024=
2020052008 - SPECI SBSP 200825Z AUTO 06008KT 020V100 8000 BKN008 BKN010 16/14Q1025=
2020052009 - SABZ18 SBSP 200900
2020052009 - METAR SBSP 200900Z 06008KT 030V110 7000 BKN008 BKN009 16/14 Q1025=
2020052009 - SPECI SBSP 200920Z 06006KT 040V100 8000 SCT008 SCT009 16/14 Q1025=
2020052010 - SABZ18 SBSP 201000
2020052010 - METAR SBSP 201000Z 07007KT 030V100 8000 SCT009 16/14 Q1026=
2020052011 - SABZ18 SBSP 201100
2020052011 - METAR SBSP 201100Z 08007KT 040V120 9000 FEW008 SCT011 17/14 Q1027=
2020052012 - SABZ18 SBSP 201200
2020052012 - METAR SBSP 201200Z 06007KT 020V090 8000 FEW011 18/14 Q1027=
2020052013 - SABZ18 SBSP 201300
2020052013 - METAR SBSP 201300Z VRB06KT CAVOK 19/14 Q1027=
2020052014 - SABZ18 SBSP 201400
2020052014 - METAR SBSP 201400Z 05006KT CAVOK 21/14 Q1027=
2020052015 - SABZ18 SBSP 201500
2020052015 - METAR SBSP 201500Z 04005KT 360V080 CAVOK 22/13 Q1026=
2020052016 - SABZ18 SBSP 201600
2020052016 - METAR SBSP 201600Z 09004KT 040V130 CAVOK 24/13 Q1025=
2020052017 - SABZ18 SBSP 201700
2020052017 - METAR SBSP 201700Z VRB03KT CAVOK 25/12 Q1024=
2020052018 - SABZ18 SBSP 201800
2020052018 - METAR SBSP 201800Z 11003KT 010V180 9999 FEW047 25/11 Q1023=
2020052019 - SABZ18 SBSP 201900
2020052019 - METAR SBSP 201900Z 10003KT 010V170 9999 FEW047 25/10 Q1023=
2020052020 - SABZ18 SBSP 202000
2020052020 - METAR SBSP 202000Z 15009KT CAVOK 22/16 Q1023=
2020052021 - SABZ18 SBSP 202100
2020052021 - METAR SBSP 202100Z 15010KT CAVOK 20/16 Q1024=
2020052022 - SABZ18 SBSP 202200
2020052022 - METAR SBSP 202200Z 17008KT 9999 SCT045 19/15 Q1024=
2020052023 - SABZ18 SBSP 202300
2020052023 - METAR SBSP 202300Z 18006KT CAVOK 18/16 Q1024=
2020052100 - SABZ18 SBSP 210000
2020052100 - METAR SBSP 210000Z 16003KT 140V200 CAVOK 18/16 Q1025=
2020052101 - SABZ18 SBSP 210100
2020052101 - METAR SBSP 210100Z 16002KT CAVOK 18/15 Q1025=
2020052102 - SABZ18 SBSP 210200
2020052102 - METAR SBSP 210200Z 12002KT CAVOK 17/15 Q1025=
2020052102 - SPECI SBSP 210201Z 11002KT CAVOK 17/15 Q1025=
2020052103 - SABZ21 SBSP 210300
2020052103 - METAR SBSP 210300Z AUTO 07005KT 040V110 CAVOK 18/14 Q1024=
2020052104 - SABZ21 SBSP 210400
2020052104 - METAR SBSP 210400Z AUTO 07007KT 040V100 CAVOK 18/14 Q1024=
2020052105 - SABZ21 SBSP 210500
2020052105 - METAR SBSP 210500Z AUTO 07007KT 030V110 CAVOK 17/14 Q1023=
2020052106 - SABZ21 SBSP 210600
2020052106 - METAR SBSP 210600Z AUTO 06004KT 030V090 CAVOK 17/13 Q1023=
2020052107 - SABZ21 SBSP 210700
2020052107 - METAR SBSP 210700Z AUTO 07006KT 040V100 CAVOK 17/13 Q1023=
2020052108 - SABZ21 SBSP 210800
2020052108 - METAR SBSP 210800Z AUTO 06004KT 030V100 CAVOK 16/13 Q1023=
2020052109 - SABZ18 SBSP 210900
2020052109 - METAR SBSP 210900Z 05003KT CAVOK 16/13 Q1023=
2020052110 - SABZ18 SBSP 211000
2020052110 - METAR SBSP 211000Z 05003KT CAVOK 16/13 Q1024=
2020052111 - SABZ18 SBSP 211100
2020052111 - METAR SBSP 211100Z 05005KT CAVOK 17/14 Q1024=
2020052112 - SABZ18 SBSP 211200
2020052112 - METAR SBSP 211200Z 06004KT CAVOK 19/13 Q1025=
2020052113 - SABZ18 SBSP 211300
2020052113 - METAR SBSP 211300Z 06004KT 020V140 CAVOK 20/13 Q1025=
2020052114 - SABZ18 SBSP 211400
2020052114 - METAR SBSP 211400Z VRB03KT CAVOK 22/13 Q1024=
2020052115 - SABZ18 SBSP 211500
2020052115 - METAR SBSP 211500Z 36005KT 240V050 CAVOK 24/13 Q1023=
2020052116 - SABZ18 SBSP 211600
2020052116 - METAR SBSP 211600Z 01008KT 340V070 CAVOK 25/12 Q1021=
2020052117 - SABZ18 SBSP 211700
2020052117 - METAR SBSP 211700Z 36005KT 270V050 9999 SCT047 25/11 Q1021=
2020052118 - SABZ18 SBSP 211800
2020052118 - METAR SBSP 211800Z 33007KT 310V010 9999 SCT047 25/11 Q1020=
2020052119 - SABZ18 SBSP 211900
2020052119 - METAR SBSP 211900Z 30004KT 250V340 CAVOK 25/10 Q1020=
2020052120 - SABZ18 SBSP 212000
2020052120 - METAR SBSP 212000Z 31005KT CAVOK 24/10 Q1021=
2020052121 - SABZ18 SBSP 212100
2020052121 - METAR SBSP 212100Z 29002KT CAVOK 24/10 Q1021=
2020052122 - SABZ18 SBSP 212200
2020052122 - METAR SBSP 212200Z 12002KT CAVOK 22/11 Q1021=
2020052123 - SABZ18 SBSP 212300
2020052123 - METAR SBSP 212300Z 11004KT CAVOK 21/14 Q1021=
2020052200 - SABZ18 SBSP 220000
2020052200 - METAR SBSP 220000Z 08004KT CAVOK 21/14 Q1021=
2020052201 - SABZ18 SBSP 220100
2020052201 - METAR SBSP 220100Z 05003KT CAVOK 21/14 Q1021=
2020052202 - SABZ18 SBSP 220200
2020052202 - METAR SBSP 220200Z 03003KT CAVOK 20/13 Q1021=
2020052202 - SPECI SBSP 220201Z 04003KT CAVOK 20/13 Q1021=
2020052203 - SABZ21 SBSP 220300
2020052203 - METAR SBSP 220300Z AUTO 03005KT CAVOK 19/13 Q1020=
2020052204 - SABZ21 SBSP 220400
2020052204 - METAR SBSP 220400Z AUTO 06004KT CAVOK 19/13 Q1020=
2020052205 - SABZ21 SBSP 220500
2020052205 - METAR SBSP 220500Z AUTO 03005KT CAVOK 19/12 Q1019=
2020052206 - SABZ21 SBSP 220600
2020052206 - METAR SBSP 220600Z AUTO 06005KT CAVOK 18/12 Q1019=
2020052207 - SABZ21 SBSP 220700
2020052207 - METAR SBSP 220700Z AUTO 04005KT CAVOK 18/12 Q1019=
2020052208 - SABZ21 SBSP 220800
2020052208 - METAR SBSP 220800Z AUTO 03005KT CAVOK 18/12 Q1019=
2020052209 - SABZ18 SBSP 220900
2020052209 - METAR SBSP 220900Z 04006KT CAVOK 18/12 Q1019=
2020052210 - SABZ18 SBSP 221000
2020052210 - METAR SBSP 221000Z 04006KT CAVOK 18/12 Q1020=
2020052211 - SABZ18 SBSP 221100
2020052211 - METAR SBSP 221100Z 32002KT CAVOK 18/12 Q1021=
2020052212 - SABZ18 SBSP 221200
2020052212 - METAR SBSP 221200Z 01009KT CAVOK 21/13 Q1021=
2020052213 - SABZ18 SBSP 221300
2020052213 - METAR SBSP 221300Z 36009KT CAVOK 22/14 Q1021=
2020052214 - SABZ18 SBSP 221400
2020052214 - METAR SBSP 221400Z 35011KT CAVOK 22/14 Q1021=
2020052215 - SABZ18 SBSP 221500
2020052215 - METAR SBSP 221500Z 35013KT CAVOK 23/14 Q1019=
2020052216 - SABZ18 SBSP 221600
2020052216 - METAR SBSP 221600Z 35013G23KT 320V020 CAVOK 24/13 Q1018=
2020052217 - SABZ18 SBSP 221700
2020052217 - METAR SBSP 221700Z 36013KT 330V030 CAVOK 26/12 Q1017=
2020052218 - SABZ18 SBSP 221800
2020052218 - METAR SBSP 221800Z 35014KT 310V020 CAVOK 26/11 Q1017=
2020052219 - SABZ18 SBSP 221900
2020052219 - METAR SBSP 221900Z 35011KT CAVOK 26/11 Q1016=
2020052220 - SABZ18 SBSP 222000
2020052220 - METAR SBSP 222000Z 34009KT CAVOK 25/12 Q1017=
2020052221 - SABZ18 SBSP 222100
2020052221 - METAR SBSP 222100Z 01007KT CAVOK 24/12 Q1017=
2020052222 - SABZ18 SBSP 222200
2020052222 - METAR SBSP 222200Z 03006KT CAVOK 24/12 Q1017=
2020052223 - SABZ18 SBSP 222300
2020052223 - METAR SBSP 222300Z 02006KT CAVOK 23/12 Q1017=
2020052300 - SABZ18 SBSP 230000
2020052300 - METAR SBSP 230000Z 02004KT CAVOK 23/12 Q1017=
2020052301 - SABZ18 SBSP 230100
2020052301 - METAR SBSP 230100Z 01008KT CAVOK 23/13 Q1017=
2020052302 - SABZ18 SBSP 230200
2020052302 - METAR SBSP 230200Z 36006KT 330V030 CAVOK 23/13 Q1018=
2020052302 - SPECI SBSP 230201Z 36006KT CAVOK 23/13 Q1017=
2020052303 - SABZ21 SBSP 230300
2020052303 - METAR SBSP 230300Z AUTO 34005KT 310V010 CAVOK 22/13 Q1018=
2020052304 - SABZ21 SBSP 230400
2020052304 - METAR SBSP 230400Z AUTO 02006KT CAVOK 22/13 Q1017=
2020052305 - SABZ21 SBSP 230500
2020052305 - METAR SBSP 230500Z AUTO 25006KT 220V300 CAVOK 22/14 Q1017=
2020052306 - SABZ21 SBSP 230600
2020052306 - METAR SBSP 230600Z AUTO 32007KT 280V340 9999 SCT049 21/14 Q1017=
2020052306 - SPECI SBSP 230642Z AUTO 32014KT 290V350 9000 RA BKN043 20/15 Q1017=
2020052307 - SABZ21 SBSP 230700
2020052307 - METAR SBSP 230700Z AUTO 33013KT 9000 -RA SCT042 19/15 Q1017 RERA=
2020052307 - SPECI SBSP 230703Z AUTO 33012KT 7000 RA FEW042 19/15 Q1017=
2020052307 - SPECI SBSP 230724Z AUTO 34010KT 7000 -RA NCD 18/16 Q1016 RERA=
2020052308 - SABZ21 SBSP 230800
2020052308 - METAR SBSP 230800Z AUTO 35012KT 6000 -RA FEW009 18/16 Q1016 RERA=
2020052309 - SABZ18 SBSP 230900 RRA
2020052309 - METAR SBSP 230900Z 36012KT 340V050 9000 FEW047 19/16 Q1016=
2020052310 - SABZ18 SBSP 231000
2020052310 - METAR SBSP 231000Z 34012KT 9999 FEW043 19/16 Q1016=
2020052311 - SABZ18 SBSP 231100
2020052311 - METAR SBSP 231100Z 33014KT CAVOK 19/16 Q1017=
2020052312 - SABZ18 SBSP 231200
2020052312 - METAR SBSP 231200Z 35014KT 320V020 CAVOK 20/16 Q1017=
2020052313 - SABZ18 SBSP 231300
2020052313 - METAR SBSP 231300Z 34014KT 9999 FEW019 SCT023 21/16 Q1018=
2020052314 - SABZ18 SBSP 231400
2020052314 - METAR SBSP 231400Z 35014KT 9000 OVC017 20/16 Q1018=
2020052315 - SABZ18 SBSP 231500
2020052315 - METAR SBSP 231500Z 34016KT 9999 BKN015 OVC017 21/16 Q1017=
2020052316 - SABZ18 SBSP 231600
2020052316 - METAR SBSP 231600Z 34018KT 9000 BKN017 OVC019 21/16 Q1016=
2020052317 - SABZ18 SBSP 231700
2020052317 - METAR SBSP 231700Z 34016KT 310V020 9999 BKN017 OVC019 21/16 Q1015=
2020052318 - SABZ18 SBSP 231800
2020052318 - METAR SBSP 231800Z 34015KT 310V020 9000 BKN015 OVC021 20/17 Q1015=
2020052319 - SABZ18 SBSP 231900
2020052319 - METAR SBSP 231900Z 34015KT 9000 BKN015 OVC017 20/16 Q1015=
2020052320 - SABZ18 SBSP 232000
2020052320 - METAR SBSP 232000Z 34015KT 310V010 9000 BKN015 OVC019 20/17 Q1016=
2020052320 - SPECI SBSP 232042Z 32021G31KT 9999 BKN013 OVC023 20/16 Q1016=
2020052321 - SABZ18 SBSP 232100
2020052321 - METAR SBSP 232100Z 33018KT 9000 BKN015 OVC023 20/16 Q1016=
2020052321 - SPECI SBSP 232141Z 32017KT 3000 -RA BR BKN007 OVC015 17/15 Q1017=
2020052322 - SABZ18 SBSP 232200
2020052322 - METAR SBSP 232200Z 31013KT 260V340 3000 -RA BR OVC007 17/15 Q1017=
2020052322 - SPECI SBSP 232220Z 31015KT 270V330 5000 -RA BR BKN007 OVC011 16/14 Q1018=
2020052323 - SABZ18 SBSP 232300
2020052323 - METAR SBSP 232300Z 32018KT 6000 BKN013 OVC027 16/13 Q1018=
2020052323 - SPECI SBSP 232320Z 33016KT 7000 SCT013 OVC027 16/13 Q1018=
2020052400 - SABZ18 SBSP 240000
2020052400 - METAR SBSP 240000Z 32016KT 8000 OVC030 16/12 Q1018=
2020052401 - SABZ18 SBSP 240100
2020052401 - METAR SBSP 240100Z 33019KT 9000 OVC043 16/09 Q1018=
2020052402 - SABZ18 SBSP 240200
2020052402 - METAR SBSP 240200Z 31012G22KT 9000 NSC 15/09 Q1019=
2020052402 - SPECI SBSP 240201Z 31017KT 9999 FEW023 15/09 Q1019=
2020052403 - SABZ21 SBSP 240300
2020052403 - METAR SBSP 240300Z AUTO 32013KT 280V350 9999 SCT020 14/09 Q1019=
2020052404 - SABZ21 SBSP 240400
2020052404 - METAR SBSP 240400Z AUTO 33014KT 9999 SCT019 14/09 Q1019=
2020052405 - SABZ21 SBSP 240500
2020052405 - METAR SBSP 240500Z AUTO 33015KT 9999 FEW017 13/09 Q1019=
2020052406 - SABZ21 SBSP 240600
2020052406 - METAR SBSP 240600Z AUTO 32015KT 9999 BKN019 13/08 Q1019=
2020052407 - SABZ21 SBSP 240700
2020052407 - METAR SBSP 240700Z AUTO 31015KT 9999 FEW019 12/07 Q1019=
2020052408 - SABZ21 SBSP 240800
2020052408 - METAR SBSP 240800Z AUTO 31010KT 280V350 CAVOK 12/07 Q1019=
2020052409 - SABZ18 SBSP 240900
2020052409 - METAR SBSP 240900Z 30008KT 270V350 CAVOK 11/07 Q1019=
2020052410 - SABZ18 SBSP 241000
2020052410 - METAR SBSP 241000Z 31012KT CAVOK 11/07 Q1020=
2020052411 - SABZ18 SBSP 241100
2020052411 - METAR SBSP 241100Z 31009KT 270V330 9999 FEW015 12/08 Q1021=
2020052412 - SABZ18 SBSP 241200
2020052412 - METAR SBSP 241200Z 32010KT 9999 FEW017 12/08 Q1022=
2020052413 - SABZ18 SBSP 241300
2020052413 - METAR SBSP 241300Z 33011KT 300V360 CAVOK 12/08 Q1021=
2020052414 - SABZ18 SBSP 241400
2020052414 - METAR SBSP 241400Z 34012KT 9999 FEW019 13/08 Q1021=
2020052415 - SABZ18 SBSP 241500
2020052415 - METAR SBSP 241500Z 34011KT 9999 FEW019 14/08 Q1021=
2020052416 - SABZ18 SBSP 241600
2020052416 - METAR SBSP 241600Z 31010KT 270V340 9999 FEW021 14/08 Q1020=
2020052417 - SABZ18 SBSP 241700
2020052417 - METAR SBSP 241700Z 31012KT 270V350 9999 FEW023 15/08 Q1019=
2020052418 - SABZ18 SBSP 241800
2020052418 - METAR SBSP 241800Z 32009KT 9999 FEW023 15/08 Q1019=
2020052419 - SABZ18 SBSP 241900
2020052419 - METAR SBSP 241900Z 31010KT 280V340 9999 FEW027 15/08 Q1018=
2020052420 - SABZ18 SBSP 242000
2020052420 - METAR SBSP 242000Z 32011KT CAVOK 15/08 Q1019=
2020052421 - SABZ18 SBSP 242100
2020052421 - METAR SBSP 242100Z 32012KT CAVOK 14/08 Q1019=
2020052422 - SABZ18 SBSP 242200
2020052422 - METAR SBSP 242200Z 33010KT CAVOK 14/08 Q1019=
2020052423 - SABZ18 SBSP 242300
2020052423 - METAR SBSP 242300Z 31006KT 270V330 CAVOK 13/08 Q1019=
2020052500 - SABZ18 SBSP 250000
2020052500 - METAR SBSP 250000Z 32010KT 9999 SCT021 13/08 Q1020=
2020052501 - SABZ18 SBSP 250100
2020052501 - METAR SBSP 250100Z 33010KT 9999 SCT021 13/08 Q1020=
2020052502 - SABZ18 SBSP 250200
2020052502 - METAR SBSP 250200Z 30006KT 270V350 9999 FEW015 BKN023 12/09 Q1020=
2020052502 - SPECI SBSP 250201Z 32008KT 9999 FEW015 BKN024 12/09 Q1019=
2020052503 - SABZ21 SBSP 250300
2020052503 - METAR SBSP 250300Z AUTO 32009KT 280V340 9999 OVC022 12/09 Q1019=
2020052504 - SABZ21 SBSP 250400
2020052504 - METAR SBSP 250400Z AUTO 33011KT 9999 OVC023 12/08 Q1019=
2020052505 - SABZ21 SBSP 250500
2020052505 - METAR SBSP 250500Z AUTO 32011KT 9999 OVC022 13/08 Q1019=
2020052506 - SABZ21 SBSP 250600
2020052506 - METAR SBSP 250600Z AUTO 32008KT 290V350 9999 FEW018 OVC024 12/08Q1018=
2020052507 - SABZ21 SBSP 250700
2020052507 - METAR SBSP 250700Z AUTO 33009KT 290V350 9999 FEW013 11/08 Q1017=
2020052508 - SABZ21 SBSP 250800
2020052508 - METAR SBSP 250800Z AUTO 32010KT 9999 FEW012 11/08 Q1016=
2020052509 - SABZ18 SBSP 250900
2020052509 - METAR SBSP 250900Z 33012KT 9999 OVC017 11/07 Q1016=
2020052510 - SABZ18 SBSP 251000
2020052510 - METAR SBSP 251000Z 32012KT 9999 OVC019 11/07 Q1017=
2020052511 - SABZ18 SBSP 251100
2020052511 - METAR SBSP 251100Z 33012KT 9999 BKN020 12/06 Q1017=
2020052512 - SABZ18 SBSP 251200
2020052512 - METAR SBSP 251200Z 32017KT 9999 SCT021 13/06 Q1017=
2020052513 - SABZ18 SBSP 251300
2020052513 - METAR SBSP 251300Z 34015KT CAVOK 14/06 Q1018=
2020052514 - SABZ18 SBSP 251400
2020052514 - METAR SBSP 251400Z 31016KT CAVOK 15/06 Q1017=
2020052515 - SABZ18 SBSP 251500
2020052515 - METAR SBSP 251500Z 32018KT CAVOK 16/05 Q1016=
2020052516 - SABZ18 SBSP 251600
2020052516 - METAR SBSP 251600Z 32013KT CAVOK 18/05 Q1015=
2020052517 - SABZ18 SBSP 251700
2020052517 - METAR SBSP 251700Z 35018KT CAVOK 18/04 Q1014=
2020052518 - SABZ18 SBSP 251800
2020052518 - METAR SBSP 251800Z 31015KT CAVOK 19/04 Q1014=
2020052519 - SABZ18 SBSP 251900
2020052519 - METAR SBSP 251900Z 32015KT CAVOK 18/04 Q1014=
2020052520 - SABZ18 SBSP 252000
2020052520 - METAR SBSP 252000Z 32012KT CAVOK 18/04 Q1015=
2020052521 - SABZ18 SBSP 252100
2020052521 - METAR SBSP 252100Z 33015KT CAVOK 16/04 Q1015=
2020052522 - SABZ18 SBSP 252200
2020052522 - METAR SBSP 252200Z 33015KT CAVOK 16/04 Q1015=
2020052523 - SABZ18 SBSP 252300
2020052523 - METAR SBSP 252300Z 32015KT CAVOK 15/04 Q1016=
2020052600 - SABZ18 SBSP 260000
2020052600 - METAR SBSP 260000Z 32014KT CAVOK 15/04 Q1017=
2020052601 - SABZ18 SBSP 260100
2020052601 - METAR SBSP 260100Z 32012KT CAVOK 15/05 Q1017=
2020052602 - SABZ18 SBSP 260200
2020052602 - METAR SBSP 260200Z 32010KT CAVOK 14/05 Q1017=
2020052602 - SPECI SBSP 260205Z 31010KT 280V340 CAVOK 14/05 Q1017=
2020052603 - SABZ21 SBSP 260300
2020052603 - METAR SBSP 260300Z AUTO 31011KT CAVOK 13/06 Q1017=
2020052604 - SABZ21 SBSP 260400
2020052604 - METAR SBSP 260400Z AUTO 32012KT CAVOK 13/06 Q1017=
2020052605 - SABZ21 SBSP 260500
2020052605 - METAR SBSP 260500Z AUTO 32012KT CAVOK 13/06 Q1016=
2020052606 - SABZ21 SBSP 260600
2020052606 - METAR SBSP 260600Z AUTO 32009KT CAVOK 12/06 Q1016=
2020052607 - SABZ21 SBSP 260700
2020052607 - METAR SBSP 260700Z AUTO 32009KT CAVOK 12/06 Q1015=
2020052608 - SABZ21 SBSP 260800
2020052608 - METAR SBSP 260800Z AUTO 31006KT 270V330 CAVOK 11/06 Q1016=
2020052609 - SABZ18 SBSP 260900
2020052609 - METAR SBSP 260900Z 31007KT CAVOK 11/06 Q1017=
2020052610 - SABZ18 SBSP 261000
2020052610 - METAR SBSP 261000Z 31007KT 270V330 CAVOK 10/06 Q1017=
2020052611 - SABZ18 SBSP 261100
2020052611 - METAR SBSP 261100Z 32007KT CAVOK 11/07 Q1018=
2020052612 - SABZ18 SBSP 261200
2020052612 - METAR SBSP 261200Z 32010KT CAVOK 13/06 Q1018=
2020052613 - SABZ18 SBSP 261300
2020052613 - METAR SBSP 261300Z 33010KT CAVOK 14/06 Q1018=
2020052614 - SABZ18 SBSP 261400
2020052614 - METAR SBSP 261400Z 33010KT CAVOK 15/05 Q1018=
2020052615 - SABZ18 SBSP 261500
2020052615 - METAR SBSP 261500Z 30010KT CAVOK 17/04 Q1017=
2020052616 - SABZ18 SBSP 261600
2020052616 - METAR SBSP 261600Z 33013KT CAVOK 18/04 Q1016=
2020052617 - SABZ18 SBSP 261700
2020052617 - METAR SBSP 261700Z 32011KT 270V350 CAVOK 19/04 Q1015=
2020052618 - SABZ18 SBSP 261800
2020052618 - METAR SBSP 261800Z 29009KT CAVOK 19/04 Q1015=
2020052619 - SABZ18 SBSP 261900
2020052619 - METAR SBSP 261900Z 29010KT CAVOK 18/03 Q1016=
2020052620 - SABZ18 SBSP 262000
2020052620 - METAR SBSP 262000Z 30009KT CAVOK 18/04 Q1016=
2020052621 - SABZ18 SBSP 262100
2020052621 - METAR SBSP 262100Z 31009KT CAVOK 17/04 Q1017=
2020052622 - SABZ18 SBSP 262200
2020052622 - METAR SBSP 262200Z 32005KT CAVOK 16/05 Q1017=
2020052623 - SABZ18 SBSP 262300
2020052623 - METAR SBSP 262300Z 33007KT CAVOK 15/04 Q1017=
2020052700 - SABZ18 SBSP 270000
2020052700 - METAR SBSP 270000Z 32007KT CAVOK 14/05 Q1017=
2020052701 - SABZ18 SBSP 270100
2020052701 - METAR SBSP 270100Z 31005KT CAVOK 14/05 Q1018=
2020052702 - SABZ18 SBSP 270200
2020052702 - METAR SBSP 270200Z 32006KT CAVOK 13/05 Q1018=
2020052702 - SPECI SBSP 270201Z 32007KT CAVOK 13/05 Q1018=
2020052703 - SABZ21 SBSP 270300
2020052703 - METAR SBSP 270300Z AUTO 32006KT CAVOK 13/05 Q1017=
2020052704 - SABZ21 SBSP 270400
2020052704 - METAR SBSP 270400Z AUTO 32005KT CAVOK 12/05 Q1018=
2020052705 - SABZ21 SBSP 270500
2020052705 - METAR SBSP 270500Z AUTO 32006KT CAVOK 12/05 Q1018=
2020052706 - SABZ21 SBSP 270600
2020052706 - METAR SBSP 270600Z AUTO 33007KT CAVOK 11/05 Q1018=
2020052707 - SABZ21 SBSP 270700
2020052707 - METAR SBSP 270700Z AUTO 32006KT CAVOK 11/05 Q1017=
2020052708 - SABZ21 SBSP 270800
2020052708 - METAR SBSP 270800Z AUTO 32004KT CAVOK 11/05 Q1018=
2020052709 - SABZ18 SBSP 270900
2020052709 - METAR SBSP 270900Z 31005KT CAVOK 11/05 Q1018=
2020052710 - SABZ18 SBSP 271000
2020052710 - METAR SBSP 271000Z 33003KT CAVOK 10/05 Q1019=
2020052711 - SABZ18 SBSP 271100
2020052711 - METAR SBSP 271100Z 32007KT CAVOK 12/06 Q1020=
2020052712 - SABZ18 SBSP 271200
2020052712 - METAR SBSP 271200Z 27003KT CAVOK 14/06 Q1021=
2020052713 - SABZ18 SBSP 271300
2020052713 - METAR SBSP 271300Z 25004KT CAVOK 16/05 Q1021=
2020052714 - SABZ18 SBSP 271400
2020052714 - METAR SBSP 271400Z 26004KT CAVOK 17/04 Q1021=
2020052715 - SABZ18 SBSP 271500
2020052715 - METAR SBSP 271500Z 25004KT CAVOK 18/04 Q1021=
2020052716 - SABZ18 SBSP 271600
2020052716 - METAR SBSP 271600Z 24003KT CAVOK 19/04 Q1020=
2020052717 - SABZ18 SBSP 271700
2020052717 - METAR SBSP 271700Z 23004KT CAVOK 21/04 Q1020=
2020052718 - SABZ18 SBSP 271800
2020052718 - METAR SBSP 271800Z 26006KT CAVOK 21/04 Q1020=
2020052719 - SABZ18 SBSP 271900
2020052719 - METAR SBSP 271900Z 17009KT CAVOK 20/09 Q1020=
2020052720 - SABZ18 SBSP 272000
2020052720 - METAR SBSP 272000Z 17009KT CAVOK 17/10 Q1020=
2020052721 - SABZ18 SBSP 272100
2020052721 - METAR SBSP 272100Z 16008KT CAVOK 14/10 Q1021=
2020052722 - SABZ18 SBSP 272200
2020052722 - METAR SBSP 272200Z 17009KT 9999 SCT009 13/10 Q1021=
2020052723 - SABZ18 SBSP 272300
2020052723 - METAR SBSP 272300Z 18006KT CAVOK 13/10 Q1022=
2020052800 - SABZ18 SBSP 280000
2020052800 - METAR SBSP 280000Z 15007KT 9999 SCT009 12/09 Q1022=
2020052801 - SABZ18 SBSP 280100
2020052801 - METAR SBSP 280100Z 16009KT 9999 BKN009 12/09 Q1022=
2020052802 - SABZ18 SBSP 280200
2020052802 - METAR SBSP 280200Z 14004KT 9999 FEW011 11/09 Q1023=
2020052802 - SPECI SBSP 280201Z 14004KT 9999 SCT011 11/09 Q1022=
2020052802 - SPECI SBSP 280212Z AUTO 15006KT 9999 FEW011 BKN013 11/09 Q1022=
2020052802 - SPECI SBSP 280223Z AUTO 16006KT 9999 SCT013 11/08 Q1022=
2020052803 - SABZ21 SBSP 280300
2020052803 - METAR SBSP 280300Z AUTO 14003KT 9999 FEW011 11/08 Q1022=
2020052804 - SABZ21 SBSP 280400
2020052804 - METAR SBSP 280400Z AUTO 15004KT CAVOK 10/08 Q1022=
2020052805 - SABZ21 SBSP 280500
2020052805 - METAR SBSP 280500Z AUTO 13003KT CAVOK 10/08 Q1022=
2020052806 - SABZ21 SBSP 280600
2020052806 - METAR SBSP 280600Z AUTO 12003KT CAVOK 10/08 Q1021=
2020052807 - SABZ21 SBSP 280700
2020052807 - METAR SBSP 280700Z AUTO 12004KT CAVOK 10/09 Q1021=
2020052807 - SPECI SBSP 280736Z AUTO 11003KT 9999 SCT009 BKN011 10/08 Q1021=
2020052808 - SABZ21 SBSP 280800
2020052808 - METAR SBSP 280800Z AUTO 13004KT 9999 BKN010 11/08 Q1021=
2020052808 - SPECI SBSP 280832Z AUTO 13005KT 9999 SCT011 SCT013 11/08 Q1021=
2020052809 - SABZ18 SBSP 280900
2020052809 - METAR SBSP 280900Z 13004KT 9999 FEW011 10/08 Q1022=
2020052810 - SABZ18 SBSP 281000
2020052810 - METAR SBSP 281000Z 14003KT 9999 FEW011 10/08 Q1023=
2020052811 - SABZ18 SBSP 281100
2020052811 - METAR SBSP 281100Z 13006KT 100V180 9999 SCT011 12/09 Q1023=
2020052812 - SABZ18 SBSP 281200
2020052812 - METAR SBSP 281200Z 10007KT 070V150 9999 SCT013 13/08 Q1024=
2020052813 - SABZ18 SBSP 281300
2020052813 - METAR SBSP 281300Z 11007KT 060V140 9999 FEW019 15/08 Q1024=
2020052814 - SABZ18 SBSP 281400
2020052814 - METAR SBSP 281400Z 12008KT CAVOK 16/08 Q1024=
2020052815 - SABZ18 SBSP 281500
2020052815 - METAR SBSP 281500Z 06006KT 020V180 CAVOK 18/07 Q1023=
2020052816 - SABZ18 SBSP 281600
2020052816 - METAR SBSP 281600Z VRB04KT CAVOK 19/07 Q1023=
2020052817 - SABZ18 SBSP 281700
2020052817 - METAR SBSP 281700Z VRB04KT CAVOK 20/07 Q1022=
2020052818 - SABZ18 SBSP 281800
2020052818 - METAR SBSP 281800Z 12004KT 030V180 CAVOK 21/07 Q1022=
2020052819 - SABZ18 SBSP 281900
2020052819 - METAR SBSP 281900Z 18009KT CAVOK 19/10 Q1022=
2020052820 - SABZ18 SBSP 282000
2020052820 - METAR SBSP 282000Z 16009KT CAVOK 17/10 Q1022=
2020052821 - SABZ18 SBSP 282100
2020052821 - METAR SBSP 282100Z 16009KT CAVOK 15/10 Q1023=
2020052822 - SABZ18 SBSP 282200
2020052822 - METAR SBSP 282200Z 16005KT CAVOK 14/10 Q1023=
2020052823 - SABZ18 SBSP 282300
2020052823 - METAR SBSP 282300Z 16004KT CAVOK 13/10 Q1024=
2020052900 - SABZ18 SBSP 290000
2020052900 - METAR SBSP 290000Z 16004KT CAVOK 12/10 Q1024=
2020052901 - SABZ18 SBSP 290100
2020052901 - METAR SBSP 290100Z 14004KT CAVOK 12/10 Q1024=
2020052902 - SABZ18 SBSP 290200
2020052902 - METAR SBSP 290200Z 12002KT CAVOK 12/10 Q1024=
2020052902 - SPECI SBSP 290203Z VRB02KT CAVOK 12/10 Q1023=
2020052903 - SABZ21 SBSP 290300
2020052903 - METAR SBSP 290300Z AUTO VRB02KT CAVOK 12/10 Q1023=
2020052904 - SABZ21 SBSP 290400
2020052904 - METAR SBSP 290400Z AUTO VRB02KT CAVOK 12/10 Q1023=
2020052905 - SABZ21 SBSP 290500
2020052905 - METAR SBSP 290500Z AUTO VRB02KT CAVOK 12/10 Q1023=
2020052906 - SABZ21 SBSP 290600
2020052906 - METAR SBSP 290600Z AUTO 07003KT 030V110 CAVOK 12/10 Q1023=
2020052907 - SABZ21 SBSP 290700
2020052907 - METAR SBSP 290700Z AUTO 06007KT CAVOK 13/10 Q1023=
2020052908 - SABZ21 SBSP 290800
2020052908 - METAR SBSP 290800Z AUTO 06004KT 360V100 CAVOK 13/09 Q1023=
2020052909 - SABZ18 SBSP 290900
2020052909 - METAR SBSP 290900Z 08007KT 040V110 CAVOK 12/09 Q1023=
2020052910 - SABZ18 SBSP 291000
2020052910 - METAR SBSP 291000Z 06004KT CAVOK 12/09 Q1024=
2020052911 - SABZ18 SBSP 291100
2020052911 - METAR SBSP 291100Z 05004KT CAVOK 12/10 Q1024=
2020052912 - SABZ18 SBSP 291200
2020052912 - METAR SBSP 291200Z 07005KT CAVOK 14/10 Q1024=
2020052913 - SABZ18 SBSP 291300
2020052913 - METAR SBSP 291300Z 06006KT CAVOK 15/10 Q1024=
2020052914 - SABZ18 SBSP 291400
2020052914 - METAR SBSP 291400Z 07005KT CAVOK 18/10 Q1024=
2020052915 - SABZ18 SBSP 291500
2020052915 - METAR SBSP 291500Z 04005KT CAVOK 20/09 Q1022=
2020052916 - SABZ18 SBSP 291600
2020052916 - METAR SBSP 291600Z 05004KT CAVOK 22/09 Q1021=
2020052917 - SABZ18 SBSP 291700
2020052917 - METAR SBSP 291700Z 32002KT CAVOK 24/08 Q1021=
2020052918 - SABZ18 SBSP 291800
2020052918 - METAR SBSP 291800Z 04002KT CAVOK 25/07 Q1020=
2020052919 - SABZ18 SBSP 291900
2020052919 - METAR SBSP 291900Z 27002KT CAVOK 25/06 Q1021=
2020052920 - SABZ18 SBSP 292000
2020052920 - METAR SBSP 292000Z 12003KT CAVOK 23/08 Q1020=
2020052921 - SABZ18 SBSP 292100
2020052921 - METAR SBSP 292100Z 17005KT CAVOK 19/12 Q1021=
2020052922 - SABZ18 SBSP 292200
2020052922 - METAR SBSP 292200Z 19004KT CAVOK 18/13 Q1021=
2020052923 - SABZ18 SBSP 292300
2020052923 - METAR SBSP 292300Z 20003KT CAVOK 17/13 Q1022=
2020053000 - SABZ18 SBSP 300000
2020053000 - METAR SBSP 300000Z 23002KT CAVOK 16/14 Q1022=
2020053001 - SABZ18 SBSP 300100
2020053001 - METAR SBSP 300100Z 00000KT CAVOK 15/13 Q1022=
2020053002 - SABZ18 SBSP 300200
2020053002 - METAR SBSP 300200Z 30002KT CAVOK 14/12 Q1022=
2020053002 - SPECI SBSP 300203Z 28001KT 6000 NSC 14/13 Q1022=
2020053003 - SABZ21 SBSP 300300
2020053003 - METAR SBSP 300300Z AUTO 00000KT 7000 NCD 14/13 Q1021=
2020053004 - SABZ21 SBSP 300400
2020053004 - METAR SBSP 300400Z AUTO 03002KT 6000 NCD 14/13 Q1021=
2020053004 - SPECI SBSP 300401Z AUTO 01001KT 4600 BR NCD 14/12 Q1021=
2020053004 - SPECI SBSP 300412Z AUTO 33001KT 5000 BR NCD 13/12 Q1021=
2020053004 - SPECI SBSP 300413Z AUTO 33001KT 4300 BR NCD 13/12 Q1021=
2020053004 - SPECI SBSP 300429Z AUTO 29002KT 6000 NCD 13/11 Q1022=
2020053005 - SABZ21 SBSP 300500
2020053005 - METAR SBSP 300500Z AUTO 35002KT 6000 NCD 14/12 Q1021=
2020053006 - SABZ21 SBSP 300600
2020053006 - METAR SBSP 300600Z AUTO 05002KT 5000 BR NCD 13/12 Q1021=
2020053006 - SPECI SBSP 300606Z AUTO 05002KT 4800 BR NCD 13/12 Q1021=
2020053006 - SPECI SBSP 300636Z AUTO 04002KT 5000 BR NCD 14/12 Q1020=
2020053006 - SPECI SBSP 300637Z AUTO 04002KT 4900 BR NCD 14/12 Q1020=
2020053007 - SABZ21 SBSP 300700
2020053007 - METAR SBSP 300700Z AUTO 05002KT 3500 BR NCD 14/12 Q1020=
2020053007 - SPECI SBSP 300741Z AUTO VRB01KT 5000 BR NCD 12/11 Q1021=
2020053008 - SABZ21 SBSP 300800
2020053008 - METAR SBSP 300800Z AUTO VRB02KT 6000 NCD 12/10 Q1021=
2020053008 - SPECI SBSP 300813Z AUTO VRB01KT 3800 BR NCD 12/11 Q1021=
2020053008 - SPECI SBSP 300829Z AUTO 33002KT 5000 BR NCD 12/10 Q1021=
2020053009 - SABZ18 SBSP 300900
2020053009 - METAR SBSP 300900Z 35001KT 7000 NSC 13/11 Q1022=
2020053010 - SABZ18 SBSP 301000
2020053010 - METAR SBSP 301000Z 36001KT 7000 NSC 12/11 Q1022=
2020053011 - SABZ18 SBSP 301100
2020053011 - METAR SBSP 301100Z 32002KT CAVOK 14/12 Q1022=
2020053012 - SABZ18 SBSP 301200
2020053012 - METAR SBSP 301200Z 35002KT CAVOK 16/11 Q1023=
2020053013 - SABZ18 SBSP 301300
2020053013 - METAR SBSP 301300Z 34005KT CAVOK 20/10 Q1023=
2020053014 - SABZ18 SBSP 301400
2020053014 - METAR SBSP 301400Z 34009KT CAVOK 22/07 Q1023=
2020053015 - SABZ18 SBSP 301500
2020053015 - METAR SBSP 301500Z 33011KT CAVOK 23/07 Q1022=
2020053016 - SABZ18 SBSP 301600
2020053016 - METAR SBSP 301600Z 35008KT CAVOK 24/06 Q1021=
2020053017 - SABZ18 SBSP 301700
2020053017 - METAR SBSP 301700Z 35008KT CAVOK 24/07 Q1020=
2020053018 - SABZ18 SBSP 301800
2020053018 - METAR SBSP 301800Z 34008KT CAVOK 25/06 Q1019=
2020053019 - SABZ18 SBSP 301900
2020053019 - METAR SBSP 301900Z 31008KT CAVOK 25/06 Q1019=
2020053020 - SABZ18 SBSP 302000
2020053020 - METAR SBSP 302000Z 31005KT CAVOK 23/05 Q1019=
2020053021 - SABZ18 SBSP 302100
2020053021 - METAR SBSP 302100Z 33003KT CAVOK 21/05 Q1020=
2020053022 - SABZ18 SBSP 302200
2020053022 - METAR SBSP 302200Z 32002KT CAVOK 19/06 Q1020=
2020053023 - SABZ18 SBSP 302300
2020053023 - METAR SBSP 302300Z 02002KT CAVOK 18/07 Q1021=
2020053100 - SABZ18 SBSP 310000
2020053100 - METAR SBSP 310000Z 33001KT CAVOK 17/07 Q1020=
2020053101 - SABZ18 SBSP 310100
2020053101 - METAR SBSP 310100Z 31002KT CAVOK 16/07 Q1021=
2020053102 - SABZ18 SBSP 310200
2020053102 - METAR SBSP 310200Z 31003KT CAVOK 16/08 Q1021=
2020053102 - SPECI SBSP 310201Z 32003KT CAVOK 16/08 Q1020=
2020053103 - SABZ21 SBSP 310300
2020053103 - METAR SBSP 310300Z AUTO 34002KT CAVOK 15/08 Q1020=
2020053104 - SABZ21 SBSP 310400
2020053104 - METAR SBSP 310400Z AUTO 32002KT CAVOK 14/08 Q1020=
2020053105 - SABZ21 SBSP 310500
2020053105 - METAR SBSP 310500Z AUTO 35002KT CAVOK 15/08 Q1020=
2020053106 - SABZ21 SBSP 310600
2020053106 - METAR SBSP 310600Z AUTO VRB02KT CAVOK 14/08 Q1020=
2020053107 - SABZ21 SBSP 310700
2020053107 - METAR SBSP 310700Z AUTO 34002KT CAVOK 13/08 Q1020=
2020053108 - SABZ21 SBSP 310800
2020053108 - METAR SBSP 310800Z AUTO 34003KT CAVOK 13/08 Q1020=
2020053109 - SABZ18 SBSP 310900
2020053109 - METAR SBSP 310900Z 33003KT CAVOK 12/08 Q1020=
2020053110 - SABZ18 SBSP 311000
2020053110 - METAR SBSP 311000Z 33004KT CAVOK 12/08 Q1021=
2020053111 - SABZ18 SBSP 311100
2020053111 - METAR SBSP 311100Z 32004KT CAVOK 14/08 Q1021=
2020053112 - SABZ18 SBSP 311200
2020053112 - METAR SBSP 311200Z 32005KT CAVOK 16/08 Q1022=
2020053113 - SABZ18 SBSP 311300
2020053113 - METAR SBSP 311300Z 34007KT CAVOK 19/09 Q1023=
2020053114 - SABZ18 SBSP 311400
2020053114 - METAR SBSP 311400Z 32009KT CAVOK 21/08 Q1022=
2020053115 - SABZ18 SBSP 311500
2020053115 - METAR SBSP 311500Z 29009KT CAVOK 22/07 Q1021=
2020053116 - SABZ18 SBSP 311600
2020053116 - METAR SBSP 311600Z 30011KT CAVOK 23/05 Q1020=
2020053117 - SABZ18 SBSP 311700
2020053117 - METAR SBSP 311700Z 31008KT CAVOK 24/07 Q1020=
2020053118 - SABZ18 SBSP 311800
2020053118 - METAR SBSP 311800Z 32009KT CAVOK 24/06 Q1019=
2020053119 - SABZ18 SBSP 311900
2020053119 - METAR SBSP 311900Z 29007KT CAVOK 24/03 Q1019=
2020053120 - SABZ18 SBSP 312000
2020053120 - METAR SBSP 312000Z 31007KT CAVOK 22/04 Q1019=
2020053121 - SABZ18 SBSP 312100
2020053121 - METAR SBSP 312100Z 34004KT CAVOK 20/05 Q1019=
2020053122 - SABZ18 SBSP 312200
2020053122 - METAR SBSP 312200Z 36003KT CAVOK 19/05 Q1019=
2020053123 - SABZ18 SBSP 312300
2020053123 - METAR SBSP 312300Z 33002KT CAVOK 18/06 Q1020=
