
2020060100 - SABZ18 SBSP 010000
2020060100 - METAR SBSP 010000Z 35003KT CAVOK 18/06 Q1020=
2020060101 - SABZ18 SBSP 010100
2020060101 - METAR SBSP 010100Z 33003KT CAVOK 17/06 Q1020=
2020060102 - SABZ18 SBSP 010200
2020060102 - METAR SBSP 010200Z 31004KT CAVOK 16/07 Q1020=
2020060102 - SPECI SBSP 010203Z 31004KT CAVOK 16/07 Q1020=
2020060103 - SABZ21 SBSP 010300
2020060103 - METAR SBSP 010300Z AUTO 32004KT CAVOK 15/07 Q1020=
2020060104 - SABZ21 SBSP 010400
2020060104 - METAR SBSP 010400Z AUTO 31004KT CAVOK 15/07 Q1019=
2020060105 - SABZ21 SBSP 010500
2020060105 - METAR SBSP 010500Z AUTO 32004KT CAVOK 15/06 Q1019=
2020060106 - SABZ21 SBSP 010600
2020060106 - METAR SBSP 010600Z AUTO 32004KT CAVOK 15/07 Q1019=
2020060107 - SABZ21 SBSP 010700
2020060107 - METAR SBSP 010700Z AUTO 32005KT CAVOK 14/06 Q1019=
2020060108 - SABZ21 SBSP 010800
2020060108 - METAR SBSP 010800Z AUTO 32004KT CAVOK 14/06 Q1019=
2020060109 - SABZ18 SBSP 010900
2020060109 - METAR SBSP 010900Z 33003KT CAVOK 14/07 Q1019=
2020060110 - SABZ18 SBSP 011000
2020060110 - METAR SBSP 011000Z 32004KT CAVOK 14/07 Q1020=
2020060111 - SABZ18 SBSP 011100
2020060111 - METAR SBSP 011100Z 32006KT CAVOK 15/08 Q1021=
2020060112 - SABZ18 SBSP 011200
2020060112 - METAR SBSP 011200Z 32007KT CAVOK 18/08 Q1021=
2020060113 - SABZ18 SBSP 011300
2020060113 - METAR SBSP 011300Z 33008KT CAVOK 20/07 Q1021=
2020060114 - SABZ18 SBSP 011400
2020060114 - METAR SBSP 011400Z 34010KT CAVOK 22/07 Q1021=
2020060115 - SABZ18 SBSP 011500
2020060115 - METAR SBSP 011500Z 33008KT CAVOK 23/08 Q1020=
2020060116 - SABZ18 SBSP 011600
2020060116 - METAR SBSP 011600Z 32009KT CAVOK 24/09 Q1019=
2020060117 - SABZ18 SBSP 011700
2020060117 - METAR SBSP 011700Z 32007KT CAVOK 25/10 Q1018=
2020060118 - SABZ18 SBSP 011800
2020060118 - METAR SBSP 011800Z 31008KT CAVOK 25/10 Q1017=
2020060119 - SABZ18 SBSP 011900
2020060119 - METAR SBSP 011900Z 30005KT CAVOK 25/10 Q1017=
2020060120 - SABZ18 SBSP 012000
2020060120 - METAR SBSP 012000Z 29005KT CAVOK 24/10 Q1018=
2020060121 - SABZ18 SBSP 012100
2020060121 - METAR SBSP 012100Z 17008KT CAVOK 20/14 Q1018=
2020060122 - SABZ18 SBSP 012200 CCA
2020060122 - METAR COR SBSP 012200Z 19008KT CAVOK 19/14 Q1019=
2020060123 - SABZ18 SBSP 012300
2020060123 - METAR SBSP 012300Z 18006KT 7000 SCT007 17/15 Q1019=
2020060123 - SPECI SBSP 012333Z 16006KT 7000 SCT006 BKN008 17/15 Q1020=
2020060200 - SABZ18 SBSP 020000
2020060200 - METAR SBSP 020000Z 17007KT 9999 BKN007 17/15 Q1020=
2020060201 - SABZ18 SBSP 020100
2020060201 - METAR SBSP 020100Z 15006KT 9999 BKN009 17/14 Q1020=
2020060202 - SABZ18 SBSP 020200
2020060202 - METAR SBSP 020200Z 14005KT 9999 BKN011 17/14 Q1020=
2020060202 - SPECI SBSP 020209Z 15005KT 9999 BKN011 17/14 Q1020=
2020060203 - SABZ21 SBSP 020300
2020060203 - METAR SBSP 020300Z AUTO 12003KT 080V160 9999 FEW009 BKN011 17/14Q1020=
2020060203 - SPECI SBSP 020307Z AUTO 10003KT 9999 BKN010 BKN012 17/14 Q1019=
2020060204 - SABZ21 SBSP 020400
2020060204 - METAR SBSP 020400Z AUTO VRB02KT 9999 BKN010 17/14 Q1019=
2020060205 - SABZ21 SBSP 020500
2020060205 - METAR SBSP 020500Z AUTO 00000KT 9000 BKN010 BKN012 17/14 Q1019=
2020060205 - SPECI SBSP 020519Z AUTO VRB01KT 9000 OVC011 17/14 Q1018=
2020060205 - SPECI SBSP 020536Z AUTO 00000KT 9000 BKN010 BKN012 17/14 Q1018=
2020060205 - SPECI SBSP 020549Z AUTO VRB01KT 8000 BKN011 17/14 Q1018=
2020060206 - SABZ21 SBSP 020600
2020060206 - METAR SBSP 020600Z AUTO VRB01KT 9000 BKN011 17/14 Q1018=
2020060206 - SPECI SBSP 020619Z AUTO 15001KT 8000 SCT011 16/14 Q1018=
2020060207 - SABZ21 SBSP 020700
2020060207 - METAR SBSP 020700Z AUTO 04004KT 7000 FEW012 17/14 Q1018=
2020060208 - SABZ21 SBSP 020800
2020060208 - METAR SBSP 020800Z AUTO 02004KT 6000 NCD 16/14 Q1018=
2020060209 - SABZ18 SBSP 020900
2020060209 - METAR SBSP 020900Z 01003KT 5000 BR FEW012 16/14 Q1018=
2020060210 - SABZ18 SBSP 021000
2020060210 - METAR SBSP 021000Z 35002KT 5000 BR NSC 16/14 Q1019=
2020060211 - SABZ18 SBSP 021100
2020060211 - METAR SBSP 021100Z 20004KT 4000 BR NSC 16/14 Q1020=
2020060211 - SPECI SBSP 021146Z 19010KT 4000 BR BKN003 OVC067 15/14 Q1021=
2020060212 - SABZ18 SBSP 021200
2020060212 - METAR SBSP 021200Z 19010KT 9999 BKN004 OVC007 16/14 Q1022=
2020060213 - SABZ18 SBSP 021300
2020060213 - METAR SBSP 021300Z 18007KT 9999 BKN010 OVC083 16/13 Q1022=
2020060214 - SABZ18 SBSP 021400
2020060214 - METAR SBSP 021400Z 15002KT 9999 BKN010 OVC067 16/13 Q1022=
2020060215 - SABZ18 SBSP 021500
2020060215 - METAR SBSP 021500Z 04008KT 9999 -RA FEW010 OVC083 17/14 Q1020=
2020060216 - SABZ18 SBSP 021600
2020060216 - METAR SBSP 021600Z 23004KT 6000 -RA FEW008 SCT012 BKN030 17/14 Q1020=
2020060217 - SABZ18 SBSP 021700
2020060217 - METAR SBSP 021700Z 20005KT 7000 SCT009 SCT011 17/14 Q1019=
2020060218 - SABZ18 SBSP 021800
2020060218 - METAR SBSP 021800Z 18004KT 140V210 7000 BKN008 SCT033 BKN100 17/14 Q1019=
2020060219 - SABZ18 SBSP 021900
2020060219 - METAR SBSP 021900Z 16004KT 7000 SCT007 BKN008 17/14 Q1019=
2020060220 - SABZ18 SBSP 022000
2020060220 - METAR SBSP 022000Z 16003KT 7000 SCT008 BKN047 16/14 Q1020=
2020060221 - SABZ18 SBSP 022100
2020060221 - METAR SBSP 022100Z 15004KT 6000 -DZ SCT009 SCT011 BKN043 16/14 Q1020=
2020060222 - SABZ18 SBSP 022200
2020060222 - METAR SBSP 022200Z VRB02KT 7000 FEW011 SCT037 BKN100 16/14 Q1020=
2020060223 - SABZ18 SBSP 022300
2020060223 - METAR SBSP 022300Z VRB02KT 7000 FEW040 BKN100 16/14 Q1021=
2020060300 - SABZ18 SBSP 030000
2020060300 - METAR SBSP 030000Z 11003KT 7000 FEW048 BKN100 16/14 Q1021=
2020060301 - SABZ18 SBSP 030100
2020060301 - METAR SBSP 030100Z 16003KT 6000 -DZ FEW008 BKN100 15/14 Q1021=
2020060302 - SABZ18 SBSP 030200
2020060302 - METAR SBSP 030200Z VRB02KT 5000 BR NSC 16/14 Q1021=
2020060302 - SPECI SBSP 030201Z VRB02KT 7000 NSC 16/14 Q1020=
2020060303 - SABZ21 SBSP 030300
2020060303 - METAR SBSP 030300Z AUTO 09003KT 050V110 6000 NCD 16/14 Q1020=
2020060304 - SABZ21 SBSP 030400
2020060304 - METAR SBSP 030400Z AUTO 06004KT 030V090 5000 BR FEW006 16/14 Q1020=
2020060305 - SABZ21 SBSP 030500
2020060305 - METAR SBSP 030500Z AUTO VRB01KT 6000 FEW005 16/14 Q1020=
2020060305 - SPECI SBSP 030542Z AUTO VRB02KT 7000 SCT004 BKN006 16/14 Q1020=
2020060305 - SPECI SBSP 030553Z AUTO VRB02KT 7000 BKN004 BKN006 16/14 Q1020=
2020060306 - SABZ21 SBSP 030600
2020060306 - METAR SBSP 030600Z AUTO 16003KT 120V200 7000 BKN004 BKN006 16/14Q1019=
2020060306 - SPECI SBSP 030618Z AUTO 11002KT 6000 OVC005 16/14 Q1020=
2020060307 - SABZ21 SBSP 030700
2020060307 - METAR SBSP 030700Z AUTO 17003KT 6000 BKN006 16/14 Q1020=
2020060307 - SPECI SBSP 030711Z AUTO 15004KT 6000 SCT007 BKN045 15/14 Q1020=
2020060307 - SPECI SBSP 030750Z AUTO 12003KT 080V150 4500 FEW007 15/14 Q1020=
2020060308 - SABZ21 SBSP 030800
2020060308 - METAR SBSP 030800Z AUTO 10004KT 4600 BR FEW007 15/14 Q1020=
2020060308 - SPECI SBSP 030813Z AUTO VRB01KT 6000 FEW043 15/14 Q1020=
2020060308 - SPECI SBSP 030821Z AUTO VRB02KT 4000 BR FEW043 15/14 Q1020=
2020060308 - SPECI SBSP 030838Z AUTO VRB02KT 5000 BR NCD 15/14 Q1020=
2020060309 - SABZ18 SBSP 030900
2020060309 - METAR SBSP 030900Z VRB02KT 5000 BR FEW005 SCT050 OVC073 15/14 Q1021=
2020060310 - SABZ18 SBSP 031000
2020060310 - METAR SBSP 031000Z VRB02KT 6000 SCT005 SCT050 BKN083 15/14 Q1022=
2020060311 - SABZ18 SBSP 031100
2020060311 - METAR SBSP 031100Z 18002KT 6000 SCT006 BKN007 OVC040 16/14 Q1023=
2020060311 - SPECI SBSP 031117Z 15003KT 7000 SCT008 SCT040 BKN067 16/15 Q1023=
2020060312 - SABZ18 SBSP 031200
2020060312 - METAR SBSP 031200Z 13003KT 080V180 7000 FEW009 BKN047 BKN067 17/15 Q1023=
2020060313 - SABZ18 SBSP 031300
2020060313 - METAR SBSP 031300Z 18003KT 140V240 8000 FEW010 BKN050 BKN100 17/14 Q1024=
2020060314 - SABZ18 SBSP 031400
2020060314 - METAR SBSP 031400Z 16003KT 110V220 7000 FEW013 SCT015 BKN043 18/14 Q1024=
2020060315 - SABZ18 SBSP 031500
2020060315 - METAR SBSP 031500Z 15004KT 080V200 7000 SCT017 BKN093 21/15 Q1023=
2020060316 - SABZ18 SBSP 031600
2020060316 - METAR SBSP 031600Z 24005KT 190V270 9000 FEW019 BKN021 BKN083 20/14 Q1023=
2020060317 - SABZ18 SBSP 031700
2020060317 - METAR SBSP 031700Z 19007KT 9999 BKN027 BKN067 20/15 Q1022=
2020060318 - SABZ18 SBSP 031800
2020060318 - METAR SBSP 031800Z 20008KT 9999 FEW015 BKN067 20/15 Q1022=
2020060319 - SABZ18 SBSP 031900
2020060319 - METAR SBSP 031900Z 18010KT 9999 FEW013 BKN083 19/15 Q1022=
2020060320 - SABZ18 SBSP 032000
2020060320 - METAR SBSP 032000Z 19007KT 9999 BKN011 BKN100 18/15 Q1022=
2020060321 - SABZ18 SBSP 032100
2020060321 - METAR SBSP 032100Z 18009KT 9999 BKN005 OVC009 17/15 Q1023=
2020060322 - SABZ18 SBSP 032200
2020060322 - METAR SBSP 032200Z 18007KT 9999 OVC007 17/15 Q1024=
2020060323 - SABZ18 SBSP 032300
2020060323 - METAR SBSP 032300Z 18006KT 9999 SCT003 OVC006 17/15 Q1024=
2020060400 - SABZ18 SBSP 040000
2020060400 - METAR SBSP 040000Z 15006KT 9000 BKN006 OVC012 17/15 Q1025=
2020060401 - SABZ18 SBSP 040100
2020060401 - METAR SBSP 040100Z 12006KT 8000 OVC007 17/15 Q1025=
2020060402 - SABZ18 SBSP 040200
2020060402 - METAR SBSP 040200Z 14007KT 9000 BKN005 OVC008 17/15 Q1025=
2020060402 - SPECI SBSP 040203Z 14007KT 9999 BKN005 OVC008 17/15 Q1025=
2020060402 - SPECI SBSP 040237Z AUTO 15006KT 9999 OVC006 17/15 Q1025=
2020060403 - SABZ21 SBSP 040300
2020060403 - METAR SBSP 040300Z AUTO 13005KT 9999 BKN006 OVC008 17/15 Q1025=
2020060403 - SPECI SBSP 040304Z AUTO 13005KT 9999 OVC007 17/15 Q1025=
2020060404 - SABZ21 SBSP 040400
2020060404 - METAR SBSP 040400Z AUTO 14005KT 100V160 9999 OVC008 17/15 Q1025=
2020060404 - SPECI SBSP 040419Z AUTO 16006KT 9999 BKN007 OVC009 17/15 Q1025=
2020060405 - SABZ21 SBSP 040500
2020060405 - METAR SBSP 040500Z AUTO 15003KT 110V170 9999 OVC006 17/15 Q1025=
2020060405 - SPECI SBSP 040501Z AUTO 15004KT 9999 BKN005 OVC007 17/15 Q1024=
2020060405 - SPECI SBSP 040502Z AUTO 15004KT 9999 BKN004 OVC007 17/15 Q1024=
2020060405 - SPECI SBSP 040523Z AUTO 12003KT 8000 BKN002 OVC004 17/15 Q1024=
2020060405 - SPECI SBSP 040529Z AUTO 13003KT 4400 BR BKN002 OVC004 17/15 Q1024=
2020060406 - SABZ21 SBSP 040600
2020060406 - METAR SBSP 040600Z AUTO 16003KT 4500 BR OVC002 17/15 Q1024=
2020060406 - SPECI SBSP 040628Z AUTO 12004KT 5000 -RA BKN002 OVC009 17/15 Q1024=
2020060406 - SPECI SBSP 040636Z AUTO 13004KT 6000 BKN002 OVC004 17/15 Q1024=
2020060406 - SPECI SBSP 040650Z AUTO 13005KT 9000 FEW002 SCT004 OVC011 17/15Q1023=
2020060407 - SABZ21 SBSP 040700
2020060407 - METAR SBSP 040700Z AUTO 13005KT 9999 FEW002 SCT004 OVC011 17/15Q1023=
2020060407 - SPECI SBSP 040707Z AUTO 14005KT 110V180 9999 FEW004 SCT011 17/15Q1023=
2020060407 - SPECI SBSP 040755Z AUTO 18003KT 9999 SCT005 BKN014 17/15 Q1024=
2020060408 - SABZ21 SBSP 040800
2020060408 - METAR SBSP 040800Z AUTO 18003KT 9999 SCT005 BKN014 17/15 Q1024=
2020060408 - SPECI SBSP 040808Z AUTO 17003KT 9999 SCT005 BKN010 BKN012 17/15Q1024=
2020060408 - SPECI SBSP 040820Z AUTO 18003KT 9999 FEW005 OVC009 17/15 Q1024=
2020060409 - SABZ18 SBSP 040900
2020060409 - METAR SBSP 040900Z 17003KT 7000 OVC008 16/15 Q1024=
2020060410 - SABZ18 SBSP 041000
2020060410 - METAR SBSP 041000Z 14003KT 5000 -DZ BR OVC007 16/15 Q1025=
2020060411 - SABZ18 SBSP 041100
2020060411 - METAR SBSP 041100Z 16003KT 7000 SCT007 BKN100 17/15 Q1025=
2020060412 - SABZ18 SBSP 041200
2020060412 - METAR SBSP 041200Z 14003KT 8000 BKN007 17/16 Q1026=
2020060413 - SABZ18 SBSP 041300
2020060413 - METAR SBSP 041300Z 12003KT 7000 OVC010 18/16 Q1026=
2020060414 - SABZ18 SBSP 041400
2020060414 - METAR SBSP 041400Z 09005KT 9000 OVC014 19/15 Q1026=
2020060415 - SABZ18 SBSP 041500
2020060415 - METAR SBSP 041500Z 10006KT 8000 OVC018 20/15 Q1026=
2020060416 - SABZ18 SBSP 041600
2020060416 - METAR SBSP 041600Z 16006KT 8000 FEW015 OVC027 21/15 Q1025=
2020060417 - SABZ18 SBSP 041700
2020060417 - METAR SBSP 041700Z 19008KT 150V220 7000 SCT015 BKN019 BKN030 21/16 Q1024=
2020060418 - SABZ18 SBSP 041800
2020060418 - METAR SBSP 041800Z 16007KT 9000 FEW017 BKN019 BKN033 21/15 Q1023=
2020060419 - SABZ18 SBSP 041900
2020060419 - METAR SBSP 041900Z 16009KT 7000 SCT011 SCT013 BKN033 19/15 Q1024=
2020060420 - SABZ18 SBSP 042000
2020060420 - METAR SBSP 042000Z 19010KT 9000 SCT007 SCT033 18/16 Q1024=
2020060421 - SABZ18 SBSP 042100
2020060421 - METAR SBSP 042100Z 20006KT 8000 SCT007 BKN009 18/15 Q1024=
2020060422 - SABZ18 SBSP 042200
2020060422 - METAR SBSP 042200Z 19006KT 8000 BKN005 OVC008 18/16 Q1024=
2020060423 - SABZ18 SBSP 042300
2020060423 - METAR SBSP 042300Z 18005KT 7000 BKN003 OVC006 17/16 Q1024=
2020060500 - SABZ18 SBSP 050000
2020060500 - METAR SBSP 050000Z 12006KT 9000 SCT005 SCT007 OVC100 18/16 Q1024=
2020060501 - SABZ18 SBSP 050100
2020060501 - METAR SBSP 050100Z 11005KT 8000 BKN006 OVC011 18/16 Q1024=
2020060502 - SABZ18 SBSP 050200
2020060502 - METAR SBSP 050200Z 15005KT 7000 BKN007 OVC009 18/16 Q1025=
2020060502 - SPECI SBSP 050201Z 15005KT 110V170 9999 BKN007 OVC009 18/16 Q1024=
2020060503 - SABZ21 SBSP 050300
2020060503 - METAR SBSP 050300Z AUTO 14004KT 110V170 9999 BKN006 OVC008 18/16Q1024=
2020060503 - SPECI SBSP 050328Z AUTO 12004KT 9000 OVC008 18/16 Q1024=
2020060504 - SABZ21 SBSP 050400
2020060504 - METAR SBSP 050400Z AUTO 14004KT 9000 BKN008 OVC013 18/16 Q1024=
2020060504 - SPECI SBSP 050410Z AUTO 15005KT 8000 FEW008 OVC013 18/16 Q1024=
2020060504 - SPECI SBSP 050416Z AUTO 17005KT 8000 SCT008 BKN012 OVC014 18/16Q1024=
2020060504 - SPECI SBSP 050430Z AUTO 16004KT 9000 FEW008 OVC013 18/16 Q1024=
2020060504 - SPECI SBSP 050438Z AUTO 18004KT 9000 FEW008 BKN012 OVC014 18/16Q1024=
2020060505 - SABZ21 SBSP 050500
2020060505 - METAR SBSP 050500Z AUTO 18004KT 9000 SCT007 OVC012 18/16 Q1024=
2020060505 - SPECI SBSP 050541Z AUTO 17003KT 6000 FEW004 BKN008 OVC013 18/16Q1024=
2020060505 - SPECI SBSP 050550Z AUTO 17004KT 6000 BKN004 BKN013 OVC017 18/16Q1024=
2020060506 - SABZ21 SBSP 050600
2020060506 - METAR SBSP 050600Z AUTO 16003KT 6000 BKN004 BKN013 OVC017 18/16Q1024=
2020060506 - SPECI SBSP 050605Z AUTO 16004KT 6000 FEW003 BKN005 OVC018 17/16Q1024=
2020060506 - SPECI SBSP 050615Z AUTO 16003KT 6000 FEW003 SCT005 OVC018 17/16Q1024=
2020060506 - SPECI SBSP 050653Z AUTO 13002KT 6000 FEW006 BKN014 17/16 Q1023=
2020060507 - SABZ21 SBSP 050700
2020060507 - METAR SBSP 050700Z AUTO 14002KT 6000 FEW006 BKN014 17/16 Q1023=
2020060507 - SPECI SBSP 050711Z AUTO 12003KT 6000 FEW014 17/16 Q1023=
2020060507 - SPECI SBSP 050721Z AUTO VRB02KT 3300 BR FEW006 17/16 Q1023=
2020060507 - SPECI SBSP 050733Z AUTO VRB02KT 6000 FEW005 BKN011 17/16 Q1023=
2020060508 - SABZ21 SBSP 050800
2020060508 - METAR SBSP 050800Z AUTO 13002KT 6000 FEW002 SCT011 BKN014 17/16Q1023=
2020060508 - SPECI SBSP 050852Z AUTO 14004KT 100V170 6000 FEW005 BKN010 OVC01217/16 Q1023=
2020060509 - SABZ18 SBSP 050900
2020060509 - METAR SBSP 050900Z 14004KT 100V170 5000 -DZ BR FEW005 OVC009 17/16 Q1024=
2020060510 - SABZ18 SBSP 051000
2020060510 - METAR SBSP 051000Z 08005KT 040V120 7000 SCT007 OVC008 18/16 Q1024=
2020060511 - SABZ18 SBSP 051100
2020060511 - METAR SBSP 051100Z 05005KT 010V080 6000 BKN008 OVC011 18/16 Q1025=
2020060512 - SABZ18 SBSP 051200
2020060512 - METAR SBSP 051200Z 08006KT 030V110 7000 BKN009 OVC010 18/16 Q1026=
2020060513 - SABZ18 SBSP 051300
2020060513 - METAR SBSP 051300Z 05006KT 7000 SCT007 BKN009 BKN083 19/16 Q1026=
2020060514 - SABZ18 SBSP 051400
2020060514 - METAR SBSP 051400Z 05006KT 010V090 7000 FEW009 BKN011 BKN077 19/16 Q1026=
2020060515 - SABZ18 SBSP 051500
2020060515 - METAR SBSP 051500Z 06005KT 030V100 8000 SCT011 SCT100 21/17 Q1024=
2020060516 - SABZ18 SBSP 051600
2020060516 - METAR SBSP 051600Z 07006KT 020V110 7000 SCT015 BKN100 21/16 Q1024=
2020060517 - SABZ18 SBSP 051700
2020060517 - METAR SBSP 051700Z 08007KT 5000 HZ FEW015 OVC100 21/16 Q1023=
2020060518 - SABZ18 SBSP 051800
2020060518 - METAR SBSP 051800Z 05006KT 6000 FEW015 22/17 Q1022=
2020060519 - SABZ18 SBSP 051900 CCA
2020060519 - METAR SBSP 051900Z 07005KT 7000 NSC 22/17 Q1022=
2020060520 - SABZ18 SBSP 052000
2020060520 - METAR SBSP 052000Z 08005KT 8000 FEW033 BKN100 21/17 Q1022=
2020060521 - SABZ18 SBSP 052100
2020060521 - METAR SBSP 052100Z 06005KT CAVOK 20/17 Q1022=
2020060522 - SABZ18 SBSP 052200
2020060522 - METAR SBSP 052200Z 05007KT CAVOK 20/16 Q1023=
2020060523 - SABZ18 SBSP 052300
2020060523 - METAR SBSP 052300Z 06007KT CAVOK 19/16 Q1023=
2020060600 - SABZ18 SBSP 060000
2020060600 - METAR SBSP 060000Z 05006KT CAVOK 19/17 Q1023=
2020060601 - SABZ18 SBSP 060100
2020060601 - METAR SBSP 060100Z 04004KT CAVOK 19/16 Q1023=
2020060602 - SABZ18 SBSP 060200
2020060602 - METAR SBSP 060200Z 04005KT CAVOK 19/16 Q1022=
2020060602 - SPECI SBSP 060203Z 06005KT 030V090 5000 BR NSC 19/16 Q1022=
2020060603 - SABZ21 SBSP 060300
2020060603 - METAR SBSP 060300Z AUTO 04005KT 5000 BR NCD 19/16 Q1022=
2020060604 - SABZ21 SBSP 060400
2020060604 - METAR SBSP 060400Z AUTO 03005KT 5000 BR NCD 19/16 Q1021=
2020060605 - SABZ21 SBSP 060500
2020060605 - METAR SBSP 060500Z AUTO 04007KT 5000 BR NCD 18/16 Q1020=
2020060606 - SABZ21 SBSP 060600
2020060606 - METAR SBSP 060600Z AUTO 03007KT 6000 NCD 19/15 Q1020=
2020060607 - SABZ21 SBSP 060700
2020060607 - METAR SBSP 060700Z AUTO 03007KT 6000 NCD 18/15 Q1020=
2020060608 - SABZ21 SBSP 060800
2020060608 - METAR SBSP 060800Z AUTO 05005KT 6000 NCD 18/15 Q1019=
2020060609 - SABZ18 SBSP 060900
2020060609 - METAR SBSP 060900Z 03005KT CAVOK 19/15 Q1020=
2020060610 - SABZ18 SBSP 061000
2020060610 - METAR SBSP 061000Z 04005KT CAVOK 19/15 Q1021=
2020060611 - SABZ18 SBSP 061100
2020060611 - METAR SBSP 061100Z 05003KT CAVOK 18/16 Q1022=
2020060612 - SABZ18 SBSP 061200
2020060612 - METAR SBSP 061200Z 04004KT CAVOK 19/16 Q1023=
2020060613 - SABZ18 SBSP 061300
2020060613 - METAR SBSP 061300Z 03005KT CAVOK 20/16 Q1022=
2020060614 - SABZ18 SBSP 061400
2020060614 - METAR SBSP 061400Z 03006KT CAVOK 21/15 Q1022=
2020060615 - SABZ18 SBSP 061500
2020060615 - METAR SBSP 061500Z 01009KT CAVOK 22/16 Q1021=
2020060616 - SABZ18 SBSP 061600
2020060616 - METAR SBSP 061600Z 35011KT CAVOK 24/14 Q1020=
2020060617 - SABZ18 SBSP 061700
2020060617 - METAR SBSP 061700Z 35010KT CAVOK 24/15 Q1019=
2020060618 - SABZ18 SBSP 061800
2020060618 - METAR SBSP 061800Z 34012KT CAVOK 24/15 Q1019=
2020060619 - SABZ18 SBSP 061900
2020060619 - METAR SBSP 061900Z 35011KT CAVOK 24/15 Q1019=
2020060620 - SABZ18 SBSP 062000
2020060620 - METAR SBSP 062000Z 34010KT CAVOK 23/15 Q1019=
2020060621 - SABZ18 SBSP 062100
2020060621 - METAR SBSP 062100Z 34007KT 9999 FEW043 BKN083 23/15 Q1020=
2020060622 - SABZ18 SBSP 062200
2020060622 - METAR SBSP 062200Z 35007KT CAVOK 22/15 Q1020=
2020060623 - SABZ18 SBSP 062300
2020060623 - METAR SBSP 062300Z 35009KT CAVOK 22/15 Q1020=
2020060700 - SABZ18 SBSP 070000
2020060700 - METAR SBSP 070000Z 35009KT CAVOK 22/16 Q1020=
2020060701 - SABZ18 SBSP 070100
2020060701 - METAR SBSP 070100Z VRB03KT 9999 RA SCT040 FEW050TCU BKN090 21/16 Q1020=
2020060701 - SPECI SBSP 070102Z 26004KT 5000 +TSRA SCT040 FEW050CB BKN093 21/17 Q1020 RERA=
2020060701 - SPECI SBSP 070131Z 06009KT 020V100 2100 +TSRA BR SCT008 BKN015 FEW050CB BKN100 18/17 Q1021 RERA=
2020060701 - SPECI SBSP 070141Z 08005KT 050V200 4000 -TSRA BR SCT006 BKN015 FEW040CB BKN093 18/16 Q1020 RERA=
2020060702 - SABZ18 SBSP 070200
2020060702 - METAR SBSP 070200Z 30004KT 290V360 6000 -TSRA FEW007 FEW033CB OVC093 18/17 Q1021 RERA=
2020060702 - SPECI SBSP 070201Z 33006KT 4100 BR VCTS SCT026 BKN034 //////CB 18/17Q1021 RETSRA=
2020060702 - SPECI SBSP 070202Z AUTO 33006KT 4000 -TSRA BKN026 BKN034 //////CB18/17 Q1021 RETSRA=
2020060702 - SPECI SBSP 070234Z AUTO VRB02KT 4500 BR FEW020 18/17 Q1020 RETSRA=
2020060703 - SABZ21 SBSP 070300
2020060703 - METAR SBSP 070300Z AUTO 36003KT 4500 BR FEW039 BKN047 18/17 Q1020RETS=
2020060703 - SPECI SBSP 070304Z AUTO 02004KT 340V060 4600 TS BR BKN038 OVC04718/17 Q1020=
2020060703 - SPECI SBSP 070325Z AUTO 36003KT 330V040 7000 FEW036 SCT045 18/17Q1020 RETS=
2020060703 - SPECI SBSP 070330Z AUTO 34004KT 300V010 6000 TS FEW020 BKN042//////CB 18/17 Q1020=
2020060703 - SPECI SBSP 070332Z AUTO 33004KT 290V010 2700 TS BR FEW014 BKN042//////CB 18/17 Q1020=
2020060703 - SPECI SBSP 070345Z AUTO 01004KT 340V040 5000 BR VCTS FEW017 BKN020//////CB 18/17 Q1020 RETS=
2020060703 - SPECI SBSP 070353Z AUTO 01004KT 330V040 5000 TS BR FEW017 SCT020//////CB 18/17 Q1020=
2020060704 - SABZ21 SBSP 070400
2020060704 - METAR SBSP 070400Z AUTO 36004KT 330V040 5000 TS BR FEW015 SCT020//////CB 18/17 Q1020=
2020060704 - SPECI SBSP 070417Z AUTO 01006KT 6000 VCTS FEW014 //////CB 19/17 Q1020RETS=
2020060704 - SPECI SBSP 070425Z AUTO 36006KT 6000 TS FEW011 //////CB 19/17 Q1020=
2020060704 - SPECI SBSP 070443Z AUTO 35005KT 320V020 6000 TS FEW006 BKN009//////CB 19/17 Q1020=
2020060704 - SPECI SBSP 070454Z AUTO 36003KT 320V030 6000 SCT006 BKN014 19/17Q1020 RETS=
2020060705 - SABZ21 SBSP 070500
2020060705 - METAR SBSP 070500Z AUTO 36003KT 320V030 6000 SCT006 BKN014 19/17Q1020 RETS=
2020060705 - SPECI SBSP 070511Z AUTO 35007KT 6000 FEW006 SCT014 19/17 Q1020=
2020060705 - SPECI SBSP 070538Z AUTO 36005KT 6000 FEW007 BKN014 OVC024 19/17Q1020=
2020060705 - SPECI SBSP 070559Z AUTO 36005KT 6000 SCT011 BKN019 19/17 Q1021=
2020060706 - SABZ21 SBSP 070600
2020060706 - METAR SBSP 070600Z AUTO 36005KT 6000 SCT011 BKN019 19/17 Q1021=
2020060706 - SPECI SBSP 070601Z AUTO 36005KT 6000 SCT011 BKN014 19/17 Q1021=
2020060706 - SPECI SBSP 070616Z AUTO VRB02KT 6000 BKN006 BKN021 19/17 Q1020=
2020060706 - SPECI SBSP 070627Z AUTO VRB02KT 6000 FEW006 BKN011 19/17 Q1020=
2020060706 - SPECI SBSP 070631Z AUTO VRB02KT 6000 FEW006 BKN009 19/17 Q1020=
2020060706 - SPECI SBSP 070657Z AUTO 33001KT 6000 SCT007 BKN017 19/17 Q1020=
2020060707 - SABZ21 SBSP 070700
2020060707 - METAR SBSP 070700Z AUTO 33001KT 6000 SCT007 BKN017 19/17 Q1020=
2020060707 - SPECI SBSP 070707Z AUTO VRB02KT 6000 FEW006 BKN008 19/17 Q1020=
2020060707 - SPECI SBSP 070718Z AUTO VRB02KT 5000 BR FEW005 SCT017 19/17 Q1020=
2020060708 - SABZ21 SBSP 070800
2020060708 - METAR SBSP 070800Z AUTO 30003KT 260V320 7000 FEW007 OVC023 19/17Q1021=
2020060709 - SABZ18 SBSP 070900
2020060709 - METAR SBSP 070900Z 33005KT 8000 SCT019 OVC021 19/17 Q1022=
2020060710 - SABZ18 SBSP 071000
2020060710 - METAR SBSP 071000Z 33006KT 9000 SCT017 OVC083 18/16 Q1022=
2020060711 - SABZ18 SBSP 071100
2020060711 - METAR SBSP 071100Z 35006KT 9999 FEW008 BKN083 19/16 Q1022=
2020060712 - SABZ18 SBSP 071200
2020060712 - METAR SBSP 071200Z 35008KT 9999 FEW013 SCT100 19/16 Q1023=
2020060713 - SABZ18 SBSP 071300
2020060713 - METAR SBSP 071300Z 35009KT 9999 FEW019 SCT067 21/15 Q1023=
2020060714 - SABZ18 SBSP 071400
2020060714 - METAR SBSP 071400Z 33008KT 290V360 CAVOK 22/14 Q1023=
2020060715 - SABZ18 SBSP 071500
2020060715 - METAR SBSP 071500Z 34009KT 310V020 9999 FEW037 22/13 Q1023=
2020060716 - SABZ18 SBSP 071600
2020060716 - METAR SBSP 071600Z 35010KT CAVOK 24/13 Q1022=
2020060717 - SABZ18 SBSP 071700
2020060717 - METAR SBSP 071700Z 32011KT CAVOK 24/12 Q1021=
2020060718 - SABZ18 SBSP 071800
2020060718 - METAR SBSP 071800Z 31010KT CAVOK 24/12 Q1021=
2020060719 - SABZ18 SBSP 071900
2020060719 - METAR SBSP 071900Z 33010KT CAVOK 24/13 Q1020=
2020060720 - SABZ18 SBSP 072000
2020060720 - METAR SBSP 072000Z 31009KT 9999 FEW033 23/13 Q1021=
2020060721 - SABZ18 SBSP 072100
2020060721 - METAR SBSP 072100Z 33007KT CAVOK 22/14 Q1021=
2020060722 - SABZ18 SBSP 072200
2020060722 - METAR SBSP 072200Z 33008KT CAVOK 21/15 Q1021=
2020060723 - SABZ18 SBSP 072300
2020060723 - METAR SBSP 072300Z 33005KT CAVOK 20/15 Q1022=
2020060800 - SABZ18 SBSP 080000
2020060800 - METAR SBSP 080000Z 33006KT CAVOK 20/15 Q1022=
2020060801 - SABZ18 SBSP 080100
2020060801 - METAR SBSP 080100Z 33006KT CAVOK 19/15 Q1023=
2020060802 - SABZ18 SBSP 080200
2020060802 - METAR SBSP 080200Z 31003KT CAVOK 19/15 Q1023=
2020060802 - SPECI SBSP 080201Z 31004KT CAVOK 19/16 Q1022=
2020060803 - SABZ21 SBSP 080300
2020060803 - METAR SBSP 080300Z AUTO 31005KT CAVOK 19/15 Q1022=
2020060804 - SABZ21 SBSP 080400
2020060804 - METAR SBSP 080400Z AUTO 33006KT CAVOK 18/16 Q1022=
2020060805 - SABZ21 SBSP 080500
2020060805 - METAR SBSP 080500Z AUTO 32005KT CAVOK 18/16 Q1022=
2020060805 - SPECI SBSP 080544Z AUTO 32006KT 9999 FEW008 SCT011 BKN013 18/16Q1021=
2020060805 - SPECI SBSP 080557Z AUTO 32006KT 9999 BKN008 BKN011 18/16 Q1021=
2020060806 - SABZ21 SBSP 080600
2020060806 - METAR SBSP 080600Z AUTO 32006KT 9999 BKN008 BKN011 18/16 Q1021=
2020060806 - SPECI SBSP 080620Z AUTO 32004KT 9000 SCT010 BKN012 18/16 Q1021=
2020060806 - SPECI SBSP 080630Z AUTO 32004KT 9999 FEW010 18/16 Q1021=
2020060807 - SABZ21 SBSP 080700
2020060807 - METAR SBSP 080700Z AUTO 32004KT 9000 NCD 18/16 Q1021=
2020060808 - SABZ21 SBSP 080800
2020060808 - METAR SBSP 080800Z AUTO 33004KT 8000 FEW005 17/16 Q1021=
2020060809 - SABZ18 SBSP 080900
2020060809 - METAR SBSP 080900Z 32003KT 8000 SCT004 17/16 Q1022=
2020060810 - SABZ18 SBSP 081000
2020060810 - METAR SBSP 081000Z 33002KT 9000 FEW010 16/15 Q1022=
2020060811 - SABZ18 SBSP 081100
2020060811 - METAR SBSP 081100Z 31005KT CAVOK 17/16 Q1023=
2020060812 - SABZ18 SBSP 081200
2020060812 - METAR SBSP 081200Z 32006KT CAVOK 19/17 Q1023=
2020060813 - SABZ18 SBSP 081300
2020060813 - METAR SBSP 081300Z 32006KT CAVOK 21/17 Q1023=
2020060814 - SABZ18 SBSP 081400
2020060814 - METAR SBSP 081400Z 31008KT CAVOK 23/16 Q1023=
2020060815 - SABZ18 SBSP 081500
2020060815 - METAR SBSP 081500Z 31007KT CAVOK 25/15 Q1022=
2020060816 - SABZ18 SBSP 081600
2020060816 - METAR SBSP 081600Z 32006KT 9999 BKN035 25/16 Q1021=
2020060817 - SABZ18 SBSP 081700
2020060817 - METAR SBSP 081700Z 28006KT 9999 BKN040 26/15 Q1020=
2020060818 - SABZ18 SBSP 081800
2020060818 - METAR SBSP 081800Z 27007KT 9999 BKN040 26/15 Q1019=
2020060819 - SABZ18 SBSP 081900
2020060819 - METAR SBSP 081900Z 30006KT 9999 BKN040 FEW045TCU 25/15 Q1020=
2020060820 - SABZ18 SBSP 082000
2020060820 - METAR SBSP 082000Z 28009KT 9999 SCT040 SCT100 25/15 Q1020=
2020060821 - SABZ18 SBSP 082100
2020060821 - METAR SBSP 082100Z 27002KT CAVOK 24/15 Q1020=
2020060822 - SABZ18 SBSP 082200
2020060822 - METAR SBSP 082200Z 24002KT CAVOK 23/16 Q1021=
2020060823 - SABZ18 SBSP 082300
2020060823 - METAR SBSP 082300Z 00000KT CAVOK 22/16 Q1021=
2020060900 - SABZ18 SBSP 090000
2020060900 - METAR SBSP 090000Z 05002KT CAVOK 21/16 Q1021=
2020060901 - SABZ18 SBSP 090100
2020060901 - METAR SBSP 090100Z 12003KT CAVOK 20/16 Q1021=
2020060902 - SABZ18 SBSP 090200
2020060902 - METAR SBSP 090200Z 07002KT CAVOK 21/17 Q1021=
2020060902 - SPECI SBSP 090202Z 06002KT CAVOK 21/17 Q1021=
2020060903 - SABZ21 SBSP 090300
2020060903 - METAR SBSP 090300Z AUTO 01003KT CAVOK 20/16 Q1021=
2020060904 - SABZ21 SBSP 090400
2020060904 - METAR SBSP 090400Z AUTO 33001KT CAVOK 20/16 Q1021=
2020060905 - SABZ21 SBSP 090500
2020060905 - METAR SBSP 090500Z AUTO 00000KT 9999 FEW047 19/16 Q1020=
2020060906 - SABZ21 SBSP 090600
2020060906 - METAR SBSP 090600Z AUTO 01002KT CAVOK 19/17 Q1020=
2020060907 - SABZ21 SBSP 090700
2020060907 - METAR SBSP 090700Z AUTO 02003KT CAVOK 19/16 Q1019=
2020060908 - SABZ21 SBSP 090800
2020060908 - METAR SBSP 090800Z AUTO 34003KT CAVOK 18/16 Q1019=
2020060909 - SABZ18 SBSP 090900
2020060909 - METAR SBSP 090900Z 03003KT CAVOK 19/16 Q1020=
2020060910 - SABZ18 SBSP 091000
2020060910 - METAR SBSP 091000Z 03002KT CAVOK 18/16 Q1020=
2020060911 - SABZ18 SBSP 091100
2020060911 - METAR SBSP 091100Z 35002KT CAVOK 19/17 Q1021=
2020060912 - SABZ18 SBSP 091200
2020060912 - METAR SBSP 091200Z 01004KT CAVOK 21/17 Q1021=
2020060913 - SABZ18 SBSP 091300
2020060913 - METAR SBSP 091300Z 01007KT CAVOK 22/17 Q1021=
2020060914 - SABZ18 SBSP 091400
2020060914 - METAR SBSP 091400Z 34008KT CAVOK 23/16 Q1021=
2020060915 - SABZ18 SBSP 091500
2020060915 - METAR SBSP 091500Z 34007KT CAVOK 24/17 Q1020=
2020060916 - SABZ18 SBSP 091600
2020060916 - METAR SBSP 091600Z 33008KT CAVOK 24/17 Q1019=
2020060917 - SABZ18 SBSP 091700
2020060917 - METAR SBSP 091700Z 31007KT CAVOK 24/17 Q1018=
2020060918 - SABZ18 SBSP 091800
2020060918 - METAR SBSP 091800Z 36006KT CAVOK 25/17 Q1018=
2020060919 - SABZ18 SBSP 091900
2020060919 - METAR SBSP 091900Z 35004KT CAVOK 25/17 Q1018=
2020060920 - SABZ18 SBSP 092000
2020060920 - METAR SBSP 092000Z 01005KT CAVOK 24/18 Q1017=
2020060921 - SABZ18 SBSP 092100
2020060921 - METAR SBSP 092100Z 01004KT CAVOK 23/17 Q1017=
2020060922 - SABZ18 SBSP 092200
2020060922 - METAR SBSP 092200Z 33012KT 9999 FEW015 BKN043 22/18 Q1018=
2020060923 - SABZ18 SBSP 092300
2020060923 - METAR SBSP 092300Z 32007KT CAVOK 21/18 Q1019=
2020061000 - SABZ18 SBSP 100000
2020061000 - METAR SBSP 100000Z 33008KT CAVOK 20/17 Q1019=
2020061001 - SABZ18 SBSP 100100
2020061001 - METAR SBSP 100100Z 33004KT CAVOK 20/15 Q1019=
2020061002 - SABZ18 SBSP 100200
2020061002 - METAR SBSP 100200Z 30005KT 260V350 CAVOK 20/16 Q1019=
2020061002 - SPECI SBSP 100203Z 32005KT 9999 -RA FEW049 20/16 Q1018=
2020061003 - SABZ21 SBSP 100300
2020061003 - METAR SBSP 100300Z AUTO 33005KT 9999 -RA NCD 20/16 Q1018=
2020061004 - SABZ21 SBSP 100400
2020061004 - METAR SBSP 100400Z AUTO 01004KT 340V040 9999 -RA NCD 19/16 Q1018=
2020061005 - SABZ21 SBSP 100500
2020061005 - METAR SBSP 100500Z AUTO VRB02KT CAVOK 19/16 Q1018=
2020061006 - SABZ21 SBSP 100600
2020061006 - METAR SBSP 100600Z AUTO 31003KT CAVOK 19/16 Q1018=
2020061007 - SABZ21 SBSP 100700
2020061007 - METAR SBSP 100700Z AUTO 36002KT CAVOK 19/16 Q1017=
2020061008 - SABZ21 SBSP 100800
2020061008 - METAR SBSP 100800Z AUTO 01004KT CAVOK 19/15 Q1017=
2020061009 - SABZ18 SBSP 100900
2020061009 - METAR SBSP 100900Z 33004KT CAVOK 19/15 Q1018=
2020061010 - SABZ18 SBSP 101000
2020061010 - METAR SBSP 101000Z 36004KT CAVOK 19/16 Q1018=
2020061011 - SABZ18 SBSP 101100
2020061011 - METAR SBSP 101100Z 32003KT CAVOK 20/16 Q1019=
2020061012 - SABZ18 SBSP 101200
2020061012 - METAR SBSP 101200Z 34005KT CAVOK 21/16 Q1019=
2020061013 - SABZ18 SBSP 101300
2020061013 - METAR SBSP 101300Z 35007KT CAVOK 23/16 Q1019=
2020061014 - SABZ18 SBSP 101400
2020061014 - METAR SBSP 101400Z 33009KT CAVOK 24/16 Q1019=
2020061015 - SABZ18 SBSP 101500
2020061015 - METAR SBSP 101500Z 35009KT CAVOK 25/16 Q1018=
2020061016 - SABZ18 SBSP 101600
2020061016 - METAR SBSP 101600Z 33010KT CAVOK 26/16 Q1018=
2020061017 - SABZ18 SBSP 101700
2020061017 - METAR SBSP 101700Z 31012KT CAVOK 26/15 Q1017=
2020061018 - SABZ18 SBSP 101800
2020061018 - METAR SBSP 101800Z 31008KT CAVOK 26/15 Q1017=
2020061019 - SABZ18 SBSP 101900
2020061019 - METAR SBSP 101900Z 32010KT CAVOK 26/15 Q1017=
2020061020 - SABZ18 SBSP 102000
2020061020 - METAR SBSP 102000Z 32006KT CAVOK 25/16 Q1018=
2020061021 - SABZ18 SBSP 102100
2020061021 - METAR SBSP 102100Z 34005KT CAVOK 24/16 Q1018=
2020061022 - SABZ18 SBSP 102200
2020061022 - METAR SBSP 102200Z 32003KT CAVOK 23/16 Q1018=
2020061023 - SABZ18 SBSP 102300
2020061023 - METAR SBSP 102300Z 05002KT CAVOK 23/16 Q1018=
2020061100 - SABZ18 SBSP 110000
2020061100 - METAR SBSP 110000Z 03004KT CAVOK 23/16 Q1019=
2020061101 - SABZ18 SBSP 110100
2020061101 - METAR SBSP 110100Z 01003KT CAVOK 22/16 Q1019=
2020061102 - SABZ18 SBSP 110200
2020061102 - METAR SBSP 110200Z 35005KT CAVOK 22/16 Q1019=
2020061102 - SPECI SBSP 110202Z 34005KT CAVOK 22/16 Q1019=
2020061103 - SABZ21 SBSP 110300
2020061103 - METAR SBSP 110300Z AUTO 34005KT CAVOK 21/16 Q1018=
2020061104 - SABZ21 SBSP 110400
2020061104 - METAR SBSP 110400Z AUTO 33006KT CAVOK 21/16 Q1018=
2020061105 - SABZ21 SBSP 110500
2020061105 - METAR SBSP 110500Z AUTO 35008KT CAVOK 21/15 Q1018=
2020061106 - SABZ21 SBSP 110600
2020061106 - METAR SBSP 110600Z AUTO 34009KT CAVOK 21/15 Q1017=
2020061107 - SABZ21 SBSP 110700
2020061107 - METAR SBSP 110700Z AUTO 34012KT CAVOK 21/15 Q1017=
2020061108 - SABZ21 SBSP 110800
2020061108 - METAR SBSP 110800Z AUTO 34009KT CAVOK 21/14 Q1017=
2020061109 - SABZ18 SBSP 110900
2020061109 - METAR SBSP 110900Z 33007KT CAVOK 20/14 Q1019=
2020061110 - SABZ18 SBSP 111000
2020061110 - METAR SBSP 111000Z 35008KT CAVOK 20/14 Q1019=
2020061111 - SABZ18 SBSP 111100
2020061111 - METAR SBSP 111100Z 35008KT CAVOK 21/14 Q1020=
2020061112 - SABZ18 SBSP 111200
2020061112 - METAR SBSP 111200Z 34010KT CAVOK 23/14 Q1021=
2020061113 - SABZ18 SBSP 111300
2020061113 - METAR SBSP 111300Z 34014KT CAVOK 23/14 Q1021=
2020061114 - Mensagem METAR de 'SBSP' para 11/06/2020 as 14(UTC) não localizada na base de dados da REDEMET
2020061115 - Mensagem METAR de 'SBSP' para 11/06/2020 as 15(UTC) não localizada na base de dados da REDEMET
2020061116 - Mensagem METAR de 'SBSP' para 11/06/2020 as 16(UTC) não localizada na base de dados da REDEMET
2020061117 - Mensagem METAR de 'SBSP' para 11/06/2020 as 17(UTC) não localizada na base de dados da REDEMET
2020061118 - Mensagem METAR de 'SBSP' para 11/06/2020 as 18(UTC) não localizada na base de dados da REDEMET
2020061119 - Mensagem METAR de 'SBSP' para 11/06/2020 as 19(UTC) não localizada na base de dados da REDEMET
2020061120 - Mensagem METAR de 'SBSP' para 11/06/2020 as 20(UTC) não localizada na base de dados da REDEMET
2020061121 - Mensagem METAR de 'SBSP' para 11/06/2020 as 21(UTC) não localizada na base de dados da REDEMET
2020061122 - Mensagem METAR de 'SBSP' para 11/06/2020 as 22(UTC) não localizada na base de dados da REDEMET
2020061123 - Mensagem METAR de 'SBSP' para 11/06/2020 as 23(UTC) não localizada na base de dados da REDEMET
2020061200 - Mensagem METAR de 'SBSP' para 12/06/2020 as 00(UTC) não localizada na base de dados da REDEMET
2020061201 - Mensagem METAR de 'SBSP' para 12/06/2020 as 01(UTC) não localizada na base de dados da REDEMET
2020061202 - Mensagem METAR de 'SBSP' para 12/06/2020 as 02(UTC) não localizada na base de dados da REDEMET
2020061203 - Mensagem METAR de 'SBSP' para 12/06/2020 as 03(UTC) não localizada na base de dados da REDEMET
2020061204 - Mensagem METAR de 'SBSP' para 12/06/2020 as 04(UTC) não localizada na base de dados da REDEMET
2020061205 - Mensagem METAR de 'SBSP' para 12/06/2020 as 05(UTC) não localizada na base de dados da REDEMET
2020061206 - Mensagem METAR de 'SBSP' para 12/06/2020 as 06(UTC) não localizada na base de dados da REDEMET
2020061207 - Mensagem METAR de 'SBSP' para 12/06/2020 as 07(UTC) não localizada na base de dados da REDEMET
2020061208 - Mensagem METAR de 'SBSP' para 12/06/2020 as 08(UTC) não localizada na base de dados da REDEMET
2020061209 - Mensagem METAR de 'SBSP' para 12/06/2020 as 09(UTC) não localizada na base de dados da REDEMET
2020061210 - Mensagem METAR de 'SBSP' para 12/06/2020 as 10(UTC) não localizada na base de dados da REDEMET
2020061211 - Mensagem METAR de 'SBSP' para 12/06/2020 as 11(UTC) não localizada na base de dados da REDEMET
2020061212 - Mensagem METAR de 'SBSP' para 12/06/2020 as 12(UTC) não localizada na base de dados da REDEMET
2020061213 - Mensagem METAR de 'SBSP' para 12/06/2020 as 13(UTC) não localizada na base de dados da REDEMET
2020061214 - Mensagem METAR de 'SBSP' para 12/06/2020 as 14(UTC) não localizada na base de dados da REDEMET
2020061215 - Mensagem METAR de 'SBSP' para 12/06/2020 as 15(UTC) não localizada na base de dados da REDEMET
2020061216 - Mensagem METAR de 'SBSP' para 12/06/2020 as 16(UTC) não localizada na base de dados da REDEMET
2020061217 - Mensagem METAR de 'SBSP' para 12/06/2020 as 17(UTC) não localizada na base de dados da REDEMET
2020061218 - Mensagem METAR de 'SBSP' para 12/06/2020 as 18(UTC) não localizada na base de dados da REDEMET
2020061219 - Mensagem METAR de 'SBSP' para 12/06/2020 as 19(UTC) não localizada na base de dados da REDEMET
2020061220 - Mensagem METAR de 'SBSP' para 12/06/2020 as 20(UTC) não localizada na base de dados da REDEMET
2020061221 - Mensagem METAR de 'SBSP' para 12/06/2020 as 21(UTC) não localizada na base de dados da REDEMET
2020061222 - Mensagem METAR de 'SBSP' para 12/06/2020 as 22(UTC) não localizada na base de dados da REDEMET
2020061223 - Mensagem METAR de 'SBSP' para 12/06/2020 as 23(UTC) não localizada na base de dados da REDEMET
2020061300 - Mensagem METAR de 'SBSP' para 13/06/2020 as 00(UTC) não localizada na base de dados da REDEMET
2020061301 - Mensagem METAR de 'SBSP' para 13/06/2020 as 01(UTC) não localizada na base de dados da REDEMET
2020061302 - Mensagem METAR de 'SBSP' para 13/06/2020 as 02(UTC) não localizada na base de dados da REDEMET
2020061303 - Mensagem METAR de 'SBSP' para 13/06/2020 as 03(UTC) não localizada na base de dados da REDEMET
2020061304 - Mensagem METAR de 'SBSP' para 13/06/2020 as 04(UTC) não localizada na base de dados da REDEMET
2020061305 - Mensagem METAR de 'SBSP' para 13/06/2020 as 05(UTC) não localizada na base de dados da REDEMET
2020061306 - Mensagem METAR de 'SBSP' para 13/06/2020 as 06(UTC) não localizada na base de dados da REDEMET
2020061307 - Mensagem METAR de 'SBSP' para 13/06/2020 as 07(UTC) não localizada na base de dados da REDEMET
2020061308 - Mensagem METAR de 'SBSP' para 13/06/2020 as 08(UTC) não localizada na base de dados da REDEMET
2020061309 - Mensagem METAR de 'SBSP' para 13/06/2020 as 09(UTC) não localizada na base de dados da REDEMET
2020061310 - Mensagem METAR de 'SBSP' para 13/06/2020 as 10(UTC) não localizada na base de dados da REDEMET
2020061311 - Mensagem METAR de 'SBSP' para 13/06/2020 as 11(UTC) não localizada na base de dados da REDEMET
2020061312 - Mensagem METAR de 'SBSP' para 13/06/2020 as 12(UTC) não localizada na base de dados da REDEMET
2020061313 - Mensagem METAR de 'SBSP' para 13/06/2020 as 13(UTC) não localizada na base de dados da REDEMET
2020061314 - Mensagem METAR de 'SBSP' para 13/06/2020 as 14(UTC) não localizada na base de dados da REDEMET
2020061315 - Mensagem METAR de 'SBSP' para 13/06/2020 as 15(UTC) não localizada na base de dados da REDEMET
2020061316 - Mensagem METAR de 'SBSP' para 13/06/2020 as 16(UTC) não localizada na base de dados da REDEMET
2020061317 - Mensagem METAR de 'SBSP' para 13/06/2020 as 17(UTC) não localizada na base de dados da REDEMET
2020061318 - Mensagem METAR de 'SBSP' para 13/06/2020 as 18(UTC) não localizada na base de dados da REDEMET
2020061319 - Mensagem METAR de 'SBSP' para 13/06/2020 as 19(UTC) não localizada na base de dados da REDEMET
2020061320 - Mensagem METAR de 'SBSP' para 13/06/2020 as 20(UTC) não localizada na base de dados da REDEMET
2020061321 - Mensagem METAR de 'SBSP' para 13/06/2020 as 21(UTC) não localizada na base de dados da REDEMET
2020061322 - Mensagem METAR de 'SBSP' para 13/06/2020 as 22(UTC) não localizada na base de dados da REDEMET
2020061323 - Mensagem METAR de 'SBSP' para 13/06/2020 as 23(UTC) não localizada na base de dados da REDEMET
2020061400 - Mensagem METAR de 'SBSP' para 14/06/2020 as 00(UTC) não localizada na base de dados da REDEMET
2020061401 - Mensagem METAR de 'SBSP' para 14/06/2020 as 01(UTC) não localizada na base de dados da REDEMET
2020061402 - Mensagem METAR de 'SBSP' para 14/06/2020 as 02(UTC) não localizada na base de dados da REDEMET
2020061403 - Mensagem METAR de 'SBSP' para 14/06/2020 as 03(UTC) não localizada na base de dados da REDEMET
2020061404 - Mensagem METAR de 'SBSP' para 14/06/2020 as 04(UTC) não localizada na base de dados da REDEMET
2020061405 - Mensagem METAR de 'SBSP' para 14/06/2020 as 05(UTC) não localizada na base de dados da REDEMET
2020061406 - Mensagem METAR de 'SBSP' para 14/06/2020 as 06(UTC) não localizada na base de dados da REDEMET
2020061407 - Mensagem METAR de 'SBSP' para 14/06/2020 as 07(UTC) não localizada na base de dados da REDEMET
2020061408 - Mensagem METAR de 'SBSP' para 14/06/2020 as 08(UTC) não localizada na base de dados da REDEMET
2020061409 - Mensagem METAR de 'SBSP' para 14/06/2020 as 09(UTC) não localizada na base de dados da REDEMET
2020061410 - Mensagem METAR de 'SBSP' para 14/06/2020 as 10(UTC) não localizada na base de dados da REDEMET
2020061411 - Mensagem METAR de 'SBSP' para 14/06/2020 as 11(UTC) não localizada na base de dados da REDEMET
2020061412 - Mensagem METAR de 'SBSP' para 14/06/2020 as 12(UTC) não localizada na base de dados da REDEMET
2020061413 - Mensagem METAR de 'SBSP' para 14/06/2020 as 13(UTC) não localizada na base de dados da REDEMET
2020061414 - Mensagem METAR de 'SBSP' para 14/06/2020 as 14(UTC) não localizada na base de dados da REDEMET
2020061415 - Mensagem METAR de 'SBSP' para 14/06/2020 as 15(UTC) não localizada na base de dados da REDEMET
2020061416 - Mensagem METAR de 'SBSP' para 14/06/2020 as 16(UTC) não localizada na base de dados da REDEMET
2020061417 - Mensagem METAR de 'SBSP' para 14/06/2020 as 17(UTC) não localizada na base de dados da REDEMET
2020061418 - Mensagem METAR de 'SBSP' para 14/06/2020 as 18(UTC) não localizada na base de dados da REDEMET
2020061419 - Mensagem METAR de 'SBSP' para 14/06/2020 as 19(UTC) não localizada na base de dados da REDEMET
2020061420 - Mensagem METAR de 'SBSP' para 14/06/2020 as 20(UTC) não localizada na base de dados da REDEMET
2020061421 - Mensagem METAR de 'SBSP' para 14/06/2020 as 21(UTC) não localizada na base de dados da REDEMET
2020061422 - Mensagem METAR de 'SBSP' para 14/06/2020 as 22(UTC) não localizada na base de dados da REDEMET
2020061423 - Mensagem METAR de 'SBSP' para 14/06/2020 as 23(UTC) não localizada na base de dados da REDEMET
2020061500 - Mensagem METAR de 'SBSP' para 15/06/2020 as 00(UTC) não localizada na base de dados da REDEMET
2020061501 - Mensagem METAR de 'SBSP' para 15/06/2020 as 01(UTC) não localizada na base de dados da REDEMET
2020061502 - Mensagem METAR de 'SBSP' para 15/06/2020 as 02(UTC) não localizada na base de dados da REDEMET
2020061503 - Mensagem METAR de 'SBSP' para 15/06/2020 as 03(UTC) não localizada na base de dados da REDEMET
2020061504 - Mensagem METAR de 'SBSP' para 15/06/2020 as 04(UTC) não localizada na base de dados da REDEMET
2020061505 - Mensagem METAR de 'SBSP' para 15/06/2020 as 05(UTC) não localizada na base de dados da REDEMET
2020061506 - Mensagem METAR de 'SBSP' para 15/06/2020 as 06(UTC) não localizada na base de dados da REDEMET
2020061507 - Mensagem METAR de 'SBSP' para 15/06/2020 as 07(UTC) não localizada na base de dados da REDEMET
2020061508 - Mensagem METAR de 'SBSP' para 15/06/2020 as 08(UTC) não localizada na base de dados da REDEMET
2020061509 - Mensagem METAR de 'SBSP' para 15/06/2020 as 09(UTC) não localizada na base de dados da REDEMET
2020061510 - Mensagem METAR de 'SBSP' para 15/06/2020 as 10(UTC) não localizada na base de dados da REDEMET
2020061511 - Mensagem METAR de 'SBSP' para 15/06/2020 as 11(UTC) não localizada na base de dados da REDEMET
2020061512 - Mensagem METAR de 'SBSP' para 15/06/2020 as 12(UTC) não localizada na base de dados da REDEMET
2020061513 - Mensagem METAR de 'SBSP' para 15/06/2020 as 13(UTC) não localizada na base de dados da REDEMET
2020061514 - Mensagem METAR de 'SBSP' para 15/06/2020 as 14(UTC) não localizada na base de dados da REDEMET
2020061515 - Mensagem METAR de 'SBSP' para 15/06/2020 as 15(UTC) não localizada na base de dados da REDEMET
2020061516 - Mensagem METAR de 'SBSP' para 15/06/2020 as 16(UTC) não localizada na base de dados da REDEMET
2020061517 - Mensagem METAR de 'SBSP' para 15/06/2020 as 17(UTC) não localizada na base de dados da REDEMET
2020061518 - Mensagem METAR de 'SBSP' para 15/06/2020 as 18(UTC) não localizada na base de dados da REDEMET
2020061519 - Mensagem METAR de 'SBSP' para 15/06/2020 as 19(UTC) não localizada na base de dados da REDEMET
2020061520 - Mensagem METAR de 'SBSP' para 15/06/2020 as 20(UTC) não localizada na base de dados da REDEMET
2020061521 - Mensagem METAR de 'SBSP' para 15/06/2020 as 21(UTC) não localizada na base de dados da REDEMET
2020061522 - Mensagem METAR de 'SBSP' para 15/06/2020 as 22(UTC) não localizada na base de dados da REDEMET
2020061523 - Mensagem METAR de 'SBSP' para 15/06/2020 as 23(UTC) não localizada na base de dados da REDEMET
2020061600 - Mensagem METAR de 'SBSP' para 16/06/2020 as 00(UTC) não localizada na base de dados da REDEMET
2020061601 - Mensagem METAR de 'SBSP' para 16/06/2020 as 01(UTC) não localizada na base de dados da REDEMET
2020061602 - Mensagem METAR de 'SBSP' para 16/06/2020 as 02(UTC) não localizada na base de dados da REDEMET
2020061603 - Mensagem METAR de 'SBSP' para 16/06/2020 as 03(UTC) não localizada na base de dados da REDEMET
2020061604 - Mensagem METAR de 'SBSP' para 16/06/2020 as 04(UTC) não localizada na base de dados da REDEMET
2020061605 - Mensagem METAR de 'SBSP' para 16/06/2020 as 05(UTC) não localizada na base de dados da REDEMET
2020061606 - Mensagem METAR de 'SBSP' para 16/06/2020 as 06(UTC) não localizada na base de dados da REDEMET
2020061607 - Mensagem METAR de 'SBSP' para 16/06/2020 as 07(UTC) não localizada na base de dados da REDEMET
2020061608 - Mensagem METAR de 'SBSP' para 16/06/2020 as 08(UTC) não localizada na base de dados da REDEMET
2020061609 - Mensagem METAR de 'SBSP' para 16/06/2020 as 09(UTC) não localizada na base de dados da REDEMET
2020061610 - Mensagem METAR de 'SBSP' para 16/06/2020 as 10(UTC) não localizada na base de dados da REDEMET
2020061611 - Mensagem METAR de 'SBSP' para 16/06/2020 as 11(UTC) não localizada na base de dados da REDEMET
2020061612 - Mensagem METAR de 'SBSP' para 16/06/2020 as 12(UTC) não localizada na base de dados da REDEMET
2020061613 - Mensagem METAR de 'SBSP' para 16/06/2020 as 13(UTC) não localizada na base de dados da REDEMET
2020061614 - Mensagem METAR de 'SBSP' para 16/06/2020 as 14(UTC) não localizada na base de dados da REDEMET
2020061615 - Mensagem METAR de 'SBSP' para 16/06/2020 as 15(UTC) não localizada na base de dados da REDEMET
2020061616 - Mensagem METAR de 'SBSP' para 16/06/2020 as 16(UTC) não localizada na base de dados da REDEMET
2020061617 - Mensagem METAR de 'SBSP' para 16/06/2020 as 17(UTC) não localizada na base de dados da REDEMET
2020061618 - Mensagem METAR de 'SBSP' para 16/06/2020 as 18(UTC) não localizada na base de dados da REDEMET
2020061619 - Mensagem METAR de 'SBSP' para 16/06/2020 as 19(UTC) não localizada na base de dados da REDEMET
2020061620 - Mensagem METAR de 'SBSP' para 16/06/2020 as 20(UTC) não localizada na base de dados da REDEMET
2020061621 - Mensagem METAR de 'SBSP' para 16/06/2020 as 21(UTC) não localizada na base de dados da REDEMET
2020061622 - Mensagem METAR de 'SBSP' para 16/06/2020 as 22(UTC) não localizada na base de dados da REDEMET
2020061623 - Mensagem METAR de 'SBSP' para 16/06/2020 as 23(UTC) não localizada na base de dados da REDEMET
2020061700 - Mensagem METAR de 'SBSP' para 17/06/2020 as 00(UTC) não localizada na base de dados da REDEMET
2020061701 - Mensagem METAR de 'SBSP' para 17/06/2020 as 01(UTC) não localizada na base de dados da REDEMET
2020061702 - Mensagem METAR de 'SBSP' para 17/06/2020 as 02(UTC) não localizada na base de dados da REDEMET
2020061703 - Mensagem METAR de 'SBSP' para 17/06/2020 as 03(UTC) não localizada na base de dados da REDEMET
2020061704 - Mensagem METAR de 'SBSP' para 17/06/2020 as 04(UTC) não localizada na base de dados da REDEMET
2020061705 - Mensagem METAR de 'SBSP' para 17/06/2020 as 05(UTC) não localizada na base de dados da REDEMET
2020061706 - Mensagem METAR de 'SBSP' para 17/06/2020 as 06(UTC) não localizada na base de dados da REDEMET
2020061707 - Mensagem METAR de 'SBSP' para 17/06/2020 as 07(UTC) não localizada na base de dados da REDEMET
2020061708 - Mensagem METAR de 'SBSP' para 17/06/2020 as 08(UTC) não localizada na base de dados da REDEMET
2020061709 - Mensagem METAR de 'SBSP' para 17/06/2020 as 09(UTC) não localizada na base de dados da REDEMET
2020061710 - Mensagem METAR de 'SBSP' para 17/06/2020 as 10(UTC) não localizada na base de dados da REDEMET
2020061711 - Mensagem METAR de 'SBSP' para 17/06/2020 as 11(UTC) não localizada na base de dados da REDEMET
2020061712 - Mensagem METAR de 'SBSP' para 17/06/2020 as 12(UTC) não localizada na base de dados da REDEMET
2020061713 - Mensagem METAR de 'SBSP' para 17/06/2020 as 13(UTC) não localizada na base de dados da REDEMET
2020061714 - Mensagem METAR de 'SBSP' para 17/06/2020 as 14(UTC) não localizada na base de dados da REDEMET
2020061715 - Mensagem METAR de 'SBSP' para 17/06/2020 as 15(UTC) não localizada na base de dados da REDEMET
2020061716 - Mensagem METAR de 'SBSP' para 17/06/2020 as 16(UTC) não localizada na base de dados da REDEMET
2020061717 - Mensagem METAR de 'SBSP' para 17/06/2020 as 17(UTC) não localizada na base de dados da REDEMET
2020061718 - Mensagem METAR de 'SBSP' para 17/06/2020 as 18(UTC) não localizada na base de dados da REDEMET
2020061719 - Mensagem METAR de 'SBSP' para 17/06/2020 as 19(UTC) não localizada na base de dados da REDEMET
2020061720 - Mensagem METAR de 'SBSP' para 17/06/2020 as 20(UTC) não localizada na base de dados da REDEMET
2020061721 - Mensagem METAR de 'SBSP' para 17/06/2020 as 21(UTC) não localizada na base de dados da REDEMET
2020061722 - Mensagem METAR de 'SBSP' para 17/06/2020 as 22(UTC) não localizada na base de dados da REDEMET
2020061723 - Mensagem METAR de 'SBSP' para 17/06/2020 as 23(UTC) não localizada na base de dados da REDEMET
2020061800 - Mensagem METAR de 'SBSP' para 18/06/2020 as 00(UTC) não localizada na base de dados da REDEMET
2020061801 - Mensagem METAR de 'SBSP' para 18/06/2020 as 01(UTC) não localizada na base de dados da REDEMET
2020061802 - Mensagem METAR de 'SBSP' para 18/06/2020 as 02(UTC) não localizada na base de dados da REDEMET
2020061803 - Mensagem METAR de 'SBSP' para 18/06/2020 as 03(UTC) não localizada na base de dados da REDEMET
2020061804 - Mensagem METAR de 'SBSP' para 18/06/2020 as 04(UTC) não localizada na base de dados da REDEMET
2020061805 - Mensagem METAR de 'SBSP' para 18/06/2020 as 05(UTC) não localizada na base de dados da REDEMET
2020061806 - Mensagem METAR de 'SBSP' para 18/06/2020 as 06(UTC) não localizada na base de dados da REDEMET
2020061807 - Mensagem METAR de 'SBSP' para 18/06/2020 as 07(UTC) não localizada na base de dados da REDEMET
2020061808 - Mensagem METAR de 'SBSP' para 18/06/2020 as 08(UTC) não localizada na base de dados da REDEMET
2020061809 - Mensagem METAR de 'SBSP' para 18/06/2020 as 09(UTC) não localizada na base de dados da REDEMET
2020061810 - Mensagem METAR de 'SBSP' para 18/06/2020 as 10(UTC) não localizada na base de dados da REDEMET
2020061811 - Mensagem METAR de 'SBSP' para 18/06/2020 as 11(UTC) não localizada na base de dados da REDEMET
2020061812 - Mensagem METAR de 'SBSP' para 18/06/2020 as 12(UTC) não localizada na base de dados da REDEMET
2020061813 - Mensagem METAR de 'SBSP' para 18/06/2020 as 13(UTC) não localizada na base de dados da REDEMET
2020061814 - Mensagem METAR de 'SBSP' para 18/06/2020 as 14(UTC) não localizada na base de dados da REDEMET
2020061815 - Mensagem METAR de 'SBSP' para 18/06/2020 as 15(UTC) não localizada na base de dados da REDEMET
2020061816 - Mensagem METAR de 'SBSP' para 18/06/2020 as 16(UTC) não localizada na base de dados da REDEMET
2020061817 - Mensagem METAR de 'SBSP' para 18/06/2020 as 17(UTC) não localizada na base de dados da REDEMET
2020061818 - Mensagem METAR de 'SBSP' para 18/06/2020 as 18(UTC) não localizada na base de dados da REDEMET
2020061819 - Mensagem METAR de 'SBSP' para 18/06/2020 as 19(UTC) não localizada na base de dados da REDEMET
2020061820 - Mensagem METAR de 'SBSP' para 18/06/2020 as 20(UTC) não localizada na base de dados da REDEMET
2020061821 - Mensagem METAR de 'SBSP' para 18/06/2020 as 21(UTC) não localizada na base de dados da REDEMET
2020061822 - Mensagem METAR de 'SBSP' para 18/06/2020 as 22(UTC) não localizada na base de dados da REDEMET
2020061823 - Mensagem METAR de 'SBSP' para 18/06/2020 as 23(UTC) não localizada na base de dados da REDEMET
2020061900 - Mensagem METAR de 'SBSP' para 19/06/2020 as 00(UTC) não localizada na base de dados da REDEMET
2020061901 - Mensagem METAR de 'SBSP' para 19/06/2020 as 01(UTC) não localizada na base de dados da REDEMET
2020061902 - Mensagem METAR de 'SBSP' para 19/06/2020 as 02(UTC) não localizada na base de dados da REDEMET
2020061903 - Mensagem METAR de 'SBSP' para 19/06/2020 as 03(UTC) não localizada na base de dados da REDEMET
2020061904 - Mensagem METAR de 'SBSP' para 19/06/2020 as 04(UTC) não localizada na base de dados da REDEMET
2020061905 - Mensagem METAR de 'SBSP' para 19/06/2020 as 05(UTC) não localizada na base de dados da REDEMET
2020061906 - Mensagem METAR de 'SBSP' para 19/06/2020 as 06(UTC) não localizada na base de dados da REDEMET
2020061907 - Mensagem METAR de 'SBSP' para 19/06/2020 as 07(UTC) não localizada na base de dados da REDEMET
2020061908 - Mensagem METAR de 'SBSP' para 19/06/2020 as 08(UTC) não localizada na base de dados da REDEMET
2020061909 - Mensagem METAR de 'SBSP' para 19/06/2020 as 09(UTC) não localizada na base de dados da REDEMET
2020061910 - Mensagem METAR de 'SBSP' para 19/06/2020 as 10(UTC) não localizada na base de dados da REDEMET
2020061911 - Mensagem METAR de 'SBSP' para 19/06/2020 as 11(UTC) não localizada na base de dados da REDEMET
2020061912 - Mensagem METAR de 'SBSP' para 19/06/2020 as 12(UTC) não localizada na base de dados da REDEMET
2020061913 - Mensagem METAR de 'SBSP' para 19/06/2020 as 13(UTC) não localizada na base de dados da REDEMET
2020061914 - Mensagem METAR de 'SBSP' para 19/06/2020 as 14(UTC) não localizada na base de dados da REDEMET
2020061915 - Mensagem METAR de 'SBSP' para 19/06/2020 as 15(UTC) não localizada na base de dados da REDEMET
2020061916 - Mensagem METAR de 'SBSP' para 19/06/2020 as 16(UTC) não localizada na base de dados da REDEMET
2020061917 - Mensagem METAR de 'SBSP' para 19/06/2020 as 17(UTC) não localizada na base de dados da REDEMET
2020061918 - Mensagem METAR de 'SBSP' para 19/06/2020 as 18(UTC) não localizada na base de dados da REDEMET
2020061919 - Mensagem METAR de 'SBSP' para 19/06/2020 as 19(UTC) não localizada na base de dados da REDEMET
2020061920 - Mensagem METAR de 'SBSP' para 19/06/2020 as 20(UTC) não localizada na base de dados da REDEMET
2020061921 - Mensagem METAR de 'SBSP' para 19/06/2020 as 21(UTC) não localizada na base de dados da REDEMET
2020061922 - Mensagem METAR de 'SBSP' para 19/06/2020 as 22(UTC) não localizada na base de dados da REDEMET
2020061923 - Mensagem METAR de 'SBSP' para 19/06/2020 as 23(UTC) não localizada na base de dados da REDEMET
2020062000 - Mensagem METAR de 'SBSP' para 20/06/2020 as 00(UTC) não localizada na base de dados da REDEMET
2020062001 - Mensagem METAR de 'SBSP' para 20/06/2020 as 01(UTC) não localizada na base de dados da REDEMET
2020062002 - Mensagem METAR de 'SBSP' para 20/06/2020 as 02(UTC) não localizada na base de dados da REDEMET
2020062003 - Mensagem METAR de 'SBSP' para 20/06/2020 as 03(UTC) não localizada na base de dados da REDEMET
2020062004 - Mensagem METAR de 'SBSP' para 20/06/2020 as 04(UTC) não localizada na base de dados da REDEMET
2020062005 - Mensagem METAR de 'SBSP' para 20/06/2020 as 05(UTC) não localizada na base de dados da REDEMET
2020062006 - Mensagem METAR de 'SBSP' para 20/06/2020 as 06(UTC) não localizada na base de dados da REDEMET
2020062007 - Mensagem METAR de 'SBSP' para 20/06/2020 as 07(UTC) não localizada na base de dados da REDEMET
2020062008 - Mensagem METAR de 'SBSP' para 20/06/2020 as 08(UTC) não localizada na base de dados da REDEMET
2020062009 - Mensagem METAR de 'SBSP' para 20/06/2020 as 09(UTC) não localizada na base de dados da REDEMET
2020062010 - Mensagem METAR de 'SBSP' para 20/06/2020 as 10(UTC) não localizada na base de dados da REDEMET
2020062011 - Mensagem METAR de 'SBSP' para 20/06/2020 as 11(UTC) não localizada na base de dados da REDEMET
2020062012 - Mensagem METAR de 'SBSP' para 20/06/2020 as 12(UTC) não localizada na base de dados da REDEMET
2020062013 - Mensagem METAR de 'SBSP' para 20/06/2020 as 13(UTC) não localizada na base de dados da REDEMET
2020062014 - Mensagem METAR de 'SBSP' para 20/06/2020 as 14(UTC) não localizada na base de dados da REDEMET
2020062015 - Mensagem METAR de 'SBSP' para 20/06/2020 as 15(UTC) não localizada na base de dados da REDEMET
2020062016 - Mensagem METAR de 'SBSP' para 20/06/2020 as 16(UTC) não localizada na base de dados da REDEMET
2020062017 - Mensagem METAR de 'SBSP' para 20/06/2020 as 17(UTC) não localizada na base de dados da REDEMET
2020062018 - Mensagem METAR de 'SBSP' para 20/06/2020 as 18(UTC) não localizada na base de dados da REDEMET
2020062019 - Mensagem METAR de 'SBSP' para 20/06/2020 as 19(UTC) não localizada na base de dados da REDEMET
2020062020 - Mensagem METAR de 'SBSP' para 20/06/2020 as 20(UTC) não localizada na base de dados da REDEMET
2020062021 - Mensagem METAR de 'SBSP' para 20/06/2020 as 21(UTC) não localizada na base de dados da REDEMET
2020062022 - Mensagem METAR de 'SBSP' para 20/06/2020 as 22(UTC) não localizada na base de dados da REDEMET
2020062023 - Mensagem METAR de 'SBSP' para 20/06/2020 as 23(UTC) não localizada na base de dados da REDEMET
2020062100 - Mensagem METAR de 'SBSP' para 21/06/2020 as 00(UTC) não localizada na base de dados da REDEMET
2020062101 - Mensagem METAR de 'SBSP' para 21/06/2020 as 01(UTC) não localizada na base de dados da REDEMET
2020062102 - Mensagem METAR de 'SBSP' para 21/06/2020 as 02(UTC) não localizada na base de dados da REDEMET
2020062103 - Mensagem METAR de 'SBSP' para 21/06/2020 as 03(UTC) não localizada na base de dados da REDEMET
2020062104 - Mensagem METAR de 'SBSP' para 21/06/2020 as 04(UTC) não localizada na base de dados da REDEMET
2020062105 - Mensagem METAR de 'SBSP' para 21/06/2020 as 05(UTC) não localizada na base de dados da REDEMET
2020062106 - Mensagem METAR de 'SBSP' para 21/06/2020 as 06(UTC) não localizada na base de dados da REDEMET
2020062107 - Mensagem METAR de 'SBSP' para 21/06/2020 as 07(UTC) não localizada na base de dados da REDEMET
2020062108 - Mensagem METAR de 'SBSP' para 21/06/2020 as 08(UTC) não localizada na base de dados da REDEMET
2020062109 - Mensagem METAR de 'SBSP' para 21/06/2020 as 09(UTC) não localizada na base de dados da REDEMET
2020062110 - Mensagem METAR de 'SBSP' para 21/06/2020 as 10(UTC) não localizada na base de dados da REDEMET
2020062111 - Mensagem METAR de 'SBSP' para 21/06/2020 as 11(UTC) não localizada na base de dados da REDEMET
2020062112 - Mensagem METAR de 'SBSP' para 21/06/2020 as 12(UTC) não localizada na base de dados da REDEMET
2020062113 - Mensagem METAR de 'SBSP' para 21/06/2020 as 13(UTC) não localizada na base de dados da REDEMET
2020062114 - Mensagem METAR de 'SBSP' para 21/06/2020 as 14(UTC) não localizada na base de dados da REDEMET
2020062115 - Mensagem METAR de 'SBSP' para 21/06/2020 as 15(UTC) não localizada na base de dados da REDEMET
2020062116 - Mensagem METAR de 'SBSP' para 21/06/2020 as 16(UTC) não localizada na base de dados da REDEMET
2020062117 - Mensagem METAR de 'SBSP' para 21/06/2020 as 17(UTC) não localizada na base de dados da REDEMET
2020062118 - Mensagem METAR de 'SBSP' para 21/06/2020 as 18(UTC) não localizada na base de dados da REDEMET
2020062119 - Mensagem METAR de 'SBSP' para 21/06/2020 as 19(UTC) não localizada na base de dados da REDEMET
2020062120 - Mensagem METAR de 'SBSP' para 21/06/2020 as 20(UTC) não localizada na base de dados da REDEMET
2020062121 - Mensagem METAR de 'SBSP' para 21/06/2020 as 21(UTC) não localizada na base de dados da REDEMET
2020062122 - Mensagem METAR de 'SBSP' para 21/06/2020 as 22(UTC) não localizada na base de dados da REDEMET
2020062123 - Mensagem METAR de 'SBSP' para 21/06/2020 as 23(UTC) não localizada na base de dados da REDEMET
2020062200 - Mensagem METAR de 'SBSP' para 22/06/2020 as 00(UTC) não localizada na base de dados da REDEMET
2020062201 - Mensagem METAR de 'SBSP' para 22/06/2020 as 01(UTC) não localizada na base de dados da REDEMET
2020062202 - Mensagem METAR de 'SBSP' para 22/06/2020 as 02(UTC) não localizada na base de dados da REDEMET
2020062203 - Mensagem METAR de 'SBSP' para 22/06/2020 as 03(UTC) não localizada na base de dados da REDEMET
2020062204 - Mensagem METAR de 'SBSP' para 22/06/2020 as 04(UTC) não localizada na base de dados da REDEMET
2020062205 - Mensagem METAR de 'SBSP' para 22/06/2020 as 05(UTC) não localizada na base de dados da REDEMET
2020062206 - Mensagem METAR de 'SBSP' para 22/06/2020 as 06(UTC) não localizada na base de dados da REDEMET
2020062207 - Mensagem METAR de 'SBSP' para 22/06/2020 as 07(UTC) não localizada na base de dados da REDEMET
2020062208 - Mensagem METAR de 'SBSP' para 22/06/2020 as 08(UTC) não localizada na base de dados da REDEMET
2020062209 - Mensagem METAR de 'SBSP' para 22/06/2020 as 09(UTC) não localizada na base de dados da REDEMET
2020062210 - Mensagem METAR de 'SBSP' para 22/06/2020 as 10(UTC) não localizada na base de dados da REDEMET
2020062211 - Mensagem METAR de 'SBSP' para 22/06/2020 as 11(UTC) não localizada na base de dados da REDEMET
2020062212 - Mensagem METAR de 'SBSP' para 22/06/2020 as 12(UTC) não localizada na base de dados da REDEMET
2020062213 - Mensagem METAR de 'SBSP' para 22/06/2020 as 13(UTC) não localizada na base de dados da REDEMET
2020062214 - Mensagem METAR de 'SBSP' para 22/06/2020 as 14(UTC) não localizada na base de dados da REDEMET
2020062215 - Mensagem METAR de 'SBSP' para 22/06/2020 as 15(UTC) não localizada na base de dados da REDEMET
2020062216 - Mensagem METAR de 'SBSP' para 22/06/2020 as 16(UTC) não localizada na base de dados da REDEMET
2020062217 - Mensagem METAR de 'SBSP' para 22/06/2020 as 17(UTC) não localizada na base de dados da REDEMET
2020062218 - Mensagem METAR de 'SBSP' para 22/06/2020 as 18(UTC) não localizada na base de dados da REDEMET
2020062219 - Mensagem METAR de 'SBSP' para 22/06/2020 as 19(UTC) não localizada na base de dados da REDEMET
2020062220 - Mensagem METAR de 'SBSP' para 22/06/2020 as 20(UTC) não localizada na base de dados da REDEMET
2020062221 - Mensagem METAR de 'SBSP' para 22/06/2020 as 21(UTC) não localizada na base de dados da REDEMET
2020062222 - Mensagem METAR de 'SBSP' para 22/06/2020 as 22(UTC) não localizada na base de dados da REDEMET
2020062223 - Mensagem METAR de 'SBSP' para 22/06/2020 as 23(UTC) não localizada na base de dados da REDEMET
2020062300 - Mensagem METAR de 'SBSP' para 23/06/2020 as 00(UTC) não localizada na base de dados da REDEMET
2020062301 - Mensagem METAR de 'SBSP' para 23/06/2020 as 01(UTC) não localizada na base de dados da REDEMET
2020062302 - Mensagem METAR de 'SBSP' para 23/06/2020 as 02(UTC) não localizada na base de dados da REDEMET
2020062303 - Mensagem METAR de 'SBSP' para 23/06/2020 as 03(UTC) não localizada na base de dados da REDEMET
2020062304 - Mensagem METAR de 'SBSP' para 23/06/2020 as 04(UTC) não localizada na base de dados da REDEMET
2020062305 - Mensagem METAR de 'SBSP' para 23/06/2020 as 05(UTC) não localizada na base de dados da REDEMET
2020062306 - Mensagem METAR de 'SBSP' para 23/06/2020 as 06(UTC) não localizada na base de dados da REDEMET
2020062307 - Mensagem METAR de 'SBSP' para 23/06/2020 as 07(UTC) não localizada na base de dados da REDEMET
2020062308 - Mensagem METAR de 'SBSP' para 23/06/2020 as 08(UTC) não localizada na base de dados da REDEMET
2020062309 - Mensagem METAR de 'SBSP' para 23/06/2020 as 09(UTC) não localizada na base de dados da REDEMET
2020062310 - Mensagem METAR de 'SBSP' para 23/06/2020 as 10(UTC) não localizada na base de dados da REDEMET
2020062311 - Mensagem METAR de 'SBSP' para 23/06/2020 as 11(UTC) não localizada na base de dados da REDEMET
2020062312 - Mensagem METAR de 'SBSP' para 23/06/2020 as 12(UTC) não localizada na base de dados da REDEMET
2020062313 - Mensagem METAR de 'SBSP' para 23/06/2020 as 13(UTC) não localizada na base de dados da REDEMET
2020062314 - Mensagem METAR de 'SBSP' para 23/06/2020 as 14(UTC) não localizada na base de dados da REDEMET
2020062315 - Mensagem METAR de 'SBSP' para 23/06/2020 as 15(UTC) não localizada na base de dados da REDEMET
2020062316 - Mensagem METAR de 'SBSP' para 23/06/2020 as 16(UTC) não localizada na base de dados da REDEMET
2020062317 - Mensagem METAR de 'SBSP' para 23/06/2020 as 17(UTC) não localizada na base de dados da REDEMET
2020062318 - Mensagem METAR de 'SBSP' para 23/06/2020 as 18(UTC) não localizada na base de dados da REDEMET
2020062319 - Mensagem METAR de 'SBSP' para 23/06/2020 as 19(UTC) não localizada na base de dados da REDEMET
2020062320 - Mensagem METAR de 'SBSP' para 23/06/2020 as 20(UTC) não localizada na base de dados da REDEMET
2020062321 - Mensagem METAR de 'SBSP' para 23/06/2020 as 21(UTC) não localizada na base de dados da REDEMET
2020062322 - Mensagem METAR de 'SBSP' para 23/06/2020 as 22(UTC) não localizada na base de dados da REDEMET
2020062323 - Mensagem METAR de 'SBSP' para 23/06/2020 as 23(UTC) não localizada na base de dados da REDEMET
2020062400 - Mensagem METAR de 'SBSP' para 24/06/2020 as 00(UTC) não localizada na base de dados da REDEMET
2020062401 - Mensagem METAR de 'SBSP' para 24/06/2020 as 01(UTC) não localizada na base de dados da REDEMET
2020062402 - Mensagem METAR de 'SBSP' para 24/06/2020 as 02(UTC) não localizada na base de dados da REDEMET
2020062403 - Mensagem METAR de 'SBSP' para 24/06/2020 as 03(UTC) não localizada na base de dados da REDEMET
2020062404 - Mensagem METAR de 'SBSP' para 24/06/2020 as 04(UTC) não localizada na base de dados da REDEMET
2020062405 - Mensagem METAR de 'SBSP' para 24/06/2020 as 05(UTC) não localizada na base de dados da REDEMET
2020062406 - Mensagem METAR de 'SBSP' para 24/06/2020 as 06(UTC) não localizada na base de dados da REDEMET
2020062407 - Mensagem METAR de 'SBSP' para 24/06/2020 as 07(UTC) não localizada na base de dados da REDEMET
2020062408 - Mensagem METAR de 'SBSP' para 24/06/2020 as 08(UTC) não localizada na base de dados da REDEMET
2020062409 - Mensagem METAR de 'SBSP' para 24/06/2020 as 09(UTC) não localizada na base de dados da REDEMET
2020062410 - Mensagem METAR de 'SBSP' para 24/06/2020 as 10(UTC) não localizada na base de dados da REDEMET
2020062411 - Mensagem METAR de 'SBSP' para 24/06/2020 as 11(UTC) não localizada na base de dados da REDEMET
2020062412 - Mensagem METAR de 'SBSP' para 24/06/2020 as 12(UTC) não localizada na base de dados da REDEMET
2020062413 - Mensagem METAR de 'SBSP' para 24/06/2020 as 13(UTC) não localizada na base de dados da REDEMET
2020062414 - Mensagem METAR de 'SBSP' para 24/06/2020 as 14(UTC) não localizada na base de dados da REDEMET
2020062415 - Mensagem METAR de 'SBSP' para 24/06/2020 as 15(UTC) não localizada na base de dados da REDEMET
2020062416 - Mensagem METAR de 'SBSP' para 24/06/2020 as 16(UTC) não localizada na base de dados da REDEMET
2020062417 - Mensagem METAR de 'SBSP' para 24/06/2020 as 17(UTC) não localizada na base de dados da REDEMET
2020062418 - Mensagem METAR de 'SBSP' para 24/06/2020 as 18(UTC) não localizada na base de dados da REDEMET
2020062419 - Mensagem METAR de 'SBSP' para 24/06/2020 as 19(UTC) não localizada na base de dados da REDEMET
2020062420 - Mensagem METAR de 'SBSP' para 24/06/2020 as 20(UTC) não localizada na base de dados da REDEMET
2020062421 - Mensagem METAR de 'SBSP' para 24/06/2020 as 21(UTC) não localizada na base de dados da REDEMET
2020062422 - Mensagem METAR de 'SBSP' para 24/06/2020 as 22(UTC) não localizada na base de dados da REDEMET
2020062423 - Mensagem METAR de 'SBSP' para 24/06/2020 as 23(UTC) não localizada na base de dados da REDEMET
2020062500 - Mensagem METAR de 'SBSP' para 25/06/2020 as 00(UTC) não localizada na base de dados da REDEMET
2020062501 - Mensagem METAR de 'SBSP' para 25/06/2020 as 01(UTC) não localizada na base de dados da REDEMET
2020062502 - Mensagem METAR de 'SBSP' para 25/06/2020 as 02(UTC) não localizada na base de dados da REDEMET
2020062503 - Mensagem METAR de 'SBSP' para 25/06/2020 as 03(UTC) não localizada na base de dados da REDEMET
2020062504 - Mensagem METAR de 'SBSP' para 25/06/2020 as 04(UTC) não localizada na base de dados da REDEMET
2020062505 - Mensagem METAR de 'SBSP' para 25/06/2020 as 05(UTC) não localizada na base de dados da REDEMET
2020062506 - Mensagem METAR de 'SBSP' para 25/06/2020 as 06(UTC) não localizada na base de dados da REDEMET
2020062507 - Mensagem METAR de 'SBSP' para 25/06/2020 as 07(UTC) não localizada na base de dados da REDEMET
2020062508 - Mensagem METAR de 'SBSP' para 25/06/2020 as 08(UTC) não localizada na base de dados da REDEMET
2020062509 - Mensagem METAR de 'SBSP' para 25/06/2020 as 09(UTC) não localizada na base de dados da REDEMET
2020062510 - Mensagem METAR de 'SBSP' para 25/06/2020 as 10(UTC) não localizada na base de dados da REDEMET
2020062511 - Mensagem METAR de 'SBSP' para 25/06/2020 as 11(UTC) não localizada na base de dados da REDEMET
2020062512 - Mensagem METAR de 'SBSP' para 25/06/2020 as 12(UTC) não localizada na base de dados da REDEMET
2020062513 - Mensagem METAR de 'SBSP' para 25/06/2020 as 13(UTC) não localizada na base de dados da REDEMET
2020062514 - Mensagem METAR de 'SBSP' para 25/06/2020 as 14(UTC) não localizada na base de dados da REDEMET
2020062515 - Mensagem METAR de 'SBSP' para 25/06/2020 as 15(UTC) não localizada na base de dados da REDEMET
2020062516 - Mensagem METAR de 'SBSP' para 25/06/2020 as 16(UTC) não localizada na base de dados da REDEMET
2020062517 - Mensagem METAR de 'SBSP' para 25/06/2020 as 17(UTC) não localizada na base de dados da REDEMET
2020062518 - Mensagem METAR de 'SBSP' para 25/06/2020 as 18(UTC) não localizada na base de dados da REDEMET
2020062519 - Mensagem METAR de 'SBSP' para 25/06/2020 as 19(UTC) não localizada na base de dados da REDEMET
2020062520 - Mensagem METAR de 'SBSP' para 25/06/2020 as 20(UTC) não localizada na base de dados da REDEMET
2020062521 - Mensagem METAR de 'SBSP' para 25/06/2020 as 21(UTC) não localizada na base de dados da REDEMET
2020062522 - Mensagem METAR de 'SBSP' para 25/06/2020 as 22(UTC) não localizada na base de dados da REDEMET
2020062523 - Mensagem METAR de 'SBSP' para 25/06/2020 as 23(UTC) não localizada na base de dados da REDEMET
2020062600 - Mensagem METAR de 'SBSP' para 26/06/2020 as 00(UTC) não localizada na base de dados da REDEMET
2020062601 - Mensagem METAR de 'SBSP' para 26/06/2020 as 01(UTC) não localizada na base de dados da REDEMET
2020062602 - Mensagem METAR de 'SBSP' para 26/06/2020 as 02(UTC) não localizada na base de dados da REDEMET
2020062603 - Mensagem METAR de 'SBSP' para 26/06/2020 as 03(UTC) não localizada na base de dados da REDEMET
2020062604 - Mensagem METAR de 'SBSP' para 26/06/2020 as 04(UTC) não localizada na base de dados da REDEMET
2020062605 - Mensagem METAR de 'SBSP' para 26/06/2020 as 05(UTC) não localizada na base de dados da REDEMET
2020062606 - Mensagem METAR de 'SBSP' para 26/06/2020 as 06(UTC) não localizada na base de dados da REDEMET
2020062607 - Mensagem METAR de 'SBSP' para 26/06/2020 as 07(UTC) não localizada na base de dados da REDEMET
2020062608 - Mensagem METAR de 'SBSP' para 26/06/2020 as 08(UTC) não localizada na base de dados da REDEMET
2020062609 - Mensagem METAR de 'SBSP' para 26/06/2020 as 09(UTC) não localizada na base de dados da REDEMET
2020062610 - Mensagem METAR de 'SBSP' para 26/06/2020 as 10(UTC) não localizada na base de dados da REDEMET
2020062611 - Mensagem METAR de 'SBSP' para 26/06/2020 as 11(UTC) não localizada na base de dados da REDEMET
2020062612 - Mensagem METAR de 'SBSP' para 26/06/2020 as 12(UTC) não localizada na base de dados da REDEMET
2020062613 - Mensagem METAR de 'SBSP' para 26/06/2020 as 13(UTC) não localizada na base de dados da REDEMET
2020062614 - Mensagem METAR de 'SBSP' para 26/06/2020 as 14(UTC) não localizada na base de dados da REDEMET
2020062615 - Mensagem METAR de 'SBSP' para 26/06/2020 as 15(UTC) não localizada na base de dados da REDEMET
2020062616 - Mensagem METAR de 'SBSP' para 26/06/2020 as 16(UTC) não localizada na base de dados da REDEMET
2020062617 - Mensagem METAR de 'SBSP' para 26/06/2020 as 17(UTC) não localizada na base de dados da REDEMET
2020062618 - Mensagem METAR de 'SBSP' para 26/06/2020 as 18(UTC) não localizada na base de dados da REDEMET
2020062619 - Mensagem METAR de 'SBSP' para 26/06/2020 as 19(UTC) não localizada na base de dados da REDEMET
2020062620 - Mensagem METAR de 'SBSP' para 26/06/2020 as 20(UTC) não localizada na base de dados da REDEMET
2020062621 - Mensagem METAR de 'SBSP' para 26/06/2020 as 21(UTC) não localizada na base de dados da REDEMET
2020062622 - Mensagem METAR de 'SBSP' para 26/06/2020 as 22(UTC) não localizada na base de dados da REDEMET
2020062623 - Mensagem METAR de 'SBSP' para 26/06/2020 as 23(UTC) não localizada na base de dados da REDEMET
2020062700 - Mensagem METAR de 'SBSP' para 27/06/2020 as 00(UTC) não localizada na base de dados da REDEMET
2020062701 - Mensagem METAR de 'SBSP' para 27/06/2020 as 01(UTC) não localizada na base de dados da REDEMET
2020062702 - Mensagem METAR de 'SBSP' para 27/06/2020 as 02(UTC) não localizada na base de dados da REDEMET
2020062703 - Mensagem METAR de 'SBSP' para 27/06/2020 as 03(UTC) não localizada na base de dados da REDEMET
2020062704 - Mensagem METAR de 'SBSP' para 27/06/2020 as 04(UTC) não localizada na base de dados da REDEMET
2020062705 - Mensagem METAR de 'SBSP' para 27/06/2020 as 05(UTC) não localizada na base de dados da REDEMET
2020062706 - Mensagem METAR de 'SBSP' para 27/06/2020 as 06(UTC) não localizada na base de dados da REDEMET
2020062707 - Mensagem METAR de 'SBSP' para 27/06/2020 as 07(UTC) não localizada na base de dados da REDEMET
2020062708 - Mensagem METAR de 'SBSP' para 27/06/2020 as 08(UTC) não localizada na base de dados da REDEMET
2020062709 - Mensagem METAR de 'SBSP' para 27/06/2020 as 09(UTC) não localizada na base de dados da REDEMET
2020062710 - Mensagem METAR de 'SBSP' para 27/06/2020 as 10(UTC) não localizada na base de dados da REDEMET
2020062711 - Mensagem METAR de 'SBSP' para 27/06/2020 as 11(UTC) não localizada na base de dados da REDEMET
2020062712 - Mensagem METAR de 'SBSP' para 27/06/2020 as 12(UTC) não localizada na base de dados da REDEMET
2020062713 - Mensagem METAR de 'SBSP' para 27/06/2020 as 13(UTC) não localizada na base de dados da REDEMET
2020062714 - Mensagem METAR de 'SBSP' para 27/06/2020 as 14(UTC) não localizada na base de dados da REDEMET
2020062715 - Mensagem METAR de 'SBSP' para 27/06/2020 as 15(UTC) não localizada na base de dados da REDEMET
2020062716 - Mensagem METAR de 'SBSP' para 27/06/2020 as 16(UTC) não localizada na base de dados da REDEMET
2020062717 - Mensagem METAR de 'SBSP' para 27/06/2020 as 17(UTC) não localizada na base de dados da REDEMET
2020062718 - Mensagem METAR de 'SBSP' para 27/06/2020 as 18(UTC) não localizada na base de dados da REDEMET
2020062719 - Mensagem METAR de 'SBSP' para 27/06/2020 as 19(UTC) não localizada na base de dados da REDEMET
2020062720 - Mensagem METAR de 'SBSP' para 27/06/2020 as 20(UTC) não localizada na base de dados da REDEMET
2020062721 - Mensagem METAR de 'SBSP' para 27/06/2020 as 21(UTC) não localizada na base de dados da REDEMET
2020062722 - Mensagem METAR de 'SBSP' para 27/06/2020 as 22(UTC) não localizada na base de dados da REDEMET
2020062723 - Mensagem METAR de 'SBSP' para 27/06/2020 as 23(UTC) não localizada na base de dados da REDEMET
2020062800 - Mensagem METAR de 'SBSP' para 28/06/2020 as 00(UTC) não localizada na base de dados da REDEMET
2020062801 - Mensagem METAR de 'SBSP' para 28/06/2020 as 01(UTC) não localizada na base de dados da REDEMET
2020062802 - Mensagem METAR de 'SBSP' para 28/06/2020 as 02(UTC) não localizada na base de dados da REDEMET
2020062803 - Mensagem METAR de 'SBSP' para 28/06/2020 as 03(UTC) não localizada na base de dados da REDEMET
2020062804 - Mensagem METAR de 'SBSP' para 28/06/2020 as 04(UTC) não localizada na base de dados da REDEMET
2020062805 - Mensagem METAR de 'SBSP' para 28/06/2020 as 05(UTC) não localizada na base de dados da REDEMET
2020062806 - Mensagem METAR de 'SBSP' para 28/06/2020 as 06(UTC) não localizada na base de dados da REDEMET
2020062807 - Mensagem METAR de 'SBSP' para 28/06/2020 as 07(UTC) não localizada na base de dados da REDEMET
2020062808 - Mensagem METAR de 'SBSP' para 28/06/2020 as 08(UTC) não localizada na base de dados da REDEMET
2020062809 - Mensagem METAR de 'SBSP' para 28/06/2020 as 09(UTC) não localizada na base de dados da REDEMET
2020062810 - Mensagem METAR de 'SBSP' para 28/06/2020 as 10(UTC) não localizada na base de dados da REDEMET
2020062811 - Mensagem METAR de 'SBSP' para 28/06/2020 as 11(UTC) não localizada na base de dados da REDEMET
2020062812 - Mensagem METAR de 'SBSP' para 28/06/2020 as 12(UTC) não localizada na base de dados da REDEMET
2020062813 - Mensagem METAR de 'SBSP' para 28/06/2020 as 13(UTC) não localizada na base de dados da REDEMET
2020062814 - Mensagem METAR de 'SBSP' para 28/06/2020 as 14(UTC) não localizada na base de dados da REDEMET
2020062815 - Mensagem METAR de 'SBSP' para 28/06/2020 as 15(UTC) não localizada na base de dados da REDEMET
2020062816 - Mensagem METAR de 'SBSP' para 28/06/2020 as 16(UTC) não localizada na base de dados da REDEMET
2020062817 - Mensagem METAR de 'SBSP' para 28/06/2020 as 17(UTC) não localizada na base de dados da REDEMET
2020062818 - Mensagem METAR de 'SBSP' para 28/06/2020 as 18(UTC) não localizada na base de dados da REDEMET
2020062819 - Mensagem METAR de 'SBSP' para 28/06/2020 as 19(UTC) não localizada na base de dados da REDEMET
2020062820 - Mensagem METAR de 'SBSP' para 28/06/2020 as 20(UTC) não localizada na base de dados da REDEMET
2020062821 - Mensagem METAR de 'SBSP' para 28/06/2020 as 21(UTC) não localizada na base de dados da REDEMET
2020062822 - Mensagem METAR de 'SBSP' para 28/06/2020 as 22(UTC) não localizada na base de dados da REDEMET
2020062823 - Mensagem METAR de 'SBSP' para 28/06/2020 as 23(UTC) não localizada na base de dados da REDEMET
2020062900 - Mensagem METAR de 'SBSP' para 29/06/2020 as 00(UTC) não localizada na base de dados da REDEMET
2020062901 - Mensagem METAR de 'SBSP' para 29/06/2020 as 01(UTC) não localizada na base de dados da REDEMET
2020062902 - Mensagem METAR de 'SBSP' para 29/06/2020 as 02(UTC) não localizada na base de dados da REDEMET
2020062903 - Mensagem METAR de 'SBSP' para 29/06/2020 as 03(UTC) não localizada na base de dados da REDEMET
2020062904 - Mensagem METAR de 'SBSP' para 29/06/2020 as 04(UTC) não localizada na base de dados da REDEMET
2020062905 - Mensagem METAR de 'SBSP' para 29/06/2020 as 05(UTC) não localizada na base de dados da REDEMET
2020062906 - Mensagem METAR de 'SBSP' para 29/06/2020 as 06(UTC) não localizada na base de dados da REDEMET
2020062907 - Mensagem METAR de 'SBSP' para 29/06/2020 as 07(UTC) não localizada na base de dados da REDEMET
2020062908 - Mensagem METAR de 'SBSP' para 29/06/2020 as 08(UTC) não localizada na base de dados da REDEMET
2020062909 - Mensagem METAR de 'SBSP' para 29/06/2020 as 09(UTC) não localizada na base de dados da REDEMET
2020062910 - Mensagem METAR de 'SBSP' para 29/06/2020 as 10(UTC) não localizada na base de dados da REDEMET
2020062911 - Mensagem METAR de 'SBSP' para 29/06/2020 as 11(UTC) não localizada na base de dados da REDEMET
2020062912 - Mensagem METAR de 'SBSP' para 29/06/2020 as 12(UTC) não localizada na base de dados da REDEMET
2020062913 - Mensagem METAR de 'SBSP' para 29/06/2020 as 13(UTC) não localizada na base de dados da REDEMET
2020062914 - Mensagem METAR de 'SBSP' para 29/06/2020 as 14(UTC) não localizada na base de dados da REDEMET
2020062915 - Mensagem METAR de 'SBSP' para 29/06/2020 as 15(UTC) não localizada na base de dados da REDEMET
2020062916 - Mensagem METAR de 'SBSP' para 29/06/2020 as 16(UTC) não localizada na base de dados da REDEMET
2020062917 - Mensagem METAR de 'SBSP' para 29/06/2020 as 17(UTC) não localizada na base de dados da REDEMET
2020062918 - Mensagem METAR de 'SBSP' para 29/06/2020 as 18(UTC) não localizada na base de dados da REDEMET
2020062919 - Mensagem METAR de 'SBSP' para 29/06/2020 as 19(UTC) não localizada na base de dados da REDEMET
2020062920 - Mensagem METAR de 'SBSP' para 29/06/2020 as 20(UTC) não localizada na base de dados da REDEMET
2020062921 - Mensagem METAR de 'SBSP' para 29/06/2020 as 21(UTC) não localizada na base de dados da REDEMET
2020062922 - Mensagem METAR de 'SBSP' para 29/06/2020 as 22(UTC) não localizada na base de dados da REDEMET
2020062923 - Mensagem METAR de 'SBSP' para 29/06/2020 as 23(UTC) não localizada na base de dados da REDEMET
2020063000 - Mensagem METAR de 'SBSP' para 30/06/2020 as 00(UTC) não localizada na base de dados da REDEMET
2020063001 - Mensagem METAR de 'SBSP' para 30/06/2020 as 01(UTC) não localizada na base de dados da REDEMET
2020063002 - Mensagem METAR de 'SBSP' para 30/06/2020 as 02(UTC) não localizada na base de dados da REDEMET
2020063003 - Mensagem METAR de 'SBSP' para 30/06/2020 as 03(UTC) não localizada na base de dados da REDEMET
2020063004 - Mensagem METAR de 'SBSP' para 30/06/2020 as 04(UTC) não localizada na base de dados da REDEMET
2020063005 - Mensagem METAR de 'SBSP' para 30/06/2020 as 05(UTC) não localizada na base de dados da REDEMET
2020063006 - Mensagem METAR de 'SBSP' para 30/06/2020 as 06(UTC) não localizada na base de dados da REDEMET
2020063007 - Mensagem METAR de 'SBSP' para 30/06/2020 as 07(UTC) não localizada na base de dados da REDEMET
2020063008 - Mensagem METAR de 'SBSP' para 30/06/2020 as 08(UTC) não localizada na base de dados da REDEMET
2020063009 - Mensagem METAR de 'SBSP' para 30/06/2020 as 09(UTC) não localizada na base de dados da REDEMET
2020063010 - Mensagem METAR de 'SBSP' para 30/06/2020 as 10(UTC) não localizada na base de dados da REDEMET
2020063011 - Mensagem METAR de 'SBSP' para 30/06/2020 as 11(UTC) não localizada na base de dados da REDEMET
2020063012 - Mensagem METAR de 'SBSP' para 30/06/2020 as 12(UTC) não localizada na base de dados da REDEMET
2020063013 - Mensagem METAR de 'SBSP' para 30/06/2020 as 13(UTC) não localizada na base de dados da REDEMET
2020063014 - Mensagem METAR de 'SBSP' para 30/06/2020 as 14(UTC) não localizada na base de dados da REDEMET
2020063015 - Mensagem METAR de 'SBSP' para 30/06/2020 as 15(UTC) não localizada na base de dados da REDEMET
2020063016 - Mensagem METAR de 'SBSP' para 30/06/2020 as 16(UTC) não localizada na base de dados da REDEMET
2020063017 - Mensagem METAR de 'SBSP' para 30/06/2020 as 17(UTC) não localizada na base de dados da REDEMET
2020063018 - Mensagem METAR de 'SBSP' para 30/06/2020 as 18(UTC) não localizada na base de dados da REDEMET
2020063019 - Mensagem METAR de 'SBSP' para 30/06/2020 as 19(UTC) não localizada na base de dados da REDEMET
2020063020 - Mensagem METAR de 'SBSP' para 30/06/2020 as 20(UTC) não localizada na base de dados da REDEMET
2020063021 - Mensagem METAR de 'SBSP' para 30/06/2020 as 21(UTC) não localizada na base de dados da REDEMET
2020063022 - Mensagem METAR de 'SBSP' para 30/06/2020 as 22(UTC) não localizada na base de dados da REDEMET
2020063023 - Mensagem METAR de 'SBSP' para 30/06/2020 as 23(UTC) não localizada na base de dados da REDEMET
2020070100 - Mensagem METAR de 'SBSP' para 01/07/2020 as 00(UTC) não localizada na base de dados da REDEMET
2020070101 - Mensagem METAR de 'SBSP' para 01/07/2020 as 01(UTC) não localizada na base de dados da REDEMET
2020070102 - Mensagem METAR de 'SBSP' para 01/07/2020 as 02(UTC) não localizada na base de dados da REDEMET
2020070103 - Mensagem METAR de 'SBSP' para 01/07/2020 as 03(UTC) não localizada na base de dados da REDEMET
2020070104 - Mensagem METAR de 'SBSP' para 01/07/2020 as 04(UTC) não localizada na base de dados da REDEMET
2020070105 - Mensagem METAR de 'SBSP' para 01/07/2020 as 05(UTC) não localizada na base de dados da REDEMET
2020070106 - Mensagem METAR de 'SBSP' para 01/07/2020 as 06(UTC) não localizada na base de dados da REDEMET
2020070107 - Mensagem METAR de 'SBSP' para 01/07/2020 as 07(UTC) não localizada na base de dados da REDEMET
2020070108 - Mensagem METAR de 'SBSP' para 01/07/2020 as 08(UTC) não localizada na base de dados da REDEMET
2020070109 - Mensagem METAR de 'SBSP' para 01/07/2020 as 09(UTC) não localizada na base de dados da REDEMET
2020070110 - Mensagem METAR de 'SBSP' para 01/07/2020 as 10(UTC) não localizada na base de dados da REDEMET
2020070111 - Mensagem METAR de 'SBSP' para 01/07/2020 as 11(UTC) não localizada na base de dados da REDEMET
2020070112 - Mensagem METAR de 'SBSP' para 01/07/2020 as 12(UTC) não localizada na base de dados da REDEMET
2020070113 - Mensagem METAR de 'SBSP' para 01/07/2020 as 13(UTC) não localizada na base de dados da REDEMET
2020070114 - Mensagem METAR de 'SBSP' para 01/07/2020 as 14(UTC) não localizada na base de dados da REDEMET
2020070115 - Mensagem METAR de 'SBSP' para 01/07/2020 as 15(UTC) não localizada na base de dados da REDEMET
2020070116 - Mensagem METAR de 'SBSP' para 01/07/2020 as 16(UTC) não localizada na base de dados da REDEMET
2020070117 - Mensagem METAR de 'SBSP' para 01/07/2020 as 17(UTC) não localizada na base de dados da REDEMET
2020070118 - Mensagem METAR de 'SBSP' para 01/07/2020 as 18(UTC) não localizada na base de dados da REDEMET
2020070119 - Mensagem METAR de 'SBSP' para 01/07/2020 as 19(UTC) não localizada na base de dados da REDEMET
2020070120 - Mensagem METAR de 'SBSP' para 01/07/2020 as 20(UTC) não localizada na base de dados da REDEMET
2020070121 - Mensagem METAR de 'SBSP' para 01/07/2020 as 21(UTC) não localizada na base de dados da REDEMET
2020070122 - Mensagem METAR de 'SBSP' para 01/07/2020 as 22(UTC) não localizada na base de dados da REDEMET
2020070123 - Mensagem METAR de 'SBSP' para 01/07/2020 as 23(UTC) não localizada na base de dados da REDEMET
