
2020040100 - SABZ18 SBSP 010000
2020040100 - METAR SBSP 010000Z 14004KT CAVOK 20/17 Q1019=
2020040101 - SABZ18 SBSP 010100
2020040101 - METAR SBSP 010100Z 11006KT 050V140 CAVOK 20/16 Q1019=
2020040102 - SABZ18 SBSP 010200
2020040102 - METAR SBSP 010200Z 10005KT 060V120 CAVOK 20/16 Q1019=
2020040102 - SPECI SBSP 010201Z 08005KT 050V120 CAVOK 20/16 Q1019=
2020040103 - SABZ21 SBSP 010300
2020040103 - METAR SBSP 010300Z AUTO 13003KT 100V160 CAVOK 19/16 Q1019=
2020040104 - SABZ21 SBSP 010400
2020040104 - METAR SBSP 010400Z AUTO 15004KT CAVOK 19/16 Q1018=
2020040105 - SABZ21 SBSP 010500
2020040105 - METAR SBSP 010500Z AUTO 15005KT CAVOK 18/16 Q1018=
2020040106 - SABZ21 SBSP 010600
2020040106 - METAR SBSP 010600Z AUTO 12003KT 080V150 CAVOK 18/16 Q1018=
2020040107 - SABZ21 SBSP 010700
2020040107 - METAR SBSP 010700Z AUTO VRB02KT CAVOK 18/16 Q1017=
2020040108 - SABZ21 SBSP 010800
2020040108 - METAR SBSP 010800Z AUTO 14005KT CAVOK 18/16 Q1018=
2020040109 - SABZ18 SBSP 010900
2020040109 - METAR SBSP 010900Z 14005KT 9999 FEW015 18/16 Q1019=
2020040110 - SABZ18 SBSP 011000
2020040110 - METAR SBSP 011000Z 16006KT 9999 SCT004 BKN017 18/16 Q1020=
2020040111 - SABZ18 SBSP 011100
2020040111 - METAR SBSP 011100Z 11006KT 070V140 9000 SCT008 OVC013 19/16 Q1020=
2020040112 - SABZ18 SBSP 011200
2020040112 - METAR SBSP 011200Z 11006KT 9999 FEW009 SCT015 20/17 Q1021=
2020040113 - SABZ18 SBSP 011300
2020040113 - METAR SBSP 011300Z 11007KT 060V150 9999 BKN017 23/17 Q1020=
2020040114 - SABZ18 SBSP 011400
2020040114 - METAR SBSP 011400Z 10007KT 030V150 9999 FEW027 24/17 Q1020=
2020040115 - SABZ18 SBSP 011500
2020040115 - METAR SBSP 011500Z 06007KT 040V180 9999 FEW030 25/16 Q1020=
2020040116 - SABZ18 SBSP 011600
2020040116 - METAR SBSP 011600Z VRB06KT 9999 FEW033 26/15 Q1019=
2020040117 - SABZ18 SBSP 011700
2020040117 - METAR SBSP 011700Z 14007KT 090V180 9999 SCT040 26/17 Q1018=
2020040118 - SABZ18 SBSP 011800
2020040118 - METAR SBSP 011800Z 18013KT 9999 SCT030 25/18 Q1018=
2020040119 - SABZ18 SBSP 011900
2020040119 - METAR SBSP 011900Z 16010KT 120V190 9999 SCT027 24/18 Q1018=
2020040120 - SABZ18 SBSP 012000
2020040120 - METAR SBSP 012000Z 16009KT 9999 FEW021 24/18 Q1018=
2020040121 - SABZ18 SBSP 012100
2020040121 - METAR SBSP 012100Z 16009KT 9999 FEW019 22/18 Q1019=
2020040121 - SPECI SBSP 012140Z 17010KT 9999 BKN013 21/18 Q1019=
2020040122 - SABZ18 SBSP 012200
2020040122 - METAR SBSP 012200Z 16009KT 9999 BKN013 21/18 Q1019=
2020040123 - SABZ18 SBSP 012300
2020040123 - METAR SBSP 012300Z 15008KT 9999 OVC013 21/18 Q1020=
2020040200 - SABZ18 SBSP 020000
2020040200 - METAR SBSP 020000Z 14005KT 100V180 9999 BKN011 OVC013 21/18 Q1020=
2020040201 - SABZ18 SBSP 020100
2020040201 - METAR SBSP 020100Z 14006KT 080V160 9999 OVC011 21/17 Q1020=
2020040202 - SABZ18 SBSP 020200
2020040202 - METAR SBSP 020200Z 12004KT 070V160 9999 BKN009 OVC013 21/18 Q1020=
2020040202 - SPECI SBSP 020201Z 14006KT 100V180 9999 BKN011 OVC013 21/17 Q1019=
2020040203 - SABZ21 SBSP 020300
2020040203 - METAR SBSP 020300Z AUTO 12005KT 9999 BKN011 BKN013 21/18 Q1019=
2020040203 - SPECI SBSP 020324Z AUTO 11004KT 070V140 9999 BKN012 21/17 Q1019=
2020040203 - SPECI SBSP 020359Z AUTO 11004KT 090V150 9999 FEW011 SCT014 20/17Q1019=
2020040204 - SABZ21 SBSP 020400
2020040204 - METAR SBSP 020400Z AUTO 11004KT 090V150 9999 FEW011 SCT014 20/17Q1019=
2020040204 - SPECI SBSP 020457Z AUTO 07003KT 020V110 9999 FEW009 BKN012 20/17Q1018=
2020040205 - SABZ21 SBSP 020500
2020040205 - METAR SBSP 020500Z AUTO 07003KT 020V110 9999 FEW009 BKN012 20/17Q1018=
2020040205 - SPECI SBSP 020524Z AUTO 06006KT 030V100 9999 BKN009 BKN011 20/17Q1018=
2020040206 - SABZ21 SBSP 020600
2020040206 - METAR SBSP 020600Z AUTO 04007KT 020V080 9999 SCT009 BKN011 20/17Q1017=
2020040206 - SPECI SBSP 020603Z AUTO 04005KT 010V070 9999 SCT010 20/17 Q1017=
2020040207 - SABZ21 SBSP 020700
2020040207 - METAR SBSP 020700Z AUTO 06005KT 030V090 9999 FEW011 20/17 Q1017=
2020040208 - SABZ21 SBSP 020800
2020040208 - METAR SBSP 020800Z AUTO 05007KT 9999 FEW008 20/17 Q1017=
2020040209 - SABZ18 SBSP 020900
2020040209 - METAR SBSP 020900Z 04005KT 360V070 9999 FEW008 20/17 Q1018=
2020040210 - SABZ18 SBSP 021000
2020040210 - METAR SBSP 021000Z 03006KT 9999 FEW008 20/17 Q1018=
2020040211 - SABZ18 SBSP 021100
2020040211 - METAR SBSP 021100Z 03006KT CAVOK 21/17 Q1018=
2020040212 - SABZ18 SBSP 021200
2020040212 - METAR SBSP 021200Z 36006KT 330V030 CAVOK 23/17 Q1019=
2020040213 - SABZ18 SBSP 021300
2020040213 - METAR SBSP 021300Z 34009KT CAVOK 26/18 Q1018=
2020040214 - SABZ18 SBSP 021400
2020040214 - METAR SBSP 021400Z 32013KT 290V350 CAVOK 28/18 Q1018=
2020040215 - SABZ18 SBSP 021500
2020040215 - METAR SBSP 021500Z 32009KT 260V360 9999 SCT037 29/18 Q1017=
2020040216 - SABZ18 SBSP 021600
2020040216 - METAR SBSP 021600Z 32013KT 9999 FEW047 29/17 Q1016=
2020040217 - SABZ18 SBSP 021700
2020040217 - METAR SBSP 021700Z 32013KT 290V360 CAVOK 30/17 Q1015=
2020040218 - SABZ18 SBSP 021800
2020040218 - METAR SBSP 021800Z 29012KT 260V340 CAVOK 29/15 Q1014=
2020040219 - SABZ18 SBSP 021900
2020040219 - METAR SBSP 021900Z 31012KT 270V340 CAVOK 30/16 Q1014=
2020040220 - SABZ18 SBSP 022000
2020040220 - METAR SBSP 022000Z 31011KT 270V340 CAVOK 29/16 Q1014=
2020040221 - SABZ18 SBSP 022100
2020040221 - METAR SBSP 022100Z 31013KT 280V350 9999 SCT043 BKN067 27/16 Q1014=
2020040222 - SABZ18 SBSP 022200
2020040222 - METAR SBSP 022200Z 33005KT CAVOK 25/16 Q1014=
2020040223 - SABZ18 SBSP 022300
2020040223 - METAR SBSP 022300Z 33006KT CAVOK 25/17 Q1014=
2020040300 - SABZ18 SBSP 030000
2020040300 - METAR SBSP 030000Z 32008KT CAVOK 24/18 Q1014=
2020040301 - SABZ18 SBSP 030100
2020040301 - METAR SBSP 030100Z 33005KT CAVOK 25/18 Q1014=
2020040302 - SABZ18 SBSP 030200
2020040302 - METAR SBSP 030200Z 32008KT CAVOK 24/17 Q1014=
2020040302 - SPECI SBSP 030201Z 32007KT CAVOK 24/17 Q1013=
2020040303 - SABZ21 SBSP 030300
2020040303 - METAR SBSP 030300Z AUTO 33009KT CAVOK 24/17 Q1013=
2020040304 - SABZ21 SBSP 030400
2020040304 - METAR SBSP 030400Z AUTO 33006KT CAVOK 24/17 Q1012=
2020040305 - SABZ21 SBSP 030500
2020040305 - METAR SBSP 030500Z AUTO 32006KT CAVOK 23/17 Q1012=
2020040306 - SABZ21 SBSP 030600
2020040306 - METAR SBSP 030600Z AUTO 32007KT CAVOK 23/16 Q1011=
2020040307 - SABZ21 SBSP 030700
2020040307 - METAR SBSP 030700Z AUTO 31008KT CAVOK 23/16 Q1011=
2020040308 - SABZ21 SBSP 030800
2020040308 - METAR SBSP 030800Z AUTO 32006KT CAVOK 22/16 Q1011=
2020040309 - SABZ18 SBSP 030900
2020040309 - METAR SBSP 030900Z 32009KT CAVOK 22/17 Q1012=
2020040310 - SABZ18 SBSP 031000
2020040310 - METAR SBSP 031000Z 30005KT 270V340 9999 SCT037 SCT040 BKN073 22/17 Q1012=
2020040311 - SABZ18 SBSP 031100
2020040311 - METAR SBSP 031100Z 32008KT 7000 -RA FEW020 SCT040 OVC050 21/18 Q1012=
2020040312 - SABZ18 SBSP 031200
2020040312 - METAR SBSP 031200Z 33012KT 9999 FEW037 BKN100 21/19 Q1012=
2020040313 - SABZ18 SBSP 031300
2020040313 - METAR SBSP 031300Z 32009KT CAVOK 22/18 Q1012=
2020040314 - SABZ18 SBSP 031400
2020040314 - METAR SBSP 031400Z 32008KT 270V340 CAVOK 24/19 Q1012=
2020040315 - SABZ18 SBSP 031500
2020040315 - METAR SBSP 031500Z 30011KT 270V340 9999 FEW023 BKN050 25/18 Q1012=
2020040316 - SABZ18 SBSP 031600
2020040316 - METAR SBSP 031600Z 30012KT 250V320 9999 FEW027 BKN067 26/18 Q1011=
2020040317 - SABZ18 SBSP 031700
2020040317 - METAR SBSP 031700Z 29012KT 250V320 9999 BKN030 BKN067 26/18 Q1011=
2020040318 - SABZ18 SBSP 031800
2020040318 - METAR SBSP 031800Z 30011KT 260V330 9999 BKN037 27/17 Q1010=
2020040319 - SABZ18 SBSP 031900
2020040319 - METAR SBSP 031900Z 28008G18KT 220V330 9999 SCT043 28/16 Q1010=
2020040320 - SABZ18 SBSP 032000
2020040320 - METAR SBSP 032000Z 17015KT 9999 SCT047 21/17 Q1011=
2020040321 - SABZ18 SBSP 032100
2020040321 - METAR SBSP 032100Z 17015KT 9999 BKN023 20/10 Q1012=
2020040322 - SABZ18 SBSP 032200
2020040322 - METAR SBSP 032200Z 18009KT 150V210 9999 BKN030 20/10 Q1013=
2020040323 - SABZ18 SBSP 032300
2020040323 - METAR SBSP 032300Z 16007KT 9999 BKN037 20/10 Q1014=
2020040400 - SABZ18 SBSP 040000
2020040400 - METAR SBSP 040000Z 18008KT 9999 BKN040 19/11 Q1014=
2020040401 - SABZ18 SBSP 040100
2020040401 - METAR SBSP 040100Z 16008KT 9999 FEW040 18/13 Q1015=
2020040402 - SABZ18 SBSP 040200
2020040402 - METAR SBSP 040200Z 16008KT CAVOK 17/13 Q1015=
2020040402 - SPECI SBSP 040201Z 17008KT 140V200 CAVOK 17/13 Q1015=
2020040403 - SABZ21 SBSP 040300
2020040403 - METAR SBSP 040300Z AUTO 18008KT 9999 FEW017 17/14 Q1015=
2020040404 - SABZ21 SBSP 040400
2020040404 - METAR SBSP 040400Z AUTO 17007KT 9999 FEW013 17/14 Q1014=
2020040405 - SABZ21 SBSP 040500
2020040405 - METAR SBSP 040500Z AUTO 17008KT 9999 FEW014 17/14 Q1014=
2020040406 - SABZ21 SBSP 040600
2020040406 - METAR SBSP 040600Z AUTO 15005KT 9999 FEW015 16/14 Q1013=
2020040406 - SPECI SBSP 040651Z AUTO 16007KT 9999 FEW012 BKN014 BKN028 17/14Q1013=
2020040407 - SABZ21 SBSP 040700
2020040407 - METAR SBSP 040700Z AUTO 16007KT 9999 SCT012 SCT015 BKN023 17/14Q1013=
2020040407 - SPECI SBSP 040701Z AUTO 16007KT 9999 SCT011 BKN013 BKN024 17/14Q1013=
2020040407 - SPECI SBSP 040750Z AUTO 19006KT 160V220 9999 SCT011 BKN015 BKN02117/14 Q1014=
2020040408 - SABZ21 SBSP 040800
2020040408 - METAR SBSP 040800Z AUTO 20006KT 9999 SCT011 BKN015 BKN020 17/14Q1014=
2020040409 - SABZ18 SBSP 040900
2020040409 - METAR SBSP 040900Z 19004KT 9999 FEW013 16/13 Q1015=
2020040410 - SABZ18 SBSP 041000
2020040410 - METAR SBSP 041000Z 15004KT CAVOK 16/14 Q1016=
2020040411 - SABZ18 SBSP 041100
2020040411 - METAR SBSP 041100Z 12006KT 9999 FEW015 18/14 Q1017=
2020040412 - SABZ18 SBSP 041200
2020040412 - METAR SBSP 041200Z 13005KT 100V170 9999 BKN023 19/13 Q1017=
2020040413 - SABZ18 SBSP 041300
2020040413 - METAR SBSP 041300Z 18006KT 110V230 CAVOK 21/12 Q1017=
2020040414 - SABZ18 SBSP 041400
2020040414 - METAR SBSP 041400Z VRB03KT 9999 FEW033 23/12 Q1017=
2020040415 - SABZ18 SBSP 041500
2020040415 - METAR SBSP 041500Z 19006KT 120V230 9999 FEW037 22/13 Q1017=
2020040416 - SABZ18 SBSP 041600
2020040416 - METAR SBSP 041600Z 16006KT 100V210 CAVOK 24/14 Q1016=
2020040417 - SABZ18 SBSP 041700
2020040417 - METAR SBSP 041700Z VRB04KT CAVOK 25/12 Q1015=
2020040418 - SABZ18 SBSP 041800
2020040418 - METAR SBSP 041800Z 15011KT CAVOK 24/15 Q1015=
2020040419 - SABZ18 SBSP 041900
2020040419 - METAR SBSP 041900Z 17010KT 140V210 CAVOK 23/15 Q1015=
2020040420 - SABZ18 SBSP 042000
2020040420 - METAR SBSP 042000Z 16011KT 9999 FEW015 20/15 Q1016=
2020040421 - SABZ18 SBSP 042100
2020040421 - METAR SBSP 042100Z 15012KT 9999 BKN015 19/15 Q1017=
2020040422 - SABZ18 SBSP 042200
2020040422 - METAR SBSP 042200Z 15009KT 9999 FEW013 OVC017 18/15 Q1017=
2020040423 - SABZ18 SBSP 042300
2020040423 - METAR SBSP 042300Z 15009KT 9999 FEW011 OVC019 18/15 Q1018=
2020040500 - SABZ18 SBSP 050000
2020040500 - METAR SBSP 050000Z 14009KT 9999 FEW013 BKN015 BKN021 18/15 Q1019=
2020040501 - SABZ18 SBSP 050100
2020040501 - METAR SBSP 050100Z 13008KT 9999 SCT008 BKN012 OVC019 18/15 Q1019=
2020040502 - SABZ18 SBSP 050200
2020040502 - METAR SBSP 050200Z 13007KT 9999 FEW011 BKN021 BKN023 18/14 Q1019=
2020040502 - SPECI SBSP 050201Z 13007KT 090V160 9999 FEW010 BKN019 OVC024 18/15Q1019=
2020040503 - SABZ21 SBSP 050300
2020040503 - METAR SBSP 050300Z AUTO 13008KT 9999 BKN024 18/14 Q1019=
2020040504 - SABZ21 SBSP 050400
2020040504 - METAR SBSP 050400Z AUTO 11004KT 070V140 CAVOK 17/14 Q1018=
2020040504 - SPECI SBSP 050447Z AUTO 14005KT 9999 SCT008 BKN011 17/14 Q1018=
2020040504 - SPECI SBSP 050456Z AUTO 13005KT 090V150 9999 BKN008 BKN011 17/14Q1018=
2020040505 - SABZ21 SBSP 050500
2020040505 - METAR SBSP 050500Z AUTO 13005KT 090V150 9999 BKN008 BKN011 17/14Q1018=
2020040505 - SPECI SBSP 050513Z AUTO 13005KT 9999 FEW008 SCT011 17/14 Q1018=
2020040506 - SABZ21 SBSP 050600
2020040506 - METAR SBSP 050600Z AUTO 11004KT 080V140 9999 FEW009 17/14 Q1018=
2020040507 - SABZ21 SBSP 050700
2020040507 - METAR SBSP 050700Z AUTO 12003KT 070V160 CAVOK 16/14 Q1018=
2020040508 - SABZ21 SBSP 050800
2020040508 - METAR SBSP 050800Z AUTO 14004KT CAVOK 16/14 Q1018=
2020040509 - SABZ18 SBSP 050900
2020040509 - METAR SBSP 050900Z 11004KT 070V140 CAVOK 16/14 Q1018=
2020040510 - SABZ18 SBSP 051000
2020040510 - METAR SBSP 051000Z 09005KT 060V120 CAVOK 17/14 Q1019=
2020040511 - SABZ18 SBSP 051100
2020040511 - METAR SBSP 051100Z 08006KT 040V110 9999 SCT009 18/14 Q1020=
2020040511 - SPECI SBSP 051108Z 08006KT 040V110 9999 BKN009 18/15 Q1020=
2020040512 - SABZ18 SBSP 051200
2020040512 - METAR SBSP 051200Z 08007KT 040V140 9999 BKN009 BKN013 18/14 Q1021=
2020040512 - SPECI SBSP 051219Z 09007KT 060V130 9999 FEW011 SCT015 19/15 Q1021=
2020040513 - SABZ18 SBSP 051300
2020040513 - METAR SBSP 051300Z 10007KT 020V140 CAVOK 20/14 Q1021=
2020040514 - SABZ18 SBSP 051400
2020040514 - METAR SBSP 051400Z VRB07KT CAVOK 22/13 Q1021=
2020040515 - SABZ18 SBSP 051500
2020040515 - METAR SBSP 051500Z VRB03KT CAVOK 24/13 Q1020=
2020040516 - SABZ18 SBSP 051600
2020040516 - METAR SBSP 051600Z 04003KT 010V100 CAVOK 25/12 Q1019=
2020040517 - SABZ18 SBSP 051700
2020040517 - METAR SBSP 051700Z VRB03KT CAVOK 26/11 Q1018=
2020040518 - SABZ18 SBSP 051800
2020040518 - METAR SBSP 051800Z VRB04KT CAVOK 27/11 Q1018=
2020040519 - SABZ18 SBSP 051900
2020040519 - METAR SBSP 051900Z 14010KT 110V170 CAVOK 25/15 Q1018=
2020040520 - SABZ18 SBSP 052000
2020040520 - METAR SBSP 052000Z 14011KT CAVOK 23/16 Q1018=
2020040521 - SABZ18 SBSP 052100
2020040521 - METAR SBSP 052100Z 16010KT CAVOK 20/15 Q1018=
2020040522 - SABZ18 SBSP 052200
2020040522 - METAR SBSP 052200Z 16008KT CAVOK 18/15 Q1019=
2020040523 - SABZ18 SBSP 052300
2020040523 - METAR SBSP 052300Z 19009KT 9999 SCT009 18/15 Q1020=
2020040600 - SABZ18 SBSP 060000
2020040600 - METAR SBSP 060000Z 14004KT 9999 FEW009 18/15 Q1020=
2020040601 - SABZ18 SBSP 060100
2020040601 - METAR SBSP 060100Z 12003KT CAVOK 18/15 Q1020=
2020040602 - SABZ18 SBSP 060200
2020040602 - METAR SBSP 060200Z 14003KT 100V160 CAVOK 17/15 Q1021=
2020040602 - SPECI SBSP 060201Z 12003KT 090V150 CAVOK 18/15 Q1020=
2020040603 - SABZ21 SBSP 060300
2020040603 - METAR SBSP 060300Z AUTO 10003KT 360V150 CAVOK 18/15 Q1020=
2020040604 - SABZ21 SBSP 060400
2020040604 - METAR SBSP 060400Z AUTO 16003KT CAVOK 18/15 Q1020=
2020040604 - SPECI SBSP 060432Z AUTO VRB02KT 9999 SCT009 BKN012 18/15 Q1019=
2020040604 - SPECI SBSP 060435Z AUTO VRB02KT 9999 BKN009 BKN012 18/15 Q1019=
2020040605 - SABZ21 SBSP 060500
2020040605 - METAR SBSP 060500Z AUTO 05004KT 9999 BKN009 18/15 Q1019=
2020040605 - SPECI SBSP 060551Z AUTO 06005KT 030V110 9999 BKN007 OVC009 18/16Q1019=
2020040606 - SABZ21 SBSP 060600
2020040606 - METAR SBSP 060600Z AUTO 07005KT 040V110 9999 BKN007 OVC009 18/16Q1019=
2020040607 - SABZ21 SBSP 060700
2020040607 - METAR SBSP 060700Z AUTO 04007KT 9999 BKN006 OVC008 18/16 Q1019=
2020040608 - SABZ21 SBSP 060800
2020040608 - METAR SBSP 060800Z AUTO 07006KT 9999 OVC006 18/16 Q1019=
2020040608 - SPECI SBSP 060841Z AUTO 06005KT 020V090 9999 BKN005 OVC008 18/16Q1019=
2020040609 - SABZ18 SBSP 060900
2020040609 - METAR SBSP 060900Z 07005KT 030V100 9000 BKN005 OVC008 18/16 Q1019=
2020040610 - SABZ18 SBSP 061000
2020040610 - METAR SBSP 061000Z 03005KT 360V060 9000 OVC006 18/16 Q1019=
2020040611 - SABZ18 SBSP 061100
2020040611 - METAR SBSP 061100Z 01005KT 9999 SCT008 19/16 Q1020=
2020040612 - SABZ18 SBSP 061200
2020040612 - METAR SBSP 061200Z 04004KT 360V110 CAVOK 21/16 Q1020=
2020040613 - SABZ18 SBSP 061300
2020040613 - METAR SBSP 061300Z 02004KT 320V070 CAVOK 23/16 Q1020=
2020040614 - SABZ18 SBSP 061400
2020040614 - METAR SBSP 061400Z 33006KT 280V070 CAVOK 26/15 Q1019=
2020040615 - SABZ18 SBSP 061500
2020040615 - METAR SBSP 061500Z 32009KT 270V350 CAVOK 28/12 Q1019=
2020040616 - SABZ18 SBSP 061600
2020040616 - METAR SBSP 061600Z 28006KT 210V330 CAVOK 29/13 Q1018=
2020040617 - SABZ18 SBSP 061700
2020040617 - METAR SBSP 061700Z 31009KT 280V340 CAVOK 29/14 Q1017=
2020040618 - SABZ18 SBSP 061800
2020040618 - METAR SBSP 061800Z 32011KT 260V360 CAVOK 30/15 Q1016=
2020040619 - SABZ18 SBSP 061900
2020040619 - METAR SBSP 061900Z 32010KT 280V340 CAVOK 30/14 Q1016=
2020040620 - SABZ18 SBSP 062000
2020040620 - METAR SBSP 062000Z 31008KT 270V330 CAVOK 29/14 Q1015=
2020040621 - SABZ18 SBSP 062100
2020040621 - METAR SBSP 062100Z 30005KT CAVOK 28/15 Q1015=
2020040622 - SABZ18 SBSP 062200
2020040622 - METAR SBSP 062200Z 31004KT CAVOK 27/16 Q1015=
2020040623 - SABZ18 SBSP 062300
2020040623 - METAR SBSP 062300Z VRB02KT CAVOK 26/16 Q1016=
2020040700 - SABZ18 SBSP 070000
2020040700 - METAR SBSP 070000Z 20004KT CAVOK 26/16 Q1016=
2020040701 - SABZ18 SBSP 070100
2020040701 - METAR SBSP 070100Z 22011KT 190V250 CAVOK 24/19 Q1018=
2020040702 - SABZ18 SBSP 070200
2020040702 - METAR SBSP 070200Z 19008KT CAVOK 21/18 Q1018=
2020040702 - SPECI SBSP 070201Z 20008KT CAVOK 21/18 Q1017=
2020040703 - SABZ21 SBSP 070300
2020040703 - METAR SBSP 070300Z AUTO 20009KT 9999 SCT008 21/18 Q1018=
2020040703 - SPECI SBSP 070301Z AUTO 19010KT 9999 SCT008 BKN011 21/18 Q1018=
2020040703 - SPECI SBSP 070307Z AUTO 20009KT 9999 BKN008 BKN011 21/18 Q1018=
2020040703 - SPECI SBSP 070343Z AUTO 20009KT 9999 SCT011 BKN013 20/16 Q1018=
2020040704 - SABZ21 SBSP 070400
2020040704 - METAR SBSP 070400Z AUTO 20007KT 180V240 9999 BKN011 20/16 Q1018=
2020040704 - SPECI SBSP 070405Z AUTO 20007KT 170V240 9999 FEW011 20/16 Q1017=
2020040705 - SABZ21 SBSP 070500
2020040705 - METAR SBSP 070500Z AUTO 25006KT 230V300 9999 FEW011 20/16 Q1018=
2020040705 - SPECI SBSP 070503Z AUTO 27006KT 220V300 9999 FEW009 BKN011 20/17Q1018=
2020040705 - SPECI SBSP 070508Z AUTO 26005KT 190V330 9000 +RA SCT008 BKN011 20/17Q1017=
2020040705 - SPECI SBSP 070522Z AUTO 24004KT 190V290 8000 +RA SCT008 19/17 Q1017=
2020040705 - SPECI SBSP 070534Z AUTO 28003KT 250V310 9999 FEW008 19/17 Q1017 RERA=
2020040706 - SABZ21 SBSP 070600
2020040706 - METAR SBSP 070600Z AUTO 32007KT CAVOK 19/17 Q1017 RERA=
2020040707 - SABZ21 SBSP 070700
2020040707 - METAR SBSP 070700Z AUTO 34006KT 300V010 CAVOK 19/17 Q1016=
2020040708 - SABZ21 SBSP 070800
2020040708 - METAR SBSP 070800Z AUTO VRB05KT CAVOK 20/17 Q1016=
2020040709 - SABZ18 SBSP 070900
2020040709 - METAR SBSP 070900Z 18006KT 9999 BKN043 SCT050 19/17 Q1017=
2020040710 - SABZ18 SBSP 071000
2020040710 - METAR SBSP 071000Z 19005KT 9999 BKN043 BKN047 20/17 Q1018=
2020040711 - SABZ18 SBSP 071100
2020040711 - METAR SBSP 071100Z VRB02KT 9000 FEW027 BKN047 OVC052 19/17 Q1019=
2020040712 - SABZ18 SBSP 071200
2020040712 - METAR SBSP 071200Z 14004KT 100V180 9000 BKN048 BKN067 20/17 Q1019=
2020040713 - SABZ18 SBSP 071300
2020040713 - METAR SBSP 071300Z 19007KT 9999 FEW027 BKN100 22/16 Q1020=
2020040714 - SABZ18 SBSP 071400
2020040714 - METAR SBSP 071400Z 20010KT 9999 FEW017 SCT030 BKN100 22/16 Q1020=
2020040715 - SABZ18 SBSP 071500
2020040715 - METAR SBSP 071500Z 20007KT 160V240 9999 BKN019 BKN023 22/16 Q1019=
2020040716 - SABZ18 SBSP 071600
2020040716 - METAR SBSP 071600Z 17006KT 130V230 9999 FEW017 SCT021 OVC033 23/17 Q1019=
2020040717 - SABZ18 SBSP 071700
2020040717 - METAR SBSP 071700Z 19008KT 9999 BKN040 23/17 Q1018=
2020040718 - SABZ18 SBSP 071800
2020040718 - METAR SBSP 071800Z 18007KT 9999 BKN023 23/17 Q1018=
2020040719 - SABZ18 SBSP 071900
2020040719 - METAR SBSP 071900Z 18009KT 9999 FEW019 OVC027 22/17 Q1018=
2020040719 - SPECI SBSP 071920Z 19010KT 4000 -RA BR SCT007 OVC013 20/18 Q1018=
2020040719 - SPECI SBSP 071930Z 18010KT 4000 -RA BR BKN006 OVC009 20/18 Q1019=
2020040720 - SABZ18 SBSP 072000
2020040720 - METAR SBSP 072000Z 19012KT 170V230 9000 -RA BKN007 OVC009 20/18 Q1018=
2020040720 - SPECI SBSP 072034Z 20010KT 4000 -RA BR SCT004 OVC009 19/17 Q1019=
2020040721 - SABZ18 SBSP 072100
2020040721 - METAR SBSP 072100Z 19012KT 4000 -RA BR BKN006 OVC009 19/17 Q1019=
2020040721 - SPECI SBSP 072130Z 19009KT 9000 FEW005 BKN009 OVC015 19/17 Q1020=
2020040722 - SABZ18 SBSP 072200
2020040722 - METAR SBSP 072200Z 18008KT 9000 BKN009 BKN015 19/17 Q1020=
2020040722 - SPECI SBSP 072220Z 19009KT 9000 BKN004 OVC007 19/17 Q1020=
2020040723 - SABZ18 SBSP 072300
2020040723 - METAR SBSP 072300Z 17008KT 9999 BKN006 OVC008 18/17 Q1020=
2020040800 - SABZ18 SBSP 080000
2020040800 - METAR SBSP 080000Z 17008KT 9999 BKN006 OVC008 19/17 Q1020=
2020040801 - SABZ18 SBSP 080100
2020040801 - METAR SBSP 080100Z 17008KT 4000 -RA BR OVC005 18/17 Q1021=
2020040801 - SPECI SBSP 080135Z 16009KT 9000 BKN006 OVC009 18/17 Q1021=
2020040802 - SABZ18 SBSP 080200
2020040802 - METAR SBSP 080200Z 16008KT 9000 BKN006 OVC011 18/17 Q1021=
2020040802 - SPECI SBSP 080201Z 16009KT 7000 -RA BKN005 BKN007 OVC009 18/16 Q1020=
2020040802 - SPECI SBSP 080233Z AUTO 16008KT 9999 -RA BKN004 BKN006 OVC012 18/17Q1020=
2020040802 - SPECI SBSP 080246Z AUTO 15011KT 9999 -RA BKN005 OVC012 18/16 Q1020=
2020040803 - SABZ21 SBSP 080300
2020040803 - METAR SBSP 080300Z AUTO 15010KT 9999 -RA BKN005 OVC012 18/16 Q1020=
2020040803 - SPECI SBSP 080314Z AUTO 15008KT 9999 SCT005 BKN007 BKN009 18/16Q1020=
2020040803 - SPECI SBSP 080326Z AUTO 16009KT 9999 BKN004 BKN007 BKN048 18/16Q1020=
2020040803 - SPECI SBSP 080338Z AUTO 15008KT 4600 BKN003 BKN007 18/16 Q1020=
2020040804 - SABZ21 SBSP 080400
2020040804 - METAR SBSP 080400Z AUTO 15007KT 120V180 4600 -DZ BKN002 OVC006 18/16Q1020=
2020040804 - SPECI SBSP 080406Z AUTO 15008KT 5000 -DZ BKN002 BKN004 OVC010 18/16Q1020=
2020040804 - SPECI SBSP 080429Z AUTO 16008KT 9999 SCT004 BKN006 OVC009 18/16Q1019=
2020040805 - SABZ21 SBSP 080500
2020040805 - METAR SBSP 080500Z AUTO 16010KT 9999 OVC005 18/16 Q1019=
2020040805 - SPECI SBSP 080502Z AUTO 15010KT 7000 BKN004 OVC006 18/16 Q1019=
2020040805 - SPECI SBSP 080513Z AUTO 16009KT 4000 -RA BKN004 BKN006 OVC012 17/16Q1019=
2020040805 - SPECI SBSP 080525Z AUTO 16009KT 7000 -RA BKN004 BKN006 OVC013 17/16Q1019=
2020040805 - SPECI SBSP 080541Z AUTO 15010KT 9000 BKN005 BKN013 OVC022 17/16Q1019=
2020040805 - SPECI SBSP 080544Z AUTO 15010KT 9999 BKN004 BKN013 OVC021 17/16Q1019=
2020040805 - SPECI SBSP 080558Z AUTO 16009KT 9999 FEW004 BKN006 OVC008 17/16Q1019=
2020040806 - SABZ21 SBSP 080600
2020040806 - METAR SBSP 080600Z AUTO 16009KT 9999 FEW004 BKN006 OVC008 17/16Q1019=
2020040806 - SPECI SBSP 080618Z AUTO 16009KT 9999 BKN006 OVC026 17/15 Q1019=
2020040806 - SPECI SBSP 080648Z AUTO 16010KT 9999 BKN005 OVC007 17/15 Q1019=
2020040806 - SPECI SBSP 080651Z AUTO 16011KT 9999 BKN004 OVC007 17/15 Q1019=
2020040807 - SABZ21 SBSP 080700
2020040807 - METAR SBSP 080700Z AUTO 16010KT 8000 -DZ BKN004 OVC007 17/15 Q1019=
2020040807 - SPECI SBSP 080709Z AUTO 15007KT 9999 -RA BKN005 OVC007 17/15 Q1019=
2020040807 - SPECI SBSP 080710Z AUTO 15007KT 9999 -RA BKN004 OVC006 17/15 Q1019=
2020040807 - SPECI SBSP 080725Z AUTO 16009KT 9999 BKN005 BKN008 OVC030 17/15Q1019=
2020040808 - SABZ21 SBSP 080800
2020040808 - METAR SBSP 080800Z AUTO 16007KT 9999 BKN006 BKN008 OVC032 17/15Q1019=
2020040808 - SPECI SBSP 080803Z AUTO 16008KT 9999 BKN005 BKN007 OVC012 17/15Q1019=
2020040808 - SPECI SBSP 080808Z AUTO 16008KT 9999 BKN004 BKN007 OVC009 17/15Q1019=
2020040808 - SPECI SBSP 080833Z AUTO 16006KT 9999 BKN004 OVC015 17/15 Q1019=
2020040808 - SPECI SBSP 080841Z AUTO 15007KT 9999 BKN004 OVC014 17/15 Q1019=
2020040809 - SABZ18 SBSP 080900
2020040809 - METAR SBSP 080900Z 16008KT 6000 BKN005 OVC013 17/15 Q1020=
2020040810 - SABZ18 SBSP 081000
2020040810 - METAR SBSP 081000Z 17009KT 8000 SCT005 OVC008 17/15 Q1020=
2020040811 - SABZ18 SBSP 081100
2020040811 - METAR SBSP 081100Z 15009KT 9999 BKN006 OVC009 17/15 Q1021=
2020040812 - SABZ18 SBSP 081200
2020040812 - METAR SBSP 081200Z 15009KT 9999 OVC008 17/15 Q1021=
2020040813 - SABZ18 SBSP 081300
2020040813 - METAR SBSP 081300Z 16008KT 9999 OVC009 18/14 Q1021=
2020040814 - SABZ18 SBSP 081400
2020040814 - METAR SBSP 081400Z 14009KT 9999 OVC011 18/15 Q1021=
2020040815 - SABZ18 SBSP 081500
2020040815 - METAR SBSP 081500Z 14006KT 9999 OVC012 19/15 Q1020=
2020040816 - SABZ18 SBSP 081600
2020040816 - METAR SBSP 081600Z 15009KT 9999 BKN012 OVC015 19/15 Q1020=
2020040817 - SABZ18 SBSP 081700
2020040817 - METAR SBSP 081700Z 16009KT 9999 OVC009 18/15 Q1019=
2020040818 - SABZ18 SBSP 081800
2020040818 - METAR SBSP 081800Z 15009KT 9999 OVC012 19/15 Q1019=
2020040819 - SABZ18 SBSP 081900
2020040819 - METAR SBSP 081900Z 17009KT 9999 BKN012 18/15 Q1018=
2020040820 - SABZ18 SBSP 082000
2020040820 - METAR SBSP 082000Z 15009KT 9999 BKN008 OVC013 17/15 Q1018=
2020040821 - SABZ18 SBSP 082100
2020040821 - METAR SBSP 082100Z 16008KT 9999 BKN009 BKN015 17/15 Q1019=
2020040822 - SABZ18 SBSP 082200
2020040822 - METAR SBSP 082200Z 15008KT 9999 BKN008 OVC011 16/14 Q1019=
2020040823 - SABZ18 SBSP 082300
2020040823 - METAR SBSP 082300Z 15008KT 9999 FEW005 BKN009 16/14 Q1019=
2020040900 - SABZ18 SBSP 090000
2020040900 - METAR SBSP 090000Z 16010KT 9999 FEW009 BKN013 16/14 Q1020=
2020040901 - SABZ18 SBSP 090100
2020040901 - METAR SBSP 090100Z 15008KT 9999 SCT013 15/13 Q1020=
2020040902 - SABZ18 SBSP 090200
2020040902 - METAR SBSP 090200Z 15005KT 9999 FEW013 15/13 Q1020=
2020040902 - SPECI SBSP 090205Z 16005KT 9999 FEW010 15/13 Q1020=
2020040903 - SABZ21 SBSP 090300
2020040903 - METAR SBSP 090300Z AUTO 16005KT 9999 FEW036 15/13 Q1019=
2020040904 - SABZ21 SBSP 090400
2020040904 - METAR SBSP 090400Z AUTO 15004KT 9999 FEW009 BKN024 BKN039 15/13Q1019=
2020040904 - SPECI SBSP 090432Z AUTO 14004KT 9999 FEW010 BKN013 OVC024 15/13Q1019=
2020040904 - SPECI SBSP 090453Z AUTO 14006KT 9999 SCT010 SCT013 OVC016 16/13Q1019=
2020040904 - SPECI SBSP 090454Z AUTO 14006KT 9999 SCT010 OVC014 16/13 Q1019=
2020040905 - SABZ21 SBSP 090500
2020040905 - METAR SBSP 090500Z AUTO 14006KT 9999 SCT010 OVC014 16/13 Q1019=
2020040905 - SPECI SBSP 090503Z AUTO 14005KT 9999 BKN009 BKN012 OVC015 15/13Q1019=
2020040905 - SPECI SBSP 090502Z AUTO 14005KT 9999 BKN009 OVC015 15/13 Q1019=
2020040905 - SPECI SBSP 090515Z AUTO 14005KT 9999 SCT009 BKN012 OVC018 16/13Q1019=
2020040905 - SPECI SBSP 090518Z AUTO 15005KT 9999 SCT008 BKN012 OVC014 16/13Q1019=
2020040905 - SPECI SBSP 090529Z AUTO 15005KT 9999 SCT008 BKN012 OVC036 16/14Q1019=
2020040905 - SPECI SBSP 090556Z AUTO 16007KT 9999 FEW009 BKN039 15/13 Q1019=
2020040906 - SABZ21 SBSP 090600
2020040906 - METAR SBSP 090600Z AUTO 16007KT 9999 FEW009 BKN039 15/13 Q1019=
2020040907 - SABZ21 SBSP 090700
2020040907 - METAR SBSP 090700Z AUTO 15006KT 9999 FEW007 SCT009 BKN037 15/13Q1018=
2020040908 - SABZ21 SBSP 090800
2020040908 - METAR SBSP 090800Z AUTO 15007KT 9999 FEW008 SCT039 15/12 Q1018=
2020040909 - SABZ18 SBSP 090900
2020040909 - METAR SBSP 090900Z 14005KT 9999 FEW033 14/12 Q1019=
2020040910 - SABZ18 SBSP 091000
2020040910 - METAR SBSP 091000Z 16005KT CAVOK 14/11 Q1019=
2020040911 - SABZ18 SBSP 091100
2020040911 - METAR SBSP 091100Z 13006KT CAVOK 16/09 Q1020=
2020040912 - SABZ18 SBSP 091200
2020040912 - METAR SBSP 091200Z 13006KT 9999 FEW030 17/10 Q1020=
2020040913 - SABZ18 SBSP 091300
2020040913 - METAR SBSP 091300Z 13008KT 9999 SCT028 18/11 Q1020=
2020040914 - SABZ18 SBSP 091400
2020040914 - METAR SBSP 091400Z 12004KT 9999 FEW033 20/10 Q1020=
2020040915 - SABZ18 SBSP 091500
2020040915 - METAR SBSP 091500Z 15006KT 9999 FEW037 21/09 Q1019=
2020040916 - SABZ18 SBSP 091600
2020040916 - METAR SBSP 091600Z 12004KT 9999 FEW040 22/10 Q1018=
2020040917 - SABZ18 SBSP 091700
2020040917 - METAR SBSP 091700Z 18007KT 9999 FEW040 22/11 Q1017=
2020040918 - SABZ18 SBSP 091800
2020040918 - METAR SBSP 091800Z 17008KT 9999 FEW040 21/12 Q1017=
2020040919 - SABZ18 SBSP 091900
2020040919 - METAR SBSP 091900Z 18010KT 9999 FEW033 21/11 Q1017=
2020040920 - SABZ18 SBSP 092000
2020040920 - METAR SBSP 092000Z 15010KT 9999 FEW030 19/12 Q1018=
2020040921 - SABZ18 SBSP 092100
2020040921 - METAR SBSP 092100Z 17011KT CAVOK 17/11 Q1018=
2020040922 - SABZ18 SBSP 092200
2020040922 - METAR SBSP 092200Z 15010KT CAVOK 16/13 Q1018=
2020040923 - SABZ18 SBSP 092300
2020040923 - METAR SBSP 092300Z 16009KT 9999 FEW011 15/13 Q1019=
2020041000 - SABZ18 SBSP 100000
2020041000 - METAR SBSP 100000Z 16009KT 9999 FEW011 15/12 Q1019=
2020041001 - SABZ18 SBSP 100100
2020041001 - METAR SBSP 100100Z 16007KT 9999 BKN019 15/13 Q1019=
2020041002 - SABZ18 SBSP 100200
2020041002 - METAR SBSP 100200Z 15006KT 9999 FEW022 15/12 Q1020=
2020041002 - SPECI SBSP 100203Z 15005KT CAVOK 15/12 Q1019=
2020041003 - SABZ21 SBSP 100300
2020041003 - METAR SBSP 100300Z AUTO 16005KT CAVOK 14/12 Q1019=
2020041004 - SABZ21 SBSP 100400
2020041004 - METAR SBSP 100400Z AUTO 15005KT CAVOK 14/12 Q1019=
2020041005 - SABZ21 SBSP 100500
2020041005 - METAR SBSP 100500Z AUTO 16005KT CAVOK 14/12 Q1018=
2020041006 - SABZ21 SBSP 100600
2020041006 - METAR SBSP 100600Z AUTO 16003KT CAVOK 14/12 Q1018=
2020041007 - SABZ21 SBSP 100700
2020041007 - METAR SBSP 100700Z AUTO 16004KT CAVOK 14/12 Q1018=
2020041008 - SABZ21 SBSP 100800
2020041008 - METAR SBSP 100800Z AUTO 12002KT CAVOK 14/12 Q1018=
2020041009 - SABZ18 SBSP 100900
2020041009 - METAR SBSP 100900Z 10005KT CAVOK 14/12 Q1018=
2020041010 - SABZ18 SBSP 101000
2020041010 - METAR SBSP 101000Z 09004KT CAVOK 15/12 Q1019=
2020041011 - SABZ18 SBSP 101100
2020041011 - METAR SBSP 101100Z 07003KT CAVOK 17/12 Q1019=
2020041012 - SABZ18 SBSP 101200
2020041012 - METAR SBSP 101200Z 09004KT CAVOK 18/11 Q1020=
2020041013 - SABZ18 SBSP 101300
2020041013 - METAR SBSP 101300Z 13005KT CAVOK 20/10 Q1020=
2020041014 - SABZ18 SBSP 101400
2020041014 - METAR SBSP 101400Z 17005KT CAVOK 21/09 Q1019=
2020041015 - SABZ18 SBSP 101500
2020041015 - METAR SBSP 101500Z 13007KT CAVOK 22/09 Q1019=
2020041016 - SABZ18 SBSP 101600
2020041016 - METAR SBSP 101600Z 20007KT CAVOK 22/09 Q1018=
2020041017 - SABZ18 SBSP 101700
2020041017 - METAR SBSP 101700Z 18007KT 9999 FEW033 23/10 Q1018=
2020041018 - SABZ18 SBSP 101800
2020041018 - METAR SBSP 101800Z 19007KT 9999 FEW047 23/12 Q1017=
2020041019 - SABZ18 SBSP 101900
2020041019 - METAR SBSP 101900Z 15011KT 9999 FEW040 22/12 Q1017=
2020041020 - SABZ18 SBSP 102000
2020041020 - METAR SBSP 102000Z 16009KT CAVOK 21/12 Q1018=
2020041021 - SABZ18 SBSP 102100
2020041021 - METAR SBSP 102100Z 15010KT CAVOK 18/12 Q1018=
2020041022 - SABZ18 SBSP 102200
2020041022 - METAR SBSP 102200Z 16008KT 9999 FEW011 17/13 Q1018=
2020041023 - SABZ18 SBSP 102300
2020041023 - METAR SBSP 102300Z 15009KT 9999 BKN013 16/13 Q1019=
2020041100 - SABZ18 SBSP 110000
2020041100 - METAR SBSP 110000Z 15007KT 9999 BKN013 16/13 Q1019=
2020041101 - SABZ18 SBSP 110100
2020041101 - METAR SBSP 110100Z 14008KT 9999 BKN015 16/13 Q1020=
2020041102 - SABZ18 SBSP 110200
2020041102 - METAR SBSP 110200Z 13006KT 9999 FEW015 16/12 Q1020=
2020041102 - SPECI SBSP 110205Z 14006KT CAVOK 16/12 Q1019=
2020041102 - SPECI SBSP 110236Z AUTO 13005KT 9999 SCT012 BKN014 16/13 Q1019=
2020041103 - SABZ21 SBSP 110300
2020041103 - METAR SBSP 110300Z AUTO 12005KT 090V150 9999 SCT011 BKN015 BKN01816/13 Q1019=
2020041104 - SABZ21 SBSP 110400
2020041104 - METAR SBSP 110400Z AUTO 12005KT 090V150 9999 FEW017 16/13 Q1019=
2020041105 - SABZ21 SBSP 110500
2020041105 - METAR SBSP 110500Z AUTO 12006KT 070V140 9999 FEW012 16/13 Q1018=
2020041105 - SPECI SBSP 110509Z AUTO 12005KT 070V150 9999 FEW010 BKN013 16/13Q1018=
2020041105 - SPECI SBSP 110521Z AUTO 12005KT 090V150 9999 FEW011 16/13 Q1018=
2020041106 - SABZ21 SBSP 110600
2020041106 - METAR SBSP 110600Z AUTO 14004KT 100V170 9999 FEW010 16/13 Q1018=
2020041107 - SABZ21 SBSP 110700
2020041107 - METAR SBSP 110700Z AUTO 12004KT 100V160 CAVOK 16/12 Q1017=
2020041108 - SABZ21 SBSP 110800
2020041108 - METAR SBSP 110800Z AUTO 11004KT 070V150 CAVOK 16/12 Q1018=
2020041109 - SABZ18 SBSP 110900
2020041109 - METAR SBSP 110900Z 09004KT CAVOK 16/13 Q1018=
2020041110 - SABZ18 SBSP 111000
2020041110 - METAR SBSP 111000Z 14004KT CAVOK 16/13 Q1019=
2020041111 - SABZ18 SBSP 111100
2020041111 - METAR SBSP 111100Z 10004KT CAVOK 17/13 Q1020=
2020041112 - SABZ18 SBSP 111200
2020041112 - METAR SBSP 111200Z 12006KT 9999 FEW019 19/13 Q1020=
2020041113 - SABZ18 SBSP 111300
2020041113 - METAR SBSP 111300Z 14006KT 9999 BKN023 21/13 Q1020=
2020041114 - SABZ18 SBSP 111400
2020041114 - METAR SBSP 111400Z 13006KT 9999 BKN030 21/13 Q1020=
2020041115 - SABZ18 SBSP 111500
2020041115 - METAR SBSP 111500Z 17009KT 9999 BKN028 21/13 Q1019=
2020041116 - SABZ18 SBSP 111600
2020041116 - METAR SBSP 111600Z 15010KT 9999 BKN028 21/13 Q1019=
2020041117 - SABZ18 SBSP 111700
2020041117 - METAR SBSP 111700Z 15009KT 9999 BKN030 21/13 Q1019=
2020041118 - SABZ18 SBSP 111800
2020041118 - METAR SBSP 111800Z 16015KT 9999 FEW017 BKN040 19/14 Q1019=
2020041119 - SABZ18 SBSP 111900 CCA
2020041119 - METAR COR SBSP 111900Z 18012KT 9999 BKN016 19/14 Q1019=
2020041120 - SABZ18 SBSP 112000
2020041120 - METAR SBSP 112000Z 16009KT 9999 SCT015 BKN017 18/13 Q1020=
2020041121 - SABZ18 SBSP 112100
2020041121 - METAR SBSP 112100Z 16009KT 9999 BKN016 OVC018 17/14 Q1020=
2020041122 - SABZ18 SBSP 112200
2020041122 - METAR SBSP 112200Z 15010KT 9999 SCT011 OVC019 17/14 Q1020=
2020041123 - SABZ18 SBSP 112300
2020041123 - METAR SBSP 112300Z 16009KT 9999 BKN011 OVC013 17/13 Q1021=
2020041200 - SABZ18 SBSP 120000
2020041200 - METAR SBSP 120000Z 14009KT 9999 BKN009 OVC027 17/14 Q1021=
2020041201 - SABZ18 SBSP 120100
2020041201 - METAR SBSP 120100Z 12006KT 9999 BKN008 OVC019 17/14 Q1021=
2020041202 - SABZ18 SBSP 120200
2020041202 - METAR SBSP 120200Z 14007KT 9999 BKN013 OVC020 17/14 Q1021=
2020041202 - SPECI SBSP 120215Z 14007KT 9999 SCT011 BKN014 BKN023 16/13 Q1021=
2020041202 - SPECI SBSP 120245Z AUTO 16007KT 9999 FEW011 SCT014 BKN024 16/14Q1021=
2020041203 - SABZ21 SBSP 120300
2020041203 - METAR SBSP 120300Z AUTO 15007KT 9999 FEW011 SCT014 BKN024 16/13Q1021=
2020041203 - SPECI SBSP 120313Z AUTO 14006KT 9999 FEW011 BKN013 BKN020 16/13Q1021=
2020041203 - SPECI SBSP 120333Z AUTO 14007KT 9999 FEW011 SCT014 BKN023 16/13Q1021=
2020041204 - SABZ21 SBSP 120400
2020041204 - METAR SBSP 120400Z AUTO 14006KT 9999 FEW013 SCT017 BKN023 16/13Q1021=
2020041204 - SPECI SBSP 120405Z AUTO 13005KT 4700 BR FEW013 SCT017 BKN023 16/13Q1021=
2020041205 - SABZ21 SBSP 120500
2020041205 - METAR SBSP 120500Z AUTO 11005KT 3900 BR FEW012 OVC023 16/13 Q1020=
2020041206 - SABZ21 SBSP 120600
2020041206 - METAR SBSP 120600Z AUTO 14005KT 3900 BR FEW010 OVC024 16/13 Q1020=
2020041207 - SABZ21 SBSP 120700
2020041207 - METAR SBSP 120700Z AUTO 14006KT 3800 BR OVC023 16/13 Q1020=
2020041208 - SABZ21 SBSP 120800
2020041208 - METAR SBSP 120800Z AUTO 16007KT 3900 BR OVC022 16/13 Q1020=
2020041209 - SABZ18 SBSP 120900
2020041209 - METAR SBSP 120900Z 15008KT 9999 OVC020 17/12 Q1021=
2020041210 - SABZ18 SBSP 121000
2020041210 - METAR SBSP 121000Z 15007KT 9999 BKN025 16/13 Q1021=
2020041211 - SABZ18 SBSP 121100
2020041211 - METAR SBSP 121100Z 13007KT 9999 FEW013 BKN027 17/13 Q1022=
2020041212 - SABZ18 SBSP 121200
2020041212 - METAR SBSP 121200Z 12008KT 9999 BKN019 19/13 Q1022=
2020041213 - SABZ18 SBSP 121300
2020041213 - METAR SBSP 121300Z 12007KT 9999 BKN030 21/12 Q1023=
2020041214 - SABZ18 SBSP 121400
2020041214 - METAR SBSP 121400Z 16008KT 9999 BKN033 21/12 Q1023=
2020041215 - SABZ18 SBSP 121500
2020041215 - METAR SBSP 121500Z 13007KT 9999 BKN035 22/13 Q1022=
2020041216 - SABZ18 SBSP 121600
2020041216 - METAR SBSP 121600Z 16009KT 9999 BKN035 22/13 Q1021=
2020041217 - SABZ18 SBSP 121700
2020041217 - METAR SBSP 121700Z 17008KT 9999 SCT043 23/13 Q1021=
2020041218 - SABZ18 SBSP 121800
2020041218 - METAR SBSP 121800Z 15009KT 9999 SCT033 22/13 Q1020=
2020041219 - SABZ18 SBSP 121900
2020041219 - METAR SBSP 121900Z 16011KT 9999 SCT023 21/13 Q1020=
2020041220 - SABZ18 SBSP 122000
2020041220 - METAR SBSP 122000Z 16010KT 9999 FEW023 20/14 Q1021=
2020041221 - SABZ18 SBSP 122100
2020041221 - METAR SBSP 122100Z 16010KT 9999 SCT015 18/14 Q1021=
2020041222 - SABZ18 SBSP 122200
2020041222 - METAR SBSP 122200Z 15010KT 9999 SCT013 17/13 Q1021=
2020041223 - SABZ18 SBSP 122300
2020041223 - METAR SBSP 122300Z 16010KT 9999 BKN012 16/13 Q1022=
2020041300 - SABZ18 SBSP 130000
2020041300 - METAR SBSP 130000Z 14008KT 9999 BKN012 16/13 Q1022=
2020041301 - SABZ18 SBSP 130100
2020041301 - METAR SBSP 130100Z 13008KT 9999 BKN013 17/13 Q1022=
2020041302 - SABZ18 SBSP 130200
2020041302 - METAR SBSP 130200Z 12009KT 9999 FEW012 16/14 Q1022=
2020041302 - SPECI SBSP 130202Z 13008KT 9999 FEW010 16/13 Q1021=
2020041302 - SPECI SBSP 130233Z AUTO 14007KT 100V160 9999 BKN010 16/13 Q1021=
2020041303 - SABZ21 SBSP 130300
2020041303 - METAR SBSP 130300Z AUTO 13008KT 9999 BKN011 16/14 Q1021=
2020041303 - SPECI SBSP 130332Z AUTO 09006KT 060V130 9999 FEW009 16/13 Q1021=
2020041304 - SABZ21 SBSP 130400
2020041304 - METAR SBSP 130400Z AUTO 07005KT 040V100 CAVOK 16/13 Q1021=
2020041305 - SABZ21 SBSP 130500
2020041305 - METAR SBSP 130500Z AUTO 08007KT 050V110 CAVOK 16/12 Q1020=
2020041306 - SABZ21 SBSP 130600
2020041306 - METAR SBSP 130600Z AUTO 10005KT 070V130 CAVOK 16/12 Q1020=
2020041307 - SABZ21 SBSP 130700
2020041307 - METAR SBSP 130700Z AUTO 11003KT CAVOK 15/12 Q1020=
2020041308 - SABZ21 SBSP 130800
2020041308 - METAR SBSP 130800Z AUTO 08004KT 030V120 CAVOK 15/13 Q1020=
2020041308 - SPECI SBSP 130841Z AUTO 10003KT 070V160 9999 BKN009 15/13 Q1020=
2020041309 - SABZ18 SBSP 130900
2020041309 - METAR SBSP 130900Z 10002KT 9999 BKN010 15/13 Q1021=
2020041310 - SABZ18 SBSP 131000
2020041310 - METAR SBSP 131000Z 09005KT 9999 OVC010 16/13 Q1021=
2020041311 - SABZ18 SBSP 131100
2020041311 - METAR SBSP 131100Z 07006KT 9999 OVC010 17/13 Q1022=
2020041312 - SABZ18 SBSP 131200
2020041312 - METAR SBSP 131200Z 08006KT 9999 OVC012 17/14 Q1022=
2020041313 - SABZ18 SBSP 131300
2020041313 - METAR SBSP 131300Z 09007KT 9999 BKN015 18/14 Q1022=
2020041313 - SPECI SBSP 131339Z 04005KT 9999 FEW019 20/14 Q1022=
2020041314 - SABZ18 SBSP 131400
2020041314 - METAR SBSP 131400Z 09006KT 9999 FEW021 21/14 Q1021=
2020041315 - SABZ18 SBSP 131500
2020041315 - METAR SBSP 131500Z 14004KT CAVOK 22/14 Q1020=
2020041316 - SABZ18 SBSP 131600
2020041316 - METAR SBSP 131600Z 09002KT 9999 FEW033 24/12 Q1019=
2020041317 - SABZ18 SBSP 131700
2020041317 - METAR SBSP 131700Z 02003KT 9999 SCT040 25/13 Q1018=
2020041318 - SABZ18 SBSP 131800
2020041318 - METAR SBSP 131800Z 15006KT 9999 SCT035 24/14 Q1018=
2020041319 - SABZ18 SBSP 131900
2020041319 - METAR SBSP 131900Z 17011KT 9999 FEW027 22/15 Q1018=
2020041320 - SABZ18 SBSP 132000
2020041320 - METAR SBSP 132000Z 17011KT 9999 SCT017 20/15 Q1019=
2020041321 - SABZ18 SBSP 132100
2020041321 - METAR SBSP 132100Z 16012KT 9999 BKN016 19/15 Q1019=
2020041322 - SABZ18 SBSP 132200
2020041322 - METAR SBSP 132200Z 16008KT 9999 FEW012 18/15 Q1019=
2020041323 - SABZ18 SBSP 132300
2020041323 - METAR SBSP 132300Z 16006KT 9999 FEW011 17/14 Q1019=
2020041400 - SABZ18 SBSP 140000
2020041400 - METAR SBSP 140000Z 13004KT 9999 BKN011 18/15 Q1019=
2020041401 - SABZ18 SBSP 140100
2020041401 - METAR SBSP 140100Z 13003KT 9999 FEW012 17/14 Q1018=
2020041401 - SPECI SBSP 140140Z 11004KT 9999 BKN009 17/14 Q1018=
2020041402 - SABZ18 SBSP 140200
2020041402 - METAR SBSP 140200Z 09005KT 9999 BKN010 17/14 Q1018=
2020041402 - SPECI SBSP 140206Z 11005KT 070V130 9999 SCT010 SCT012 17/14 Q1017=
2020041403 - SABZ21 SBSP 140300
2020041403 - METAR SBSP 140300Z AUTO 09003KT 050V150 9999 FEW017 17/14 Q1016=
2020041403 - SPECI SBSP 140313Z AUTO 10003KT 070V130 9999 BKN012 17/14 Q1016=
2020041404 - SABZ21 SBSP 140400
2020041404 - METAR SBSP 140400Z AUTO 05005KT 020V090 9999 OVC012 18/15 Q1016=
2020041405 - SABZ21 SBSP 140500
2020041405 - METAR SBSP 140500Z AUTO 05007KT 020V090 9999 BKN011 18/15 Q1015=
2020041405 - SPECI SBSP 140547Z AUTO 05006KT 9999 FEW011 18/15 Q1014=
2020041406 - SABZ21 SBSP 140600
2020041406 - METAR SBSP 140600Z AUTO 05006KT 9999 FEW010 18/15 Q1014=
2020041406 - SPECI SBSP 140616Z AUTO 05006KT 9999 BKN009 18/15 Q1014=
2020041407 - SABZ21 SBSP 140700
2020041407 - METAR SBSP 140700Z AUTO 05006KT 9999 SCT008 18/15 Q1014=
2020041408 - SABZ21 SBSP 140800
2020041408 - METAR SBSP 140800Z AUTO 05004KT 020V080 9999 FEW008 17/15 Q1014=
2020041409 - SABZ18 SBSP 140900
2020041409 - METAR SBSP 140900Z 03003KT 9999 FEW008 17/15 Q1015=
2020041410 - SABZ18 SBSP 141000
2020041410 - METAR SBSP 141000Z 07005KT 9999 FEW006 18/15 Q1016=
2020041411 - SABZ18 SBSP 141100
2020041411 - METAR SBSP 141100Z 08002KT 9999 FEW009 19/16 Q1016=
2020041412 - SABZ18 SBSP 141200
2020041412 - METAR SBSP 141200Z 26002KT 9999 SCT025 20/16 Q1017=
2020041413 - SABZ18 SBSP 141300
2020041413 - METAR SBSP 141300Z 32003KT 9999 SCT033 22/16 Q1016=
2020041414 - SABZ18 SBSP 141400
2020041414 - METAR SBSP 141400Z 32009KT 9999 OVC021 22/16 Q1016=
2020041415 - SABZ18 SBSP 141500
2020041415 - METAR SBSP 141500Z 02010KT 9999 FEW017 21/16 Q1013=
2020041416 - SABZ18 SBSP 141600
2020041416 - METAR SBSP 141600Z 34011KT 9999 SCT025 22/16 Q1013=
2020041417 - SABZ18 SBSP 141700
2020041417 - METAR SBSP 141700Z 32014KT 9999 FEW021 22/14 Q1013=
2020041418 - SABZ18 SBSP 141800
2020041418 - METAR SBSP 141800Z 33012KT 9999 FEW021 22/14 Q1012=
2020041419 - SABZ18 SBSP 141900
2020041419 - METAR SBSP 141900Z 33011KT 9999 FEW021 22/14 Q1012=
2020041420 - SABZ18 SBSP 142000
2020041420 - METAR SBSP 142000Z 33012KT 9999 FEW015 22/14 Q1012=
2020041421 - SABZ18 SBSP 142100
2020041421 - METAR SBSP 142100Z 33009KT CAVOK 21/14 Q1012=
2020041422 - SABZ18 SBSP 142200
2020041422 - METAR SBSP 142200Z 33011KT CAVOK 20/14 Q1013=
2020041423 - SABZ18 SBSP 142300
2020041423 - METAR SBSP 142300Z 32007KT CAVOK 20/14 Q1014=
2020041500 - SABZ18 SBSP 150000
2020041500 - METAR SBSP 150000Z 33006KT CAVOK 19/14 Q1015=
2020041501 - SABZ18 SBSP 150100
2020041501 - METAR SBSP 150100Z 33006KT CAVOK 19/14 Q1015=
2020041502 - SABZ18 SBSP 150200
2020041502 - METAR SBSP 150200Z 33008KT 9999 FEW030 19/14 Q1015=
2020041502 - SPECI SBSP 150202Z 35007KT 9999 FEW033 19/14 Q1015=
2020041503 - SABZ21 SBSP 150300
2020041503 - METAR SBSP 150300Z AUTO 32005KT 290V350 9999 FEW019 BKN032 19/15Q1015=
2020041504 - SABZ21 SBSP 150400
2020041504 - METAR SBSP 150400Z AUTO 33007KT 9999 FEW013 18/15 Q1015=
2020041504 - SPECI SBSP 150416Z AUTO 33006KT 9999 BKN013 18/15 Q1015=
2020041505 - SABZ21 SBSP 150500
2020041505 - METAR SBSP 150500Z AUTO 33005KT 9999 BKN011 18/15 Q1014=
2020041505 - SPECI SBSP 150508Z AUTO 34006KT 9999 BKN010 BKN012 18/15 Q1014=
2020041505 - SPECI SBSP 150526Z AUTO 32006KT 9999 SCT010 18/15 Q1014=
2020041506 - SABZ21 SBSP 150600
2020041506 - METAR SBSP 150600Z AUTO 33007KT 9999 BKN049 18/15 Q1014=
2020041507 - SABZ21 SBSP 150700
2020041507 - METAR SBSP 150700Z AUTO 32005KT 9999 FEW038 18/15 Q1014=
2020041508 - SABZ21 SBSP 150800
2020041508 - METAR SBSP 150800Z AUTO 33005KT CAVOK 18/15 Q1015=
2020041509 - SABZ18 SBSP 150900
2020041509 - METAR SBSP 150900Z 33005KT CAVOK 18/15 Q1016=
2020041510 - SABZ18 SBSP 151000
2020041510 - METAR SBSP 151000Z 33007KT 9999 BKN015 18/15 Q1017=
2020041511 - SABZ18 SBSP 151100
2020041511 - METAR SBSP 151100Z 33007KT 9999 BKN011 19/16 Q1017=
2020041512 - SABZ18 SBSP 151200
2020041512 - METAR SBSP 151200Z 32005KT 9999 BKN021 20/15 Q1018=
2020041513 - SABZ18 SBSP 151300
2020041513 - METAR SBSP 151300Z 31008KT 9999 SCT023 21/14 Q1018=
2020041514 - SABZ18 SBSP 151400
2020041514 - METAR SBSP 151400Z 34011KT 9999 BKN033 23/14 Q1018=
2020041515 - SABZ18 SBSP 151500
2020041515 - METAR SBSP 151500Z 30008KT 9999 BKN040 24/14 Q1017=
2020041516 - SABZ18 SBSP 151600
2020041516 - METAR SBSP 151600Z 32012KT 9999 SCT043 24/13 Q1017=
2020041517 - SABZ18 SBSP 151700
2020041517 - METAR SBSP 151700Z 33014KT 9999 SCT045 25/13 Q1017=
2020041518 - SABZ18 SBSP 151800
2020041518 - METAR SBSP 151800Z 32011KT 9999 FEW045 24/12 Q1016=
2020041519 - SABZ18 SBSP 151900
2020041519 - METAR SBSP 151900Z 32012KT 9999 FEW045 24/13 Q1016=
2020041520 - SABZ18 SBSP 152000
2020041520 - METAR SBSP 152000Z 31009KT CAVOK 23/13 Q1017=
2020041521 - SABZ18 SBSP 152100
2020041521 - METAR SBSP 152100Z 32008KT CAVOK 22/13 Q1017=
2020041522 - SABZ18 SBSP 152200
2020041522 - METAR SBSP 152200Z 31006KT CAVOK 22/14 Q1018=
2020041523 - SABZ18 SBSP 152300
2020041523 - METAR SBSP 152300Z 32006KT CAVOK 21/14 Q1019=
2020041600 - SABZ18 SBSP 160000
2020041600 - METAR SBSP 160000Z 31005KT CAVOK 21/14 Q1020=
2020041601 - SABZ18 SBSP 160100
2020041601 - METAR SBSP 160100Z 33004KT CAVOK 20/14 Q1020=
2020041602 - SABZ18 SBSP 160200
2020041602 - METAR SBSP 160200Z 33003KT CAVOK 20/14 Q1020=
2020041602 - SPECI SBSP 160205Z 32003KT 9999 FEW048 20/14 Q1019=
2020041603 - SABZ21 SBSP 160300
2020041603 - METAR SBSP 160300Z AUTO 31002KT CAVOK 19/14 Q1019=
2020041604 - SABZ21 SBSP 160400
2020041604 - METAR SBSP 160400Z AUTO 23003KT CAVOK 19/14 Q1019=
2020041605 - SABZ21 SBSP 160500
2020041605 - METAR SBSP 160500Z AUTO VRB02KT 9999 FEW036 18/14 Q1019=
2020041606 - SABZ21 SBSP 160600
2020041606 - METAR SBSP 160600Z AUTO 00000KT 9999 SCT037 17/14 Q1019=
2020041607 - SABZ21 SBSP 160700
2020041607 - METAR SBSP 160700Z AUTO 19002KT CAVOK 16/13 Q1019=
2020041608 - SABZ21 SBSP 160800
2020041608 - METAR SBSP 160800Z AUTO 20002KT 9999 FEW033 16/14 Q1020=
2020041609 - SABZ18 SBSP 160904
2020041609 - METAR SBSP 160900Z 20004KT 9999 OVC033 17/13 Q1020=
2020041610 - SABZ18 SBSP 161000
2020041610 - METAR SBSP 161000Z 14004KT 9999 BKN037 16/14 Q1021=
2020041611 - SABZ18 SBSP 161100
2020041611 - METAR SBSP 161100Z 17006KT 130V190 9999 BKN037 18/15 Q1022=
2020041611 - SPECI SBSP 161136Z 14004KT 9999 BKN013 OVC037 18/15 Q1023=
2020041612 - SABZ18 SBSP 161200
2020041612 - METAR SBSP 161200Z 12004KT 090V180 9999 FEW013 BKN047 19/15 Q1023=
2020041613 - SABZ18 SBSP 161300
2020041613 - METAR SBSP 161300Z VRB02KT 9999 BKN047 20/15 Q1024=
2020041614 - SABZ18 SBSP 161400
2020041614 - METAR SBSP 161400Z VRB03KT 9999 BKN047 22/13 Q1023=
2020041615 - SABZ18 SBSP 161500
2020041615 - METAR SBSP 161500Z VRB05KT 9999 BKN047 23/14 Q1023=
2020041616 - SABZ18 SBSP 161600
2020041616 - METAR SBSP 161600Z 30005KT 240V360 9999 SCT040 25/14 Q1022=
2020041617 - SABZ18 SBSP 161700
2020041617 - METAR SBSP 161700Z 35011KT 300V020 9999 FEW047 26/13 Q1021=
2020041618 - SABZ18 SBSP 161800
2020041618 - METAR SBSP 161800Z 33009KT CAVOK 25/13 Q1021=
2020041619 - SABZ18 SBSP 161900
2020041619 - METAR SBSP 161900Z 16011KT 9999 SCT048 21/16 Q1021=
2020041620 - SABZ18 SBSP 162000
2020041620 - METAR SBSP 162000Z 15010KT 9999 SCT006 SCT011 19/16 Q1022=
2020041620 - SPECI SBSP 162010Z 15010KT 9999 BKN007 BKN009 19/16 Q1022=
2020041621 - SABZ18 SBSP 162100
2020041621 - METAR SBSP 162100Z 17009KT 9000 BKN005 OVC009 18/16 Q1022=
2020041622 - SABZ18 SBSP 162200
2020041622 - METAR SBSP 162200Z 16007KT 9000 BKN005 OVC008 18/15 Q1023=
2020041623 - SABZ18 SBSP 162300
2020041623 - METAR SBSP 162300Z 15008KT 9000 BKN007 OVC009 17/15 Q1024=
2020041700 - SABZ18 SBSP 170000
2020041700 - METAR SBSP 170000Z 16006KT 9999 FEW007 BKN009 17/14 Q1024=
2020041701 - SABZ18 SBSP 170100
2020041701 - METAR SBSP 170100Z 16006KT 9999 SCT008 OVC009 17/14 Q1025=
2020041702 - SABZ18 SBSP 170200
2020041702 - METAR SBSP 170200Z 15007KT 9999 BKN007 OVC009 17/14 Q1025=
2020041702 - SPECI SBSP 170201Z 14005KT 100V170 9999 BKN007 OVC009 17/14 Q1025=
2020041702 - SPECI SBSP 170228Z AUTO 14006KT 9999 OVC008 17/14 Q1025=
2020041703 - SABZ21 SBSP 170300
2020041703 - METAR SBSP 170300Z AUTO 14003KT 090V170 9999 BKN008 OVC011 17/14Q1025=
2020041703 - SPECI SBSP 170313Z AUTO 12004KT 9999 BKN010 BKN013 17/14 Q1024=
2020041703 - SPECI SBSP 170341Z AUTO 14006KT 9999 BKN011 17/14 Q1024=
2020041704 - SABZ21 SBSP 170400
2020041704 - METAR SBSP 170400Z AUTO 13007KT 9999 BKN011 17/14 Q1024=
2020041704 - SPECI SBSP 170437Z AUTO 14005KT 100V160 9999 SCT011 BKN015 16/13Q1024=
2020041704 - SPECI SBSP 170438Z AUTO 13005KT 100V160 9999 BKN011 16/13 Q1024=
2020041704 - SPECI SBSP 170449Z AUTO 13006KT 9999 FEW011 SCT014 BKN018 16/13Q1024=
2020041705 - SABZ21 SBSP 170500
2020041705 - METAR SBSP 170500Z AUTO 12005KT 9999 FEW011 SCT014 BKN019 16/13Q1024=
2020041705 - SPECI SBSP 170526Z AUTO 14005KT 9999 BKN014 BKN016 16/13 Q1024=
2020041705 - SPECI SBSP 170544Z AUTO 13006KT 9999 BKN015 16/13 Q1024=
2020041706 - SABZ21 SBSP 170600
2020041706 - METAR SBSP 170600Z AUTO 13006KT 9999 FEW013 BKN015 16/13 Q1024=
2020041706 - SPECI SBSP 170605Z AUTO 13006KT 9999 BKN014 16/13 Q1024=
2020041706 - SPECI SBSP 170616Z AUTO 13006KT 9999 FEW013 BKN015 16/13 Q1024=
2020041706 - SPECI SBSP 170618Z AUTO 13005KT 9999 BKN014 BKN018 16/13 Q1024=
2020041706 - SPECI SBSP 170650Z AUTO 13005KT 9999 FEW013 SCT016 BKN019 16/13Q1024=
2020041707 - SABZ21 SBSP 170700
2020041707 - METAR SBSP 170700Z AUTO 12005KT 9999 FEW013 BKN015 BKN020 16/13Q1024=
2020041707 - SPECI SBSP 170756Z AUTO 16007KT 9999 BKN010 BKN017 16/13 Q1024=
2020041708 - SABZ21 SBSP 170800
2020041708 - METAR SBSP 170800Z AUTO 16007KT 9999 BKN010 BKN017 16/13 Q1024=
2020041708 - SPECI SBSP 170819Z AUTO 16007KT 9999 SCT009 SCT014 BKN019 16/13Q1024=
2020041709 - SABZ18 SBSP 170900
2020041709 - METAR SBSP 170900Z 16006KT 9999 SCT009 BKN019 16/14 Q1024=
2020041710 - SABZ18 SBSP 171000
2020041710 - METAR SBSP 171000Z 16006KT 9999 FEW009 SCT011 BKN021 16/14 Q1025=
2020041711 - SABZ18 SBSP 171100
2020041711 - METAR SBSP 171100Z 15009KT 9999 FEW011 BKN023 17/14 Q1025=
2020041712 - SABZ18 SBSP 171200
2020041712 - METAR SBSP 171200Z 15009KT 9999 FEW011 SCT015 BKN020 18/14 Q1026=
2020041713 - SABZ18 SBSP 171300
2020041713 - METAR SBSP 171300Z 17008KT 140V200 9999 SCT013 BKN018 OVC030 19/14 Q1026=
2020041714 - SABZ18 SBSP 171400
2020041714 - METAR SBSP 171400Z 16010KT 9999 SCT015 BKN017 OVC030 19/14 Q1026=
2020041715 - SABZ18 SBSP 171500
2020041715 - METAR SBSP 171500Z 14009KT 9999 BKN017 BKN021 OVC033 20/14 Q1026=
2020041716 - SABZ18 SBSP 171600
2020041716 - METAR SBSP 171600Z 15010KT 9999 FEW019 SCT021 OVC025 19/13 Q1025=
2020041717 - SABZ18 SBSP 171700
2020041717 - METAR SBSP 171700Z 15010KT 9999 OVC023 20/14 Q1024=
2020041718 - SABZ18 SBSP 171800
2020041718 - METAR SBSP 171800Z 15012KT 120V190 9999 SCT017 BKN021 19/14 Q1024=
2020041719 - SABZ18 SBSP 171900
2020041719 - METAR SBSP 171900Z 16011KT 9999 OVC019 18/13 Q1024=
2020041720 - SABZ18 SBSP 172000
2020041720 - METAR SBSP 172000Z 16012KT 9999 SCT013 BKN017 17/13 Q1024=
2020041721 - SABZ18 SBSP 172100
2020041721 - METAR SBSP 172100Z 16011KT 9999 OVC015 17/13 Q1025=
2020041722 - SABZ18 SBSP 172200
2020041722 - METAR SBSP 172200Z 16013KT 9999 SCT015 BKN017 17/12 Q1025=
2020041723 - SABZ18 SBSP 172300
2020041723 - METAR SBSP 172300Z 15012KT 9999 OVC015 16/13 Q1025=
2020041800 - SABZ18 SBSP 180000
2020041800 - METAR SBSP 180000Z 15009KT 9999 BKN013 BKN037 16/13 Q1026=
2020041801 - SABZ18 SBSP 180100
2020041801 - METAR SBSP 180100Z 16008KT 9999 SCT013 BKN037 16/13 Q1026=
2020041801 - SPECI SBSP 180120Z 16008KT 9999 BKN011 BKN040 16/13 Q1026=
2020041802 - SABZ18 SBSP 180200
2020041802 - METAR SBSP 180200Z 16008KT 9999 SCT011 16/13 Q1025=
2020041802 - SPECI SBSP 180201Z 16010KT 9999 FEW010 16/13 Q1025=
2020041803 - SABZ21 SBSP 180300
2020041803 - METAR SBSP 180300Z AUTO 15008KT 9999 FEW009 16/13 Q1025=
2020041804 - SABZ21 SBSP 180400
2020041804 - METAR SBSP 180400Z AUTO 16008KT 9999 FEW027 15/13 Q1024=
2020041805 - SABZ21 SBSP 180500
2020041805 - METAR SBSP 180500Z AUTO 16009KT 9999 FEW009 BKN020 BKN032 16/14Q1024=
2020041806 - SABZ21 SBSP 180600
2020041806 - METAR SBSP 180600Z AUTO 17011KT 9999 FEW009 BKN032 16/13 Q1024=
2020041807 - SABZ21 SBSP 180700
2020041807 - METAR SBSP 180700Z AUTO 16007KT 9999 FEW009 15/13 Q1023=
2020041808 - SABZ21 SBSP 180800
2020041808 - METAR SBSP 180800Z AUTO 15005KT 9999 FEW029 14/12 Q1024=
2020041809 - SABZ18 SBSP 180900
2020041809 - METAR SBSP 180900Z 09004KT 060V120 9999 FEW008 15/13 Q1024=
2020041810 - SABZ18 SBSP 181000
2020041810 - METAR SBSP 181000Z 13005KT 9999 SCT007 15/13 Q1025=
2020041811 - SABZ18 SBSP 181100
2020041811 - METAR SBSP 181100Z 15006KT 9999 FEW009 16/14 Q1026=
2020041812 - SABZ18 SBSP 181200
2020041812 - METAR SBSP 181200Z 13007KT 9999 SCT015 18/14 Q1026=
2020041813 - SABZ18 SBSP 181300
2020041813 - METAR SBSP 181300Z 14006KT 090V170 9999 BKN019 19/13 Q1026=
2020041814 - SABZ18 SBSP 181400
2020041814 - METAR SBSP 181400Z 14007KT 080V190 9999 BKN027 22/14 Q1026=
2020041815 - SABZ18 SBSP 181500
2020041815 - METAR SBSP 181500Z 15007KT 100V170 9999 BKN027 21/13 Q1025=
2020041816 - SABZ18 SBSP 181600
2020041816 - METAR SBSP 181600Z 14010KT 9999 SCT033 22/13 Q1025=
2020041817 - SABZ18 SBSP 181700
2020041817 - METAR SBSP 181700Z 16010KT 9999 FEW033 23/14 Q1024=
2020041818 - SABZ18 SBSP 181800
2020041818 - METAR SBSP 181800Z 17012KT 9999 FEW023 22/14 Q1024=
2020041819 - SABZ18 SBSP 181900
2020041819 - METAR SBSP 181900Z 16013KT 9999 SCT009 SCT013 BKN017 19/15 Q1024=
2020041820 - SABZ18 SBSP 182000
2020041820 - METAR SBSP 182000Z 16013KT 9999 BKN011 BKN013 18/14 Q1024=
2020041821 - SABZ18 SBSP 182100
2020041821 - METAR SBSP 182100Z 16012KT 9999 BKN009 OVC011 17/15 Q1025=
2020041822 - SABZ18 SBSP 182200
2020041822 - METAR SBSP 182200Z 15010KT 9999 FEW009 SCT013 OVC015 17/14 Q1025=
2020041823 - SABZ18 SBSP 182300
2020041823 - METAR SBSP 182300Z 15011KT 9999 SCT011 BKN013 OVC017 17/14 Q1025=
2020041900 - SABZ18 SBSP 190000
2020041900 - METAR SBSP 190000Z 15009KT 9999 SCT015 16/12 Q1026=
2020041901 - SABZ18 SBSP 190100
2020041901 - METAR SBSP 190100Z 14007KT 9999 SCT013 16/13 Q1025=
2020041902 - SABZ18 SBSP 190200
2020041902 - METAR SBSP 190200Z 12005KT 9999 SCT011 SCT013 16/13 Q1025=
2020041902 - SPECI SBSP 190201Z 12006KT 9999 SCT010 BKN012 16/13 Q1025=
2020041902 - SPECI SBSP 190239Z AUTO 12005KT 090V150 9999 BKN010 OVC012 16/14Q1025=
2020041903 - SABZ21 SBSP 190300
2020041903 - METAR SBSP 190300Z AUTO 12006KT 090V150 9999 BKN010 OVC012 17/14Q1025=
2020041903 - SPECI SBSP 190334Z AUTO 13007KT 9999 FEW010 OVC012 17/14 Q1025=
2020041904 - SABZ21 SBSP 190400
2020041904 - METAR SBSP 190400Z AUTO 12006KT 070V150 9999 OVC012 17/13 Q1025=
2020041905 - SABZ21 SBSP 190500
2020041905 - METAR SBSP 190500Z AUTO 12005KT 080V150 9999 SCT012 BKN014 OVC01717/13 Q1024=
2020041905 - SPECI SBSP 190505Z AUTO 11005KT 080V140 9999 BKN012 BKN014 17/13Q1024=
2020041905 - SPECI SBSP 190520Z AUTO 12006KT 9999 SCT013 BKN015 BKN040 17/13Q1024=
2020041906 - SABZ21 SBSP 190600
2020041906 - METAR SBSP 190600Z AUTO 11004KT 9999 FEW014 16/13 Q1024=
2020041907 - SABZ21 SBSP 190700
2020041907 - METAR SBSP 190700Z AUTO 13004KT 9999 BKN017 16/13 Q1024=
2020041908 - SABZ21 SBSP 190800
2020041908 - METAR SBSP 190800Z AUTO 14004KT CAVOK 15/13 Q1024=
2020041909 - SABZ18 SBSP 190900
2020041909 - METAR SBSP 190900Z 15005KT 9999 FEW037 14/12 Q1024=
2020041910 - SABZ18 SBSP 191000
2020041910 - METAR SBSP 191000Z 13004KT CAVOK 15/13 Q1025=
2020041911 - SABZ18 SBSP 191100
2020041911 - METAR SBSP 191100Z 12006KT CAVOK 17/14 Q1025=
2020041912 - SABZ18 SBSP 191200
2020041912 - METAR SBSP 191200Z 08007KT 040V120 CAVOK 19/13 Q1025=
2020041913 - SABZ18 SBSP 191300
2020041913 - METAR SBSP 191300Z 09006KT 040V130 9999 SCT023 21/14 Q1026=
2020041914 - SABZ18 SBSP 191400
2020041914 - METAR SBSP 191400Z 11007KT 070V150 9999 SCT027 21/13 Q1025=
2020041915 - SABZ18 SBSP 191500
2020041915 - METAR SBSP 191500Z 12008KT 070V160 9999 SCT033 22/12 Q1024=
2020041916 - SABZ18 SBSP 191600
2020041916 - METAR SBSP 191600Z 11005KT 060V150 9999 FEW033 SCT040 24/12 Q1024=
2020041917 - SABZ18 SBSP 191700
2020041917 - METAR SBSP 191700Z 15011KT 130V190 9999 SCT027 BKN050 22/14 Q1023=
2020041918 - SABZ18 SBSP 191800
2020041918 - METAR SBSP 191800Z 17011KT 140V210 9999 SCT027 22/14 Q1023=
2020041919 - SABZ18 SBSP 191900
2020041919 - METAR SBSP 191900Z 16013KT 130V190 9999 SCT023 21/15 Q1023=
2020041920 - SABZ18 SBSP 192000
2020041920 - METAR SBSP 192000Z 17012KT 9999 SCT019 20/14 Q1023=
2020041921 - SABZ18 SBSP 192100
2020041921 - METAR SBSP 192100Z 17013KT 9999 BKN015 18/15 Q1023=
2020041922 - SABZ18 SBSP 192200
2020041922 - METAR SBSP 192200Z 16010KT 9999 BKN013 18/15 Q1023=
2020041923 - SABZ18 SBSP 192300
2020041923 - METAR SBSP 192300Z 16010KT 9999 OVC011 18/15 Q1024=
2020041923 - SPECI SBSP 192330Z 13008KT 9999 SCT011 BKN021 18/15 Q1024=
2020042000 - SABZ18 SBSP 200000
2020042000 - METAR SBSP 200000Z 13008KT 9999 BKN015 BKN027 18/14 Q1024=
2020042001 - SABZ18 SBSP 200100
2020042001 - METAR SBSP 200100Z 13007KT 9999 SCT009 BKN023 17/14 Q1024=
2020042002 - SABZ18 SBSP 200200
2020042002 - METAR SBSP 200200Z 14006KT 9999 SCT013 BKN027 18/14 Q1024=
2020042002 - SPECI SBSP 200201Z 16008KT 9999 FEW012 OVC022 17/14 Q1024=
2020042003 - SABZ21 SBSP 200300
2020042003 - METAR SBSP 200300Z AUTO 15006KT 9999 FEW011 SCT026 BKN031 17/14Q1024=
2020042004 - SABZ21 SBSP 200400
2020042004 - METAR SBSP 200400Z AUTO 13006KT 9999 BKN036 17/14 Q1023=
2020042005 - SABZ21 SBSP 200500
2020042005 - METAR SBSP 200500Z AUTO 14005KT CAVOK 16/13 Q1023=
2020042006 - SABZ21 SBSP 200600
2020042006 - METAR SBSP 200600Z AUTO 14004KT 9999 FEW010 15/13 Q1022=
2020042007 - SABZ21 SBSP 200700
2020042007 - METAR SBSP 200700Z AUTO 14004KT CAVOK 15/13 Q1022=
2020042008 - SABZ21 SBSP 200800
2020042008 - METAR SBSP 200800Z AUTO 16004KT 9999 FEW042 15/13 Q1022=
2020042009 - SABZ18 SBSP 200900
2020042009 - METAR SBSP 200900Z 15003KT CAVOK 14/12 Q1023=
2020042010 - SABZ18 SBSP 201000
2020042010 - METAR SBSP 201000Z 15003KT CAVOK 15/13 Q1024=
2020042011 - SABZ18 SBSP 201100
2020042011 - METAR SBSP 201100Z 12004KT 090V160 9999 FEW017 17/14 Q1024=
2020042012 - SABZ18 SBSP 201200
2020042012 - METAR SBSP 201200Z 08005KT 040V130 9999 BKN017 19/14 Q1024=
2020042013 - SABZ18 SBSP 201300
2020042013 - METAR SBSP 201300Z 12007KT 070V160 9999 BKN019 20/13 Q1024=
2020042014 - SABZ18 SBSP 201400
2020042014 - METAR SBSP 201400Z 11006KT 030V190 9999 SCT023 21/13 Q1024=
2020042015 - SABZ18 SBSP 201500
2020042015 - METAR SBSP 201500Z VRB03KT 9999 SCT040 23/13 Q1023=
2020042016 - SABZ18 SBSP 201600
2020042016 - METAR SBSP 201600Z VRB04KT 9999 SCT043 24/12 Q1022=
2020042017 - SABZ18 SBSP 201700
2020042017 - METAR SBSP 201700Z 19008KT 140V220 9999 SCT043 24/14 Q1022=
2020042018 - SABZ18 SBGR 201800
2020042018 - METAR SBSP 201800Z 15006KT 090V190 9999 SCT036 23/14 Q1021=
2020042019 - SABZ18 SBGR 201900
2020042019 - METAR SBSP 201900Z 15011KT 9999 FEW030 22/15 Q1021=
2020042020 - SABZ18 SBSP 202000
2020042020 - METAR SBSP 202000Z 16013KT CAVOK 20/15 Q1021=
2020042021 - SABZ18 SBSP 202100
2020042021 - METAR SBSP 202100Z 17010KT 9999 SCT013 SCT017 19/14 Q1022=
2020042022 - SABZ18 SBSP 202200
2020042022 - METAR SBSP 202200Z 15010KT 9999 BKN013 OVC015 18/14 Q1022=
2020042023 - SABZ18 SBSP 202300
2020042023 - METAR SBSP 202300Z 16007KT 9999 SCT013 BKN015 18/14 Q1022=
2020042100 - SABZ18 SBSP 210000
2020042100 - METAR SBSP 210000Z 16006KT 9999 SCT011 SCT013 BKN015 18/15 Q1023=
2020042101 - SABZ18 SBSP 210100
2020042101 - METAR SBSP 210100Z 13007KT 9999 SCT011 SCT017 17/14 Q1023=
2020042102 - SABZ18 SBSP 210200
2020042102 - METAR SBSP 210200Z 14006KT 9999 BKN014 17/14 Q1023=
2020042102 - SPECI SBSP 210201Z 12006KT 9999 BKN014 17/14 Q1022=
2020042102 - SPECI SBSP 210218Z AUTO 11005KT 080V150 9999 FEW012 BKN015 17/13Q1022=
2020042103 - SABZ21 SBSP 210300
2020042103 - METAR SBSP 210300Z AUTO 14004KT 9999 FEW014 16/14 Q1022=
2020042103 - SPECI SBSP 210327Z AUTO 09003KT 040V140 9999 BKN012 17/14 Q1022=
2020042104 - SABZ21 SBSP 210400
2020042104 - METAR SBSP 210400Z AUTO 11005KT 9999 BKN012 17/14 Q1022=
2020042104 - SPECI SBSP 210442Z AUTO 07003KT 020V120 9999 FEW011 SCT013 17/13Q1021=
2020042105 - SABZ21 SBSP 210500
2020042105 - METAR SBSP 210500Z AUTO 05004KT 020V110 9999 FEW011 17/13 Q1021=
2020042106 - SABZ21 SBSP 210600
2020042106 - METAR SBSP 210600Z AUTO 16002KT CAVOK 16/13 Q1021=
2020042107 - SABZ21 SBSP 210700
2020042107 - METAR SBSP 210700Z AUTO 15002KT CAVOK 15/13 Q1021=
2020042108 - SABZ21 SBSP 210800
2020042108 - METAR SBSP 210800Z AUTO 16002KT CAVOK 15/13 Q1021=
2020042109 - SABZ18 SBSP 210900
2020042109 - METAR SBSP 210900Z 16003KT CAVOK 15/13 Q1021=
2020042110 - SABZ18 SBSP 211000
2020042110 - METAR SBSP 211000Z 13002KT CAVOK 15/14 Q1022=
2020042111 - SABZ18 SBSP 211100
2020042111 - METAR SBSP 211100Z VRB02KT CAVOK 18/14 Q1022=
2020042112 - SABZ18 SBSP 211200
2020042112 - METAR SBSP 211200Z 04005KT 010V100 CAVOK 19/14 Q1023=
2020042113 - SABZ18 SBSP 211300
2020042113 - METAR SBSP 211300Z 05005KT 360V100 CAVOK 20/14 Q1023=
2020042114 - SABZ18 SBSP 211400
2020042114 - METAR SBSP 211400Z 05005KT 360V090 CAVOK 22/14 Q1022=
2020042115 - SABZ18 SBSP 211500
2020042115 - METAR SBSP 211500Z 06004KT 330V110 CAVOK 24/12 Q1021=
2020042116 - SABZ18 SBSP 211600
2020042116 - METAR SBSP 211600Z VRB03KT CAVOK 25/11 Q1020=
2020042117 - SABZ18 SBSP 211700
2020042117 - METAR SBSP 211700Z VRB04KT CAVOK 25/10 Q1019=
2020042118 - SABZ18 SBSP 211800
2020042118 - METAR SBSP 211800Z 16012KT CAVOK 23/15 Q1019=
2020042119 - SABZ18 SBSP 211900
2020042119 - METAR SBSP 211900Z 17011KT 9999 FEW021 22/15 Q1019=
2020042120 - SABZ18 SBSP 212000
2020042120 - METAR SBSP 212000Z 17013KT 9999 FEW017 SCT019 20/15 Q1019=
2020042121 - SABZ18 SBSP 212100
2020042121 - METAR SBSP 212100Z 17009KT 140V200 9999 SCT013 BKN023 19/15 Q1020=
2020042121 - SPECI SBSP 212144Z 19008KT 9999 BKN013 BKN027 19/15 Q1020=
2020042122 - SABZ18 SBSP 212200
2020042122 - METAR SBSP 212200Z 18007KT 9999 BKN011 BKN027 19/15 Q1020=
2020042123 - SABZ18 SBSP 212300
2020042123 - METAR SBSP 212300Z 16007KT 9999 FEW011 SCT013 18/15 Q1021=
2020042200 - SABZ18 SBSP 220000
2020042200 - METAR SBSP 220000Z 16006KT 9999 FEW009 SCT013 17/15 Q1021=
2020042201 - SABZ18 SBSP 220100
2020042201 - METAR SBSP 220100Z 15006KT 9999 SCT017 17/14 Q1021=
2020042202 - SABZ18 SBSP 220200
2020042202 - METAR SBSP 220200Z 13003KT 9999 FEW015 17/14 Q1022=
2020042202 - SPECI SBSP 220201Z 13004KT 9999 FEW014 17/14 Q1021=
2020042203 - SABZ21 SBSP 220300
2020042203 - METAR SBSP 220300Z AUTO 12003KT 080V140 CAVOK 17/14 Q1021=
2020042204 - SABZ21 SBSP 220400
2020042204 - METAR SBSP 220400Z AUTO 14003KT CAVOK 16/14 Q1020=
2020042205 - SABZ21 SBSP 220500
2020042205 - METAR SBSP 220500Z AUTO VRB02KT CAVOK 16/14 Q1020=
2020042206 - SABZ21 SBSP 220600
2020042206 - METAR SBSP 220600Z AUTO 08003KT 050V110 CAVOK 16/14 Q1019=
2020042207 - SABZ21 SBSP 220700
2020042207 - METAR SBSP 220700Z AUTO VRB01KT 9999 FEW008 16/14 Q1019=
2020042207 - SPECI SBSP 220728Z AUTO 17002KT 9999 SCT006 BKN008 16/14 Q1019=
2020042207 - SPECI SBSP 220748Z AUTO 13003KT 9999 BKN006 BKN008 15/14 Q1019=
2020042208 - SABZ21 SBSP 220800
2020042208 - METAR SBSP 220800Z AUTO 15003KT 9999 BKN006 BKN008 15/13 Q1019=
2020042209 - SABZ18 SBSP 220900
2020042209 - METAR SBSP 220900Z 16004KT 120V190 9000 BKN006 OVC009 16/14 Q1020=
2020042210 - SABZ18 SBSP 221000
2020042210 - METAR SBSP 221000Z 10005KT 070V140 9999 BKN006 OVC009 16/14 Q1020=
2020042211 - SABZ18 SBSP 221100
2020042211 - METAR SBSP 221100Z 09005KT 050V130 9000 BKN007 OVC009 16/14 Q1021=
2020042212 - SABZ18 SBSP 221200
2020042212 - METAR SBSP 221200Z 09007KT 050V130 9999 BKN009 OVC011 17/14 Q1021=
2020042213 - SABZ18 SBSP 221300
2020042213 - METAR SBSP 221300Z 08005KT 360V120 9999 OVC013 18/14 Q1022=
2020042214 - SABZ18 SBSP 221400
2020042214 - METAR SBSP 221400Z 15004KT 040V210 9999 BKN015 20/14 Q1022=
2020042215 - SABZ18 SBSP 221500
2020042215 - METAR SBSP 221500Z 17005KT 120V220 9999 SCT027 22/14 Q1021=
2020042216 - SABZ18 SBSP 221600
2020042216 - METAR SBSP 221600Z 20007KT 140V240 9999 SCT043 23/13 Q1020=
2020042217 - SABZ18 SBSP 221700
2020042217 - METAR SBSP 221700Z 20007KT 150V240 9999 FEW043 23/12 Q1019=
2020042218 - SABZ18 SBSP 221800
2020042218 - METAR SBSP 221800Z VRB06KT 9999 FEW043 23/12 Q1018=
2020042219 - SABZ18 SBSP 221900
2020042219 - METAR SBSP 221900Z 15011KT CAVOK 22/14 Q1018=
2020042220 - SABZ18 SBSP 222000
2020042220 - METAR SBSP 222000Z 16012KT CAVOK 20/14 Q1019=
2020042221 - SABZ18 SBSP 222100
2020042221 - METAR SBSP 222100Z 16011KT 9999 FEW013 18/14 Q1019=
2020042222 - SABZ18 SBSP 222200
2020042222 - METAR SBSP 222200Z 16010KT 9999 FEW013 BKN021 18/14 Q1020=
2020042223 - SABZ18 SBSP 222300
2020042223 - METAR SBSP 222300Z 16007KT 9999 SCT011 BKN013 18/14 Q1020=
2020042300 - SABZ18 SBSP 230000
2020042300 - METAR SBSP 230000Z 16008KT 9999 SCT009 17/14 Q1021=
2020042301 - SABZ18 SBSP 230100
2020042301 - METAR SBSP 230100Z 14006KT 9999 FEW011 SCT013 17/14 Q1021=
2020042302 - SABZ18 SBSP 230200
2020042302 - METAR SBSP 230200Z 12006KT 9999 FEW010 SCT023 17/14 Q1021=
2020042302 - SPECI SBSP 230201Z 13006KT 9999 FEW009 BKN025 17/14 Q1020=
2020042302 - SPECI SBSP 230240Z AUTO 14006KT 9999 SCT010 BKN013 BKN025 17/14Q1020=
2020042302 - SPECI SBSP 230254Z AUTO 14006KT 110V170 9999 FEW009 SCT012 17/14Q1020=
2020042302 - SPECI SBSP 230259Z AUTO 14006KT 9999 SCT009 BKN012 17/14 Q1020=
2020042303 - SABZ21 SBSP 230300
2020042303 - METAR SBSP 230300Z AUTO 14006KT 9999 SCT009 BKN012 17/14 Q1020=
2020042303 - SPECI SBSP 230316Z AUTO 14005KT 110V170 9999 SCT008 SCT012 17/14Q1020=
2020042304 - SABZ21 SBSP 230400
2020042304 - METAR SBSP 230400Z AUTO 13003KT 9999 FEW009 16/14 Q1020=
2020042305 - SABZ21 SBSP 230500
2020042305 - METAR SBSP 230500Z AUTO 17001KT CAVOK 16/14 Q1019=
2020042306 - SABZ21 SBSP 230600
2020042306 - METAR SBSP 230600Z AUTO 17003KT CAVOK 16/14 Q1019=
2020042307 - SABZ21 SBSP 230700
2020042307 - METAR SBSP 230700Z AUTO 16005KT CAVOK 15/13 Q1019=
2020042308 - SABZ21 SBSP 230800
2020042308 - METAR SBSP 230800Z AUTO 16005KT 9999 FEW004 15/13 Q1019=
2020042309 - SABZ18 SBSP 230900
2020042309 - METAR SBSP 230900Z 14003KT 090V160 9000 FEW019 15/13 Q1019=
2020042310 - SABZ18 SBSP 231000
2020042310 - METAR SBSP 231000Z 13003KT 8000 SCT013 BKN015 15/14 Q1020=
2020042311 - SABZ18 SBSP 231100
2020042311 - METAR SBSP 231100Z 17004KT 9000 SCT015 17/14 Q1021=
2020042312 - SABZ18 SBSP 231200
2020042312 - METAR SBSP 231200Z 08005KT 040V140 9999 FEW015 19/14 Q1021=
2020042313 - SABZ18 SBSP 231300
2020042313 - METAR SBSP 231300Z 11007KT 060V140 CAVOK 20/14 Q1022=
2020042314 - SABZ18 SBSP 231400
2020042314 - METAR SBSP 231400Z 10006KT 060V140 CAVOK 22/14 Q1021=
2020042315 - SABZ18 SBSP 231500
2020042315 - METAR SBSP 231500Z VRB05KT 9999 FEW033 23/13 Q1021=
2020042316 - SABZ18 SBSP 231600
2020042316 - METAR SBSP 231600Z 15009KT 070V200 9999 FEW030 SCT040 23/15 Q1020=
2020042317 - SABZ18 SBSP 231700
2020042317 - METAR SBSP 231700Z 17009KT 140V200 9999 BKN033 23/15 Q1019=
2020042318 - SABZ18 SBSP 231800
2020042318 - METAR SBSP 231800Z 16010KT 130V190 9999 BKN027 23/15 Q1019=
2020042319 - SABZ18 SBSP 231900
2020042319 - METAR SBSP 231900Z 17012KT 130V190 9999 FEW027 22/15 Q1019=
2020042320 - SABZ18 SBSP 232000
2020042320 - METAR SBSP 232000Z 16012KT 9999 BKN017 20/15 Q1020=
2020042321 - SABZ18 SBSP 232100
2020042321 - METAR SBSP 232100Z 17010KT 9999 SCT015 19/15 Q1020=
2020042322 - SABZ18 SBSP 232200
2020042322 - METAR SBSP 232200Z 15009KT 9999 BKN013 18/15 Q1021=
2020042323 - SABZ18 SBSP 232300
2020042323 - METAR SBSP 232300Z 16008KT 9999 BKN011 BKN037 18/16 Q1021=
2020042400 - SABZ18 SBSP 240000
2020042400 - METAR SBSP 240000Z 12008KT 9999 BKN015 18/15 Q1022=
2020042401 - SABZ18 SBSP 240100
2020042401 - METAR SBSP 240100Z 13007KT 9999 BKN013 18/15 Q1021=
2020042402 - SABZ18 SBSP 240200
2020042402 - METAR SBSP 240200Z 14005KT 9999 BKN015 18/15 Q1021=
2020042402 - SPECI SBSP 240201Z 12005KT 9999 BKN012 18/15 Q1021=
2020042402 - SPECI SBSP 240212Z AUTO 12004KT 9999 SCT013 BKN016 18/15 Q1021=
2020042402 - SPECI SBSP 240219Z AUTO 12005KT 090V150 9999 BKN014 BKN016 18/15Q1021=
2020042402 - SPECI SBSP 240247Z AUTO 13005KT 9999 FEW010 BKN015 BKN020 18/15Q1021=
2020042402 - SPECI SBSP 240249Z AUTO 12006KT 9999 FEW010 BKN014 BKN022 18/15Q1021=
2020042403 - SABZ21 SBSP 240300
2020042403 - METAR SBSP 240300Z AUTO 12005KT 9999 FEW010 SCT018 BKN021 18/15Q1021=
2020042404 - SABZ21 SBSP 240400
2020042404 - METAR SBSP 240400Z AUTO 14005KT 9999 FEW009 17/14 Q1021=
2020042405 - SABZ21 SBSP 240500
2020042405 - METAR SBSP 240500Z AUTO 12005KT 9999 FEW011 17/15 Q1021=
2020042406 - SABZ21 SBSP 240600
2020042406 - METAR SBSP 240600Z AUTO 15003KT 9999 FEW032 16/14 Q1020=
2020042407 - SABZ21 SBSP 240700
2020042407 - METAR SBSP 240700Z AUTO 16006KT 9999 FEW004 16/14 Q1020=
2020042407 - SPECI SBSP 240717Z AUTO 16006KT 9999 BKN003 16/14 Q1020=
2020042408 - SABZ21 SBSP 240800
2020042408 - METAR SBSP 240800Z AUTO 13005KT 9999 BKN003 OVC006 16/15 Q1020=
2020042408 - SPECI SBSP 240811Z AUTO 14005KT 9999 SCT003 BKN006 BKN014 16/15Q1021=
2020042408 - SPECI SBSP 240812Z AUTO 14005KT 9999 BKN003 BKN014 BKN027 16/15Q1021=
2020042408 - SPECI SBSP 240824Z AUTO 15004KT 8000 FEW003 SCT014 BKN026 16/15Q1021=
2020042409 - SABZ18 SBSP 240900
2020042409 - METAR SBSP 240900Z 15004KT 9999 BKN023 16/15 Q1021=
2020042410 - SABZ18 SBSP 241000
2020042410 - METAR SBSP 241000Z 13004KT 9000 BKN019 17/15 Q1022=
2020042411 - SABZ18 SBSP 241100
2020042411 - METAR SBSP 241100Z 10006KT 9000 BKN017 18/15 Q1023=
2020042412 - SABZ18 SBSP 241200
2020042412 - METAR SBSP 241200Z 08007KT 9000 BKN015 20/15 Q1023=
2020042413 - SABZ18 SBSP 241300
2020042413 - METAR SBSP 241300Z 08008KT 9999 FEW017 21/15 Q1024=
2020042414 - SABZ18 SBSP 241400
2020042414 - METAR SBSP 241400Z 07006KT CAVOK 22/15 Q1023=
2020042415 - SABZ18 SBSP 241500
2020042415 - METAR SBSP 241500Z 07007KT CAVOK 24/16 Q1022=
2020042416 - SABZ18 SBSP 241600
2020042416 - METAR SBSP 241600Z 06003KT 9999 FEW035 25/15 Q1022=
2020042417 - SABZ18 SBSP 241700
2020042417 - METAR SBSP 241700Z 04003KT 9999 SCT040 27/15 Q1021=
2020042418 - SABZ18 SBSP 241800
2020042418 - METAR SBSP 241800Z 15010KT 9999 FEW045 25/17 Q1021=
2020042419 - SABZ18 SBSP 241900
2020042419 - METAR SBSP 241900Z 15011KT CAVOK 24/17 Q1020=
2020042420 - SABZ18 SBSP 242000
2020042420 - METAR SBSP 242000Z 16009KT CAVOK 22/17 Q1021=
2020042421 - SABZ18 SBSP 242100
2020042421 - METAR SBSP 242100Z 17011KT 8000 SCT009 20/17 Q1021=
2020042421 - SPECI SBSP 242113Z 18010KT 8000 BKN008 20/17 Q1021=
2020042422 - SABZ18 SBSP 242200
2020042422 - METAR SBSP 242200Z 18010KT 9999 BKN008 20/17 Q1022=
2020042423 - SABZ18 SBSP 242300
2020042423 - METAR SBSP 242300Z 14005KT 9999 BKN008 19/17 Q1022=
2020042500 - SABZ18 SBSP 250000
2020042500 - METAR SBSP 250000Z 13004KT 9999 SCT010 19/16 Q1023=
2020042501 - SABZ18 SBSP 250100
2020042501 - METAR SBSP 250100Z 14004KT CAVOK 18/16 Q1023=
2020042502 - SABZ18 SBSP 250200
2020042502 - METAR SBSP 250200Z 12004KT CAVOK 19/16 Q1023=
2020042502 - SPECI SBSP 250205Z 12003KT 070V150 CAVOK 19/16 Q1023=
2020042503 - SABZ21 SBSP 250300
2020042503 - METAR SBSP 250300Z AUTO 11005KT CAVOK 19/16 Q1023=
2020042504 - SABZ21 SBSP 250400
2020042504 - METAR SBSP 250400Z AUTO 11004KT 060V140 CAVOK 18/15 Q1023=
2020042505 - SABZ21 SBSP 250500
2020042505 - METAR SBSP 250500Z AUTO 08007KT 030V120 CAVOK 19/15 Q1022=
2020042506 - SABZ21 SBSP 250600
2020042506 - METAR SBSP 250600Z AUTO 08007KT 030V110 CAVOK 18/15 Q1022=
2020042507 - SABZ21 SBSP 250700
2020042507 - METAR SBSP 250700Z AUTO 07008KT 040V110 9999 FEW010 18/15 Q1022=
2020042507 - SPECI SBSP 250722Z AUTO 06007KT 010V100 9999 BKN008 17/15 Q1022=
2020042507 - SPECI SBSP 250748Z AUTO 06006KT 030V090 9999 FEW007 SCT009 17/15Q1022=
2020042508 - SABZ21 SBSP 250800
2020042508 - METAR SBSP 250800Z AUTO 06006KT 020V090 9999 FEW007 17/15 Q1022=
2020042509 - SABZ18 SBSP 250900
2020042509 - METAR SBSP 250900Z 05006KT 9999 FEW008 17/15 Q1023=
2020042510 - SABZ18 SBSP 251000
2020042510 - METAR SBSP 251000Z 06005KT 9999 BKN007 17/14 Q1023=
2020042511 - SABZ18 SBSP 251100
2020042511 - METAR SBSP 251100Z 07005KT 9999 SCT008 18/15 Q1024=
2020042512 - SABZ18 SBSP 251200
2020042512 - METAR SBSP 251200Z 06005KT CAVOK 20/15 Q1024=
2020042513 - SABZ18 SBSP 251300
2020042513 - METAR SBSP 251300Z 07004KT CAVOK 22/15 Q1025=
2020042514 - SABZ18 SBSP 251400
2020042514 - METAR SBSP 251400Z 04004KT CAVOK 24/14 Q1024=
2020042515 - SABZ18 SBSP 251500
2020042515 - METAR SBSP 251500Z 05005KT CAVOK 26/13 Q1023=
2020042516 - SABZ18 SBSP 251600
2020042516 - METAR SBSP 251600Z 02004KT CAVOK 27/12 Q1023=
2020042517 - SABZ18 SBSP 251700
2020042517 - METAR SBSP 251700Z 32005KT 280V360 CAVOK 27/12 Q1022=
2020042518 - SABZ18 SBSP 251800
2020042518 - METAR SBSP 251800Z 05003KT CAVOK 28/11 Q1021=
2020042519 - SABZ18 SBSP 251900
2020042519 - METAR SBSP 251900Z 18003KT 130V240 CAVOK 27/11 Q1021=
2020042520 - SABZ18 SBSP 252000
2020042520 - METAR SBSP 252000Z 16011KT CAVOK 25/15 Q1022=
2020042521 - SABZ18 SBSP 252100
2020042521 - METAR SBSP 252100Z 16009KT CAVOK 22/15 Q1022=
2020042522 - SABZ18 SBSP 252200
2020042522 - METAR SBSP 252200Z 16005KT CAVOK 21/14 Q1023=
2020042523 - SABZ18 SBSP 252300
2020042523 - METAR SBSP 252300Z 19003KT CAVOK 20/16 Q1023=
2020042600 - SABZ18 SBSP 260000
2020042600 - METAR SBSP 260000Z 14003KT CAVOK 20/14 Q1024=
2020042601 - SABZ18 SBSP 260100
2020042601 - METAR SBSP 260100Z 32002KT CAVOK 20/13 Q1024=
2020042602 - SABZ18 SBSP 260200
2020042602 - METAR SBSP 260200Z 16001KT CAVOK 20/13 Q1024=
2020042602 - SPECI SBSP 260201Z VRB01KT CAVOK 20/14 Q1024=
2020042603 - SABZ21 SBSP 260300
2020042603 - METAR SBSP 260300Z AUTO VRB01KT CAVOK 19/13 Q1024=
2020042604 - SABZ21 SBSP 260400
2020042604 - METAR SBSP 260400Z AUTO 09001KT CAVOK 20/12 Q1023=
2020042605 - SABZ21 SBSP 260500
2020042605 - METAR SBSP 260500Z AUTO 07002KT CAVOK 20/13 Q1023=
2020042606 - SABZ21 SBSP 260600
2020042606 - METAR SBSP 260600Z AUTO VRB02KT CAVOK 19/13 Q1023=
2020042607 - SABZ21 SBSP 260700
2020042607 - METAR SBSP 260700Z AUTO 07003KT CAVOK 19/13 Q1023=
2020042608 - SABZ21 SBSP 260800
2020042608 - METAR SBSP 260800Z AUTO 00000KT CAVOK 18/12 Q1023=
2020042609 - SABZ18 SBSP 260900
2020042609 - METAR SBSP 260900Z 12001KT CAVOK 17/12 Q1024=
2020042610 - SABZ18 SBSP 261000
2020042610 - METAR SBSP 261000Z 06002KT CAVOK 18/13 Q1024=
2020042611 - SABZ18 SBSP 261100
2020042611 - METAR SBSP 261100Z 05003KT 020V110 CAVOK 20/14 Q1025=
2020042612 - SABZ18 SBSP 261200
2020042612 - METAR SBSP 261200Z VRB02KT CAVOK 22/14 Q1025=
2020042613 - SABZ18 SBSP 261300
2020042613 - METAR SBSP 261300Z VRB03KT CAVOK 24/14 Q1026=
2020042614 - SABZ18 SBSP 261400
2020042614 - METAR SBSP 261400Z VRB02KT CAVOK 26/12 Q1025=
2020042615 - SABZ18 SBSP 261500
2020042615 - METAR SBSP 261500Z 23005KT 170V330 CAVOK 26/11 Q1025=
2020042616 - SABZ18 SBSP 261600
2020042616 - METAR SBSP 261600Z VRB02KT CAVOK 27/11 Q1024=
2020042617 - SABZ18 SBSP 261700
2020042617 - METAR SBSP 261700Z VRB03KT CAVOK 27/11 Q1023=
2020042618 - SABZ18 SBSP 261800
2020042618 - METAR SBSP 261800Z 18006KT CAVOK 27/10 Q1023=
2020042619 - SABZ18 SBSP 261900
2020042619 - METAR SBSP 261900Z 18010KT 140V220 CAVOK 26/14 Q1023=
2020042620 - SABZ18 SBSP 262000
2020042620 - METAR SBSP 262000Z 17012KT CAVOK 24/15 Q1023=
2020042621 - SABZ18 SBSP 262100
2020042621 - METAR SBSP 262100Z 17010KT CAVOK 22/11 Q1023=
2020042622 - SABZ18 SBSP 262200
2020042622 - METAR SBSP 262200Z 16008KT CAVOK 20/14 Q1023=
2020042623 - SABZ18 SBSP 262300
2020042623 - METAR SBSP 262300Z 16010KT 9999 FEW009 18/15 Q1024=
2020042700 - SABZ18 SBSP 270000
2020042700 - METAR SBSP 270000Z 16011KT 9999 SCT011 BKN015 18/15 Q1025=
2020042701 - SABZ18 SBSP 270100
2020042701 - METAR SBSP 270100Z 17010KT 9999 SCT015 SCT023 18/14 Q1026=
2020042702 - SABZ18 SBSP 270200
2020042702 - METAR SBSP 270200Z 15005KT CAVOK 17/14 Q1026=
2020042702 - SPECI SBSP 270200Z 14004KT CAVOK 17/14 Q1026=
2020042703 - SABZ21 SBSP 270300
2020042703 - METAR SBSP 270300Z AUTO 16007KT CAVOK 17/14 Q1026=
2020042704 - SABZ21 SBSP 270400
2020042704 - METAR SBSP 270400Z AUTO 16006KT 9999 FEW008 17/14 Q1025=
2020042704 - SPECI SBSP 270436Z AUTO 18004KT 9999 FEW008 BKN011 17/15 Q1025=
2020042705 - SABZ21 SBSP 270500
2020042705 - METAR SBSP 270500Z AUTO 16004KT 9999 SCT007 BKN010 17/15 Q1025=
2020042705 - SPECI SBSP 270507Z AUTO 14004KT 9999 BKN007 BKN010 17/15 Q1025=
2020042705 - SPECI SBSP 270518Z AUTO 15006KT 110V170 9999 FEW007 BKN009 17/15Q1025=
2020042706 - SABZ21 SBSP 270600
2020042706 - METAR SBSP 270600Z AUTO 15007KT 9999 BKN009 17/15 Q1025=
2020042706 - SPECI SBSP 270601Z AUTO 15007KT 9999 FEW008 BKN010 17/15 Q1025=
2020042706 - SPECI SBSP 270616Z AUTO 16007KT 9999 FEW007 SCT009 16/14 Q1025=
2020042706 - SPECI SBSP 270618Z AUTO 16007KT 9999 SCT007 SCT011 BKN014 17/15Q1025=
2020042706 - SPECI SBSP 270625Z AUTO 16006KT 9999 SCT007 BKN009 BKN014 17/15Q1025=
2020042706 - SPECI SBSP 270637Z AUTO 17006KT 9999 BKN007 BKN009 BKN012 17/15Q1025=
2020042707 - SABZ21 SBSP 270700
2020042707 - METAR SBSP 270700Z AUTO 16009KT 9999 BKN009 BKN012 17/14 Q1025=
2020042707 - SPECI SBSP 270702Z AUTO 16008KT 9999 BKN009 OVC015 17/14 Q1025=
2020042707 - SPECI SBSP 270704Z AUTO 15007KT 9999 BKN009 BKN011 OVC016 17/14Q1025=
2020042707 - SPECI SBSP 270727Z AUTO 17007KT 9999 BKN009 BKN017 17/15 Q1025=
2020042707 - SPECI SBSP 270729Z AUTO 16007KT 9999 BKN008 BKN010 BKN017 17/15Q1025=
2020042707 - SPECI SBSP 270759Z AUTO 15006KT 9999 FEW007 SCT009 17/15 Q1025=
2020042708 - SABZ21 SBSP 270800
2020042708 - METAR SBSP 270800Z AUTO 15006KT 9999 FEW007 SCT009 17/15 Q1025=
2020042708 - SPECI SBSP 270843Z AUTO 15004KT 9999 FEW007 BKN009 16/14 Q1025=
2020042709 - SABZ18 SBSP 270900
2020042709 - METAR SBSP 270900Z 15005KT 9999 BKN008 16/15 Q1026=
2020042710 - SABZ18 SBSP 271000
2020042710 - METAR SBSP 271000Z 15007KT CAVOK 17/15 Q1026=
2020042711 - SABZ18 SBSP 271100
2020042711 - METAR SBSP 271100Z 15007KT 9999 FEW009 18/15 Q1027=
2020042712 - SABZ18 SBSP 271200
2020042712 - METAR SBSP 271200Z 12006KT 9999 FEW019 20/14 Q1027=
2020042713 - SABZ18 SBSP 271300
2020042713 - METAR SBSP 271300Z 09005KT 030V140 CAVOK 21/13 Q1028=
2020042714 - SABZ18 SBSP 271400
2020042714 - METAR SBSP 271400Z 12006KT 010V170 9999 FEW037 22/12 Q1027=
2020042715 - SABZ18 SBSP 271500
2020042715 - METAR SBSP 271500Z 11005KT 040V210 9999 SCT040 23/11 Q1027=
2020042716 - SABZ18 SBSP 271600
2020042716 - METAR SBSP 271600Z 13005KT 040V200 9999 FEW043 24/12 Q1026=
2020042717 - SABZ18 SBSP 271700
2020042717 - METAR SBSP 271700Z 15011KT 9999 SCT035 24/13 Q1025=
2020042718 - SABZ18 SBSP 271800
2020042718 - METAR SBSP 271800Z 15011KT 9999 FEW033 24/14 Q1024=
2020042719 - SABZ18 SBSP 271900
2020042719 - METAR SBSP 271900Z 15014KT 9999 FEW033 22/14 Q1024=
2020042720 - SABZ18 SBSP 272000
2020042720 - METAR SBSP 272000Z 14013KT 9999 FEW019 21/15 Q1024=
2020042721 - SABZ18 SBSP 272100
2020042721 - METAR SBSP 272100Z 16014KT 9999 FEW015 19/15 Q1025=
2020042722 - SABZ18 SBSP 272200
2020042722 - METAR SBSP 272200Z 16013KT 9999 BKN015 18/15 Q1025=
2020042723 - SABZ18 SBSP 272300
2020042723 - METAR SBSP 272300Z 15008KT CAVOK 18/15 Q1025=
2020042800 - SABZ18 SBSP 280000
2020042800 - METAR SBSP 280000Z 15009KT 9999 SCT012 18/15 Q1025=
2020042801 - SABZ18 SBSP 280100
2020042801 - METAR SBSP 280100Z 12007KT 9999 SCT009 18/15 Q1025=
2020042802 - SABZ21 SBSP 280200
2020042802 - METAR SBSP 280200Z AUTO 13006KT 8000 SCT009 18/15 Q1025=
2020042803 - SABZ21 SBSP 280300
2020042803 - METAR SBSP 280300Z AUTO 14003KT 100V170 8000 FEW014 17/15 Q1025=
2020042803 - SPECI SBSP 280330Z AUTO 11003KT 070V140 7000 FEW010 BKN013 18/15Q1025=
2020042803 - SPECI SBSP 280345Z AUTO 10003KT 030V120 7000 SCT009 BKN012 BKN01418/15 Q1025=
2020042803 - SPECI SBSP 280356Z AUTO 10004KT 060V140 7000 SCT009 BKN013 18/15Q1025=
2020042804 - SABZ21 SBSP 280400
2020042804 - METAR SBSP 280400Z AUTO 10004KT 060V140 7000 SCT009 BKN013 18/15Q1025=
2020042804 - SPECI SBSP 280406Z AUTO 13005KT 7000 BKN009 BKN013 18/15 Q1025=
2020042804 - SPECI SBSP 280419Z AUTO 13004KT 7000 SCT009 BKN012 17/15 Q1025=
2020042804 - SPECI SBSP 280424Z AUTO 13003KT 110V180 7000 BKN008 BKN012 17/15Q1025=
2020042804 - SPECI SBSP 280444Z AUTO 14004KT 7000 SCT008 SCT012 17/14 Q1025=
2020042805 - SABZ21 SBSP 280500
2020042805 - METAR SBSP 280500Z AUTO 14004KT 9999 FEW008 SCT012 17/14 Q1025=
2020042806 - SABZ21 SBSP 280600
2020042806 - METAR SBSP 280600Z AUTO 14005KT 9999 SCT041 17/15 Q1024=
2020042807 - SABZ21 SBSP 280700
2020042807 - METAR SBSP 280700Z AUTO 13007KT 9999 FEW014 BKN032 BKN036 18/14Q1024=
2020042808 - SABZ21 SBSP 280800
2020042808 - METAR SBSP 280800Z AUTO 12004KT 090V150 9999 FEW022 BKN030 18/13Q1024=
2020042809 - SABZ18 SBSP 280900
2020042809 - METAR SBSP 280900Z 10003KT CAVOK 18/13 Q1025=
2020042810 - SABZ18 SBSP 281000
2020042810 - METAR SBSP 281000Z 10004KT CAVOK 18/14 Q1026=
2020042811 - SABZ18 SBSP 281100
2020042811 - METAR SBSP 281100Z 08006KT CAVOK 19/14 Q1026=
2020042812 - SABZ18 SBSP 281200
2020042812 - METAR SBSP 281200Z 08007KT CAVOK 20/13 Q1027=
2020042813 - SABZ18 SBSP 281300
2020042813 - METAR SBSP 281300Z 10008KT CAVOK 21/13 Q1027=
2020042814 - SABZ18 SBSP 281400
2020042814 - METAR SBSP 281400Z 06006KT CAVOK 22/12 Q1026=
2020042815 - SABZ18 SBSP 281500
2020042815 - METAR SBSP 281500Z 12005KT CAVOK 23/11 Q1025=
2020042816 - SABZ18 SBSP 281600
2020042816 - METAR SBSP 281600Z 01004KT CAVOK 25/11 Q1024=
2020042817 - SABZ18 SBSP 281700
2020042817 - METAR SBSP 281700Z 10006KT 070V140 9999 FEW047 24/10 Q1023=
2020042818 - SABZ18 SBSP 281800
2020042818 - METAR SBSP 281800Z VRB03KT CAVOK 25/11 Q1023=
2020042819 - SABZ18 SBSP 281900
2020042819 - METAR SBSP 281900Z 09006KT 050V130 CAVOK 25/10 Q1022=
2020042820 - SABZ18 SBSP 282000
2020042820 - METAR SBSP 282000Z 15010KT CAVOK 22/15 Q1022=
2020042821 - SABZ18 SBSP 282100
2020042821 - METAR SBSP 282100Z 16009KT CAVOK 20/15 Q1023=
2020042822 - SABZ18 SBSP 282200
2020042822 - METAR SBSP 282200Z 17007KT CAVOK 19/15 Q1023=
2020042823 - SABZ18 SBSP 282300
2020042823 - METAR SBSP 282300Z 16005KT CAVOK 18/15 Q1024=
2020042900 - SABZ18 SBSP 290000
2020042900 - METAR SBSP 290000Z 16004KT CAVOK 18/15 Q1024=
2020042901 - SABZ18 SBSP 290100
2020042901 - METAR SBSP 290100Z 16003KT CAVOK 18/15 Q1024=
2020042902 - SABZ18 SBSP 290200
2020042902 - METAR SBSP 290200Z 16003KT CAVOK 18/15 Q1024=
2020042902 - SPECI SBSP 290208Z 18002KT CAVOK 18/15 Q1024=
2020042903 - SABZ21 SBSP 290300
2020042903 - METAR SBSP 290300Z AUTO 18003KT CAVOK 17/15 Q1024=
2020042904 - SABZ21 SBSP 290400
2020042904 - METAR SBSP 290400Z AUTO 13002KT CAVOK 17/15 Q1023=
2020042905 - SABZ21 SBSP 290500
2020042905 - METAR SBSP 290500Z AUTO VRB01KT CAVOK 17/14 Q1023=
2020042906 - SABZ21 SBSP 290600
2020042906 - METAR SBSP 290600Z AUTO VRB01KT 9000 NCD 17/14 Q1023=
2020042907 - SABZ21 SBSP 290700
2020042907 - METAR SBSP 290700Z AUTO 03005KT CAVOK 17/15 Q1022=
2020042908 - SABZ21 SBSP 290800
2020042908 - METAR SBSP 290800Z AUTO 04004KT CAVOK 17/14 Q1023=
2020042909 - SABZ18 SBSP 290900
2020042909 - METAR SBSP 290900Z 06003KT CAVOK 17/14 Q1023=
2020042910 - SABZ18 SBSP 291000
2020042910 - METAR SBSP 291000Z 06003KT CAVOK 17/15 Q1024=
2020042911 - SABZ18 SBSP 291100
2020042911 - METAR SBSP 291100Z 03003KT CAVOK 18/15 Q1025=
2020042912 - SABZ18 SBSP 291200
2020042912 - METAR SBSP 291200Z 04006KT CAVOK 19/13 Q1025=
2020042913 - SABZ18 SBSP 291300
2020042913 - METAR SBSP 291300Z 01007KT CAVOK 22/13 Q1025=
2020042914 - SABZ18 SBSP 291400
2020042914 - METAR SBSP 291400Z 02006KT 320V060 CAVOK 23/12 Q1024=
2020042915 - SABZ18 SBSP 291500
2020042915 - METAR SBSP 291500Z 33007KT 270V020 CAVOK 25/10 Q1024=
2020042916 - SABZ18 SBSP 291600
2020042916 - METAR SBSP 291600Z 34008KT CAVOK 25/10 Q1022=
2020042917 - SABZ18 SBSP 291700
2020042917 - METAR SBSP 291700Z 30005KT CAVOK 26/09 Q1021=
2020042918 - SABZ18 SBSP 291800
2020042918 - METAR SBSP 291800Z 02006KT CAVOK 26/09 Q1020=
2020042919 - SABZ18 SBSP 291900
2020042919 - METAR SBSP 291900Z 35004KT CAVOK 26/09 Q1020=
2020042920 - SABZ18 SBSP 292000
2020042920 - METAR SBSP 292000Z 29004KT CAVOK 25/10 Q1020=
2020042921 - SABZ18 SBSP 292100
2020042921 - METAR SBSP 292100Z 29004KT CAVOK 24/09 Q1021=
2020042922 - SABZ18 SBSP 292200
2020042922 - METAR SBSP 292200Z 27004KT CAVOK 24/10 Q1021=
2020042923 - SABZ18 SBSP 292300
2020042923 - METAR SBSP 292300Z 15004KT CAVOK 20/14 Q1021=
2020043000 - SABZ18 SBSP 300000
2020043000 - METAR SBSP 300000Z 15002KT CAVOK 21/14 Q1021=
2020043001 - SABZ18 SBSP 300100
2020043001 - METAR SBSP 300100Z 00000KT CAVOK 20/14 Q1021=
2020043002 - SABZ18 SBSP 300200
2020043002 - METAR SBSP 300200Z 00000KT CAVOK 20/14 Q1021=
2020043002 - SPECI SBSP 300208Z 00000KT CAVOK 20/14 Q1021=
2020043003 - SABZ21 SBSP 300300
2020043003 - METAR SBSP 300300Z AUTO 00000KT CAVOK 19/14 Q1021=
2020043004 - SABZ21 SBSP 300400
2020043004 - METAR SBSP 300400Z AUTO 04002KT CAVOK 19/14 Q1020=
2020043005 - SABZ21 SBSP 300500
2020043005 - METAR SBSP 300500Z AUTO 32004KT CAVOK 19/13 Q1020=
2020043006 - SABZ21 SBSP 300600
2020043006 - METAR SBSP 300600Z AUTO 32004KT CAVOK 18/13 Q1020=
2020043007 - SABZ21 SBSP 300700
2020043007 - METAR SBSP 300700Z AUTO 31003KT CAVOK 17/12 Q1020=
2020043008 - SABZ21 SBSP 300800
2020043008 - METAR SBSP 300800Z AUTO 32004KT CAVOK 17/12 Q1019=
2020043009 - SABZ18 SBSP 300900
2020043009 - METAR SBSP 300900Z 32004KT CAVOK 17/11 Q1020=
2020043010 - SABZ18 SBSP 301000
2020043010 - METAR SBSP 301000Z 32005KT CAVOK 18/12 Q1021=
2020043011 - SABZ18 SBSP 301100
2020043011 - METAR SBSP 301100Z 33005KT CAVOK 19/12 Q1022=
2020043012 - SABZ18 SBSP 301200
2020043012 - METAR SBSP 301200Z 33007KT CAVOK 22/12 Q1022=
2020043013 - SABZ18 SBSP 301300
2020043013 - METAR SBSP 301300Z 32009KT CAVOK 23/12 Q1023=
2020043014 - SABZ18 SBSP 301400
2020043014 - METAR SBSP 301400Z 33009KT CAVOK 25/12 Q1022=
2020043015 - SABZ18 SBSP 301500
2020043015 - METAR SBSP 301500Z 29008KT CAVOK 24/12 Q1022=
2020043016 - SABZ18 SBSP 301600
2020043016 - METAR SBSP 301600Z 29009KT CAVOK 25/11 Q1021=
2020043017 - SABZ18 SBSP 301700
2020043017 - METAR SBSP 301700Z 31006KT 270V010 CAVOK 26/12 Q1021=
2020043018 - SABZ18 SBSP 301800
2020043018 - METAR SBSP 301800Z VRB04KT CAVOK 26/12 Q1020=
2020043019 - SABZ18 SBSP 301900
2020043019 - METAR SBSP 301900Z VRB04KT CAVOK 26/12 Q1020=
2020043020 - SABZ18 SBSP 302000
2020043020 - METAR SBSP 302000Z 34005KT 300V010 9999 FEW047 26/12 Q1020=
2020043021 - SABZ18 SBSP 302100
2020043021 - METAR SBSP 302100Z 32006KT CAVOK 24/12 Q1020=
2020043022 - SABZ18 SBSP 302200
2020043022 - METAR SBSP 302200Z 31003KT CAVOK 24/12 Q1021=
2020043023 - SABZ18 SBSP 302300
2020043023 - METAR SBSP 302300Z 21003KT CAVOK 23/13 Q1022=
2020050100 - SABZ18 SBSP 010000
2020050100 - METAR SBSP 010000Z 03001KT CAVOK 22/13 Q1022=
2020050101 - SABZ18 SBSP 010100
2020050101 - METAR SBSP 010100Z 34002KT CAVOK 21/13 Q1022=
2020050102 - SABZ18 SBSP 010200
2020050102 - METAR SBSP 010200Z 33002KT CAVOK 21/13 Q1022=
2020050102 - SPECI SBSP 010200Z 31002KT CAVOK 20/13 Q1021=
2020050103 - SABZ21 SBSP 010300
2020050103 - METAR SBSP 010300Z AUTO 34002KT CAVOK 20/14 Q1021=
2020050104 - SABZ21 SBSP 010400
2020050104 - METAR SBSP 010400Z AUTO 30002KT CAVOK 19/13 Q1021=
2020050105 - SABZ21 SBSP 010500
2020050105 - METAR SBSP 010500Z AUTO 34002KT CAVOK 19/14 Q1020=
2020050106 - SABZ21 SBSP 010600
2020050106 - METAR SBSP 010600Z AUTO 31002KT CAVOK 18/13 Q1020=
2020050107 - SABZ21 SBSP 010700
2020050107 - METAR SBSP 010700Z AUTO 20006KT 9000 FEW006 18/15 Q1021=
2020050107 - SPECI SBSP 010705Z AUTO 20009KT 2200 FEW000 17/15 Q1021=
2020050107 - SPECI SBSP 010708Z AUTO 19009KT 1600 DZ BR SCT000 17/15 Q1021=
2020050107 - SPECI SBSP 010709Z AUTO 20008KT 0900 R17/P2000N DZ BR FEW000 SCT00317/15 Q1021=
2020050107 - SPECI SBSP 010716Z AUTO 20007KT 0700 R17/P2000N -RA BR FEW000 SCT00317/15 Q1021 REDZ=
2020050107 - SPECI SBSP 010718Z AUTO 20007KT 0700 R17/2000D -RA FG FEW000 BKN00317/15 Q1021 REDZ=
2020050107 - SPECI SBSP 010729Z AUTO 19006KT 0900 R17/1800U -RA FG BKN000 BKN00317/15 Q1021 REDZ=
2020050107 - SPECI SBSP 010747Z AUTO 18007KT 5000 BR BKN001 17/16 Q1021 REDZ=
2020050107 - SPECI SBSP 010758Z AUTO 16005KT 7000 OVC002 17/16 Q1021 REDZ=
2020050108 - SABZ21 SBSP 010800
2020050108 - METAR SBSP 010800Z AUTO 16005KT 7000 OVC002 17/16 Q1021 REDZ=
2020050108 - SPECI SBSP 010823Z AUTO VRB02KT 8000 SCT005 BKN007 17/16 Q1021=
2020050108 - SPECI SBSP 010847Z AUTO VRB01KT 8000 FEW009 17/16 Q1022=
2020050109 - SABZ18 SBSP 010900
2020050109 - METAR SBSP 010900Z 07002KT 5000 BR SCT011 17/15 Q1022=
2020050110 - SABZ18 SBSP 011000
2020050110 - METAR SBSP 011000Z 28002KT 6000 FEW011 17/16 Q1023=
2020050110 - SPECI SBSP 011030Z 25002KT 6000 BKN006 18/16 Q1023=
2020050111 - SABZ18 SBSP 011100
2020050111 - METAR SBSP 011100Z VRB02KT 6000 BKN005 BKN007 19/16 Q1023=
2020050111 - SPECI SBSP 011130Z VRB02KT 7000 SCT005 BKN007 19/17 Q1024=
2020050112 - SABZ18 SBSP 011200
2020050112 - METAR SBSP 011200Z VRB02KT 8000 BKN009 20/17 Q1024=
2020050113 - SABZ18 SBSP 011300
2020050113 - METAR SBSP 011300Z VRB02KT 9000 BKN013 22/17 Q1024=
2020050113 - SPECI SBSP 011330Z VRB02KT 9999 SCT013 23/17 Q1024=
2020050114 - SABZ18 SBSP 011400
2020050114 - METAR SBSP 011400Z VRB02KT 9999 SCT023 23/16 Q1023=
2020050115 - SABZ18 SBSP 011500
2020050115 - METAR SBSP 011500Z VRB03KT 9999 SCT030 25/16 Q1023=
2020050116 - SABZ18 SBSP 011600
2020050116 - METAR SBSP 011600Z VRB04KT 9999 FEW037 25/15 Q1022=
2020050117 - SABZ18 SBSP 011700
2020050117 - METAR SBSP 011700Z 34004KT 230V030 9999 FEW047 27/15 Q1021=
2020050118 - SABZ18 SBSP 011800
2020050118 - METAR SBSP 011800Z 24004KT 9999 FEW043 27/14 Q1021=
2020050119 - SABZ18 SBSP 011900
2020050119 - METAR SBSP 011900Z 21006KT 9999 FEW043 SCT083 26/15 Q1021=
2020050120 - SABZ18 SBSP 012000
2020050120 - METAR SBSP 012000Z 18010KT 9999 SCT009 22/18 Q1021=
2020050120 - SPECI SBSP 012025Z 17007KT 9999 BKN010 21/18 Q1021=
2020050121 - SABZ18 SBSP 012100
2020050121 - METAR SBSP 012100Z 11005KT 9999 FEW010 21/18 Q1021=
2020050122 - SABZ18 SBSP 012200
2020050122 - METAR SBSP 012200Z 16004KT CAVOK 20/17 Q1021=
2020050123 - SABZ18 SBSP 012300
2020050123 - METAR SBSP 012300Z 14003KT CAVOK 20/18 Q1022=
