
2020030100 - SABZ18 SBSR 010000
2020030100 - METAR SBSR 010000Z 12002KT 9999 FEW030 25/19 Q1016=
2020030101 - SABZ18 SBSR 010100
2020030101 - METAR SBSR 010100Z 00000KT 9999 FEW035 24/19 Q1016=
2020030102 - SABZ18 SBSR 010200
2020030102 - METAR SBSR 010200Z 00000KT CAVOK 23/19 Q1016=
2020030103 - SABZ18 SBSR 010300
2020030103 - METAR SBSR 010300Z 19004KT CAVOK 23/18 Q1016=
2020030104 - SABZ18 SBSR 010400
2020030104 - METAR SBSR 010400Z 17007KT CAVOK 22/19 Q1016=
2020030105 - SABZ18 SBSR 010500
2020030105 - METAR SBSR 010500Z 16006KT 9999 FEW013 21/18 Q1016=
2020030106 - SABZ18 SBSR 010600
2020030106 - METAR SBSR 010600Z 18005KT 9999 FEW013 20/18 Q1015=
2020030107 - SABZ18 SBSR 010700
2020030107 - METAR SBSR 010700Z 18005KT CAVOK 20/18 Q1015=
2020030108 - SABZ18 SBSR 010800
2020030108 - METAR SBSR 010800Z 20007KT CAVOK 19/17 Q1015=
2020030109 - SABZ18 SBSR 010900
2020030109 - METAR SBSR 010900Z 21005KT 9999 SCT020 19/17 Q1016=
2020030110 - SABZ18 SBSR 011000
2020030110 - METAR SBSR 011000Z 18006KT 9999 SCT015 19/17 Q1016=
2020030111 - SABZ18 SBSR 011100
2020030111 - METAR SBSR 011100Z 18006KT 9999 SCT015 BKN070 20/17 Q1017=
2020030112 - SABZ18 SBSR 011200
2020030112 - METAR SBSR 011200Z 18008KT 9999 SCT010 BKN070 21/18 Q1017=
2020030113 - SABZ18 SBSR 011300
2020030113 - METAR SBSR 011300Z 15006KT 9999 SCT004 BKN070 23/19 Q1017=
2020030114 - SABZ18 SBSR 011400
2020030114 - METAR SBSR 011400Z 17005KT 9999 SCT012 BKN070 25/19 Q1017=
2020030115 - SABZ18 SBSR 011500
2020030115 - METAR SBSR 011500Z 15005KT 9999 SCT012 BKN070 25/20 Q1017=
2020030116 - SABZ18 SBSR 011600
2020030116 - METAR SBSR 011600Z 09004KT 9999 FEW011 BKN019 BKN070 27/20 Q1016=
2020030117 - SABZ18 SBSR 011700
2020030117 - METAR SBSR 011700Z 18003KT 180V240 9999 FEW012 SCT020 BKN070 27/20 Q1015=
2020030118 - SABZ18 SBSR 011800
2020030118 - METAR SBSR 011800Z 22008KT 190V250 9999 SCT018 BKN070 27/20 Q1014=
2020030119 - SABZ18 SBSR 011900
2020030119 - METAR SBSR 011900Z 21009KT 9999 FEW020 SCT070 28/20 Q1014=
2020030120 - SABZ18 SBSR 012000
2020030120 - METAR SBSR 012000Z 20012KT 9999 FEW020 27/19 Q1014=
2020030121 - SABZ18 SBSR 012100
2020030121 - METAR SBSR 012100Z 21012KT 9999 FEW020 26/19 Q1014=
2020030122 - SABZ18 SBSR 012200
2020030122 - METAR SBSR 012200Z 21008KT 9999 FEW015 BKN070 25/19 Q1014=
2020030123 - SABZ18 SBSR 012300
2020030123 - METAR SBSR 012300Z 20010KT 9999 FEW020 BKN070 25/19 Q1015=
2020030200 - SABZ18 SBSR 020000
2020030200 - METAR SBSR 020000Z 17010KT 9999 FEW020 FEW030TCU BKN070 25/18 Q1015=
2020030201 - SABZ18 SBSR 020100
2020030201 - METAR SBSR 020100Z 14014KT 9999 SCT025 FEW030TCU 23/18 Q1016=
2020030202 - SABZ18 SBSR 020200
2020030202 - METAR SBSR 020200Z 13008KT 9999 FEW030 22/18 Q1016=
2020030203 - SABZ18 SBSR 020300
2020030203 - METAR SBSR 020300Z 13005KT CAVOK 21/17 Q1016=
2020030204 - SABZ18 SBSR 020400
2020030204 - METAR SBSR 020400Z 16006KT CAVOK 21/18 Q1015=
2020030205 - SABZ18 SBSR 020500
2020030205 - METAR SBSR 020500Z 14005KT CAVOK 20/18 Q1015=
2020030206 - SABZ18 SBSR 020600
2020030206 - METAR SBSR 020600Z 15005KT CAVOK 20/18 Q1015=
2020030207 - SABZ18 SBSR 020700
2020030207 - METAR SBSR 020700Z 16004KT CAVOK 20/18 Q1015=
2020030208 - SABZ18 SBSR 020800
2020030208 - METAR SBSR 020800Z 17004KT CAVOK 19/17 Q1015=
2020030209 - SABZ18 SBSR 020900
2020030209 - METAR SBSR 020900Z 17005KT CAVOK 19/17 Q1015=
2020030210 - SABZ18 SBSR 021000
2020030210 - METAR SBSR 021000Z 15005KT CAVOK 19/17 Q1016=
2020030211 - SABZ18 SBSR 021100
2020030211 - METAR SBSR 021100Z 15007KT CAVOK 20/17 Q1016=
2020030212 - SABZ18 SBSR 021200
2020030212 - METAR SBSR 021200Z 16007KT CAVOK 21/17 Q1017=
2020030213 - SABZ18 SBSR 021300
2020030213 - METAR SBSR 021300Z 14007KT 9999 FEW020 BKN070 24/17 Q1017=
2020030214 - SABZ18 SBSR 021400
2020030214 - METAR SBSR 021400Z 12010KT 9999 SCT020 SCT070 26/17 Q1016=
2020030215 - SABZ18 SBSR 021500
2020030215 - METAR SBSR 021500Z 15009KT 9999 BKN025 27/16 Q1016=
2020030216 - SABZ18 SBSR 021600
2020030216 - METAR SBSR 021600Z 10006KT 110V170 9999 BKN025 28/16 Q1015=
2020030217 - SABZ18 SBSR 021700
2020030217 - METAR SBSR 021700Z 12010KT 120V180 9999 BKN025 29/16 Q1014=
2020030218 - SABZ18 SBSR 021800
2020030218 - METAR SBSR 021800Z 10009KT 090V170 9999 SCT025 BKN070 29/16 Q1014=
2020030219 - SABZ18 SBSR 021900
2020030219 - METAR SBSR 021900Z 12014KT 110V170 9999 SCT025 SCT070 28/15 Q1013=
2020030220 - SABZ18 SBSR 022000
2020030220 - METAR SBSR 022000Z 15007KT 120V200 9999 FEW025 SCT070 28/16 Q1013=
2020030221 - SABZ18 SBSR 022100
2020030221 - METAR SBSR 022100Z 12006KT 9999 FEW030 SCT070 28/16 Q1013=
2020030222 - SABZ18 SBSR 022200
2020030222 - METAR SBSR 022200Z 14005KT 9999 FEW030 27/16 Q1013=
2020030223 - SABZ18 SBSR 022300
2020030223 - METAR SBSR 022300Z 12007KT CAVOK 26/17 Q1014=
2020030300 - SABZ18 SBSR 030000
2020030300 - METAR SBSR 030000Z 11005KT CAVOK 25/17 Q1014=
2020030301 - SABZ18 SBSR 030100
2020030301 - METAR SBSR 030100Z 16009KT CAVOK 24/18 Q1015=
2020030302 - SABZ18 SBSR 030200
2020030302 - METAR SBSR 030200Z 16005KT CAVOK 22/18 Q1015=
2020030303 - SABZ18 SBSR 030300
2020030303 - METAR SBSR 030300Z 17008KT CAVOK 22/18 Q1015=
2020030304 - SABZ18 SBSR 030400
2020030304 - METAR SBSR 030400Z 17007KT CAVOK 21/18 Q1015=
2020030305 - SABZ18 SBSR 030500
2020030305 - METAR SBSR 030500Z 18007KT CAVOK 21/17 Q1014=
2020030306 - SABZ18 SBSR 030600
2020030306 - METAR SBSR 030600Z 16004KT CAVOK 20/17 Q1014=
2020030307 - SABZ18 SBSR 030700
2020030307 - METAR SBSR 030700Z 17007KT CAVOK 20/17 Q1014=
2020030308 - SABZ18 SBSR 030800
2020030308 - METAR SBSR 030800Z 16004KT CAVOK 19/17 Q1014=
2020030309 - SABZ18 SBSR 030900
2020030309 - METAR SBSR 030900Z 18005KT 9999 SCT035 19/16 Q1014=
2020030310 - SABZ18 SBSR 031000
2020030310 - METAR SBSR 031000Z 15004KT CAVOK 19/16 Q1014=
2020030311 - SABZ18 SBSR 031100
2020030311 - METAR SBSR 031100Z 15006KT CAVOK 20/16 Q1015=
2020030312 - SABZ18 SBSR 031200
2020030312 - METAR SBSR 031200Z 15006KT 9999 SCT020 22/16 Q1016=
2020030313 - SABZ18 SBSR 031300
2020030313 - METAR SBSR 031300Z 18003KT 9999 SCT020 25/18 Q1016=
2020030314 - SABZ18 SBSR 031400
2020030314 - METAR SBSR 031400Z 09006KT 9999 SCT025 26/18 Q1016=
2020030315 - SABZ18 SBSR 031500
2020030315 - METAR SBSR 031500Z 12005KT 9999 BKN025 27/17 Q1015=
2020030316 - SABZ18 SBSR 031600
2020030316 - METAR SBSR 031600Z 17002KT 9999 BKN025 28/18 Q1015=
2020030317 - SABZ18 SBSR 031700
2020030317 - METAR SBSR 031700Z 14004KT 090V180 9999 BKN023 28/17 Q1014=
2020030318 - SABZ18 SBSR 031800
2020030318 - METAR SBSR 031800Z VRB02KT 9999 BKN025 29/17 Q1013=
2020030319 - SABZ18 SBSR 031900
2020030319 - METAR SBSR 031900Z 27003KT 9999 BKN025 29/17 Q1013=
2020030320 - SABZ18 SBSR 032000
2020030320 - METAR SBSR 032000Z VRB06KT 9999 SCT025 29/17 Q1012=
2020030321 - SABZ18 SBSR 032100
2020030321 - METAR SBSR 032100Z 23007KT 9999 SCT030 28/17 Q1012=
2020030322 - SABZ18 SBSR 032200
2020030322 - METAR SBSR 032200Z 17004KT 9999 SCT030 26/18 Q1013=
2020030323 - SABZ18 SBSR 032300
2020030323 - METAR SBSR 032300Z 18005KT CAVOK 25/18 Q1013=
2020030400 - SABZ18 SBSR 040000
2020030400 - METAR SBSR 040000Z 18004KT CAVOK 24/18 Q1014=
2020030401 - SABZ18 SBSR 040100
2020030401 - METAR SBSR 040100Z 17008KT CAVOK 23/18 Q1015=
2020030402 - SABZ18 SBSR 040200
2020030402 - METAR SBSR 040200Z 17005KT CAVOK 23/18 Q1015=
2020030403 - SABZ18 SBSR 040300
2020030403 - METAR SBSR 040300Z 17009KT CAVOK 22/18 Q1015=
2020030404 - SABZ18 SBSR 040400
2020030404 - METAR SBSR 040400Z 16005KT CAVOK 21/17 Q1015=
2020030405 - SABZ18 SBSR 040500
2020030405 - METAR SBSR 040500Z 17006KT CAVOK 20/18 Q1014=
2020030406 - SABZ18 SBSR 040600
2020030406 - METAR SBSR 040600Z 18005KT CAVOK 19/17 Q1014=
2020030407 - SABZ18 SBSR 040700
2020030407 - METAR SBSR 040700Z 17003KT CAVOK 19/17 Q1014=
2020030408 - SABZ18 SBSR 040800
2020030408 - METAR SBSR 040800Z 16003KT CAVOK 19/17 Q1014=
2020030409 - SABZ18 SBSR 040900
2020030409 - METAR SBSR 040900Z 17004KT CAVOK 18/16 Q1015=
2020030410 - SABZ18 SBSR 041000
2020030410 - METAR SBSR 041000Z 00000KT CAVOK 19/16 Q1015=
2020030411 - SABZ18 SBSR 041100
2020030411 - METAR SBSR 041100Z 16004KT CAVOK 20/17 Q1016=
2020030412 - SABZ18 SBSR 041200
2020030412 - METAR SBSR 041200Z 14004KT CAVOK 23/17 Q1016=
2020030413 - SABZ18 SBSR 041300
2020030413 - METAR SBSR 041300Z 00000KT CAVOK 26/18 Q1016=
2020030414 - SABZ18 SBSR 041400
2020030414 - METAR SBSR 041400Z 09003KT CAVOK 27/18 Q1016=
2020030415 - SABZ18 SBSR 041500
2020030415 - METAR SBSR 041500Z 35003KT 9999 BKN030 29/17 Q1016=
2020030416 - SABZ18 SBSR 041600
2020030416 - METAR SBSR 041600Z 30005KT 9999 BKN030 29/17 Q1015=
2020030417 - SABZ18 SBSR 041700
2020030417 - METAR SBSR 041700Z 24007KT 200V300 9999 BKN025 30/17 Q1014=
2020030418 - SABZ18 SBSR 041800
2020030418 - METAR SBSR 041800Z VRB06KT 9999 SCT025 30/17 Q1014=
2020030419 - SABZ18 SBSR 041900
2020030419 - METAR SBSR 041900Z 24009KT 190V290 9999 SCT025 31/17 Q1013=
2020030420 - SABZ18 SBSR 042000
2020030420 - METAR SBSR 042000Z 33010KT 9999 FEW030 30/17 Q1013=
2020030421 - SABZ18 SBSR 042100
2020030421 - METAR SBSR 042100Z 24009KT CAVOK 29/16 Q1013=
2020030422 - SABZ18 SBSR 042200
2020030422 - METAR SBSR 042200Z 18006KT CAVOK 28/17 Q1014=
2020030423 - SABZ18 SBSR 042300
2020030423 - METAR SBSR 042300Z 20005KT CAVOK 27/17 Q1014=
2020030500 - SABZ18 SBSR 050000
2020030500 - METAR SBSR 050000Z 20005KT CAVOK 26/17 Q1015=
2020030501 - SABZ18 SBSR 050100
2020030501 - METAR SBSR 050100Z 20004KT CAVOK 26/17 Q1015=
2020030502 - SABZ18 SBSR 050200
2020030502 - METAR SBSR 050200Z 16003KT CAVOK 25/17 Q1016=
2020030503 - SABZ18 SBSR 050300
2020030503 - METAR SBSR 050300Z 18002KT CAVOK 24/17 Q1016=
2020030504 - SABZ18 SBSR 050400
2020030504 - METAR SBSR 050400Z 19002KT CAVOK 23/17 Q1016=
2020030505 - SABZ18 SBSR 050500
2020030505 - METAR SBSR 050500Z 14002KT CAVOK 23/16 Q1015=
2020030506 - SABZ18 SBSR 050600
2020030506 - METAR SBSR 050600Z 13003KT CAVOK 22/16 Q1015=
2020030507 - SABZ18 SBSR 050700
2020030507 - METAR SBSR 050700Z 15002KT CAVOK 22/16 Q1015=
2020030508 - SABZ18 SBSR 050800
2020030508 - METAR SBSR 050800Z 14006KT CAVOK 21/16 Q1015=
2020030509 - SABZ18 SBSR 050900
2020030509 - METAR SBSR 050900Z 14003KT CAVOK 21/16 Q1015=
2020030510 - SABZ18 SBSR 051000
2020030510 - METAR SBSR 051000Z 00000KT CAVOK 21/17 Q1016=
2020030511 - SABZ18 SBSR 051100
2020030511 - METAR SBSR 051100Z 20007KT CAVOK 21/17 Q1017=
2020030512 - SABZ18 SBSR 051200
2020030512 - METAR SBSR 051200Z 13004KT CAVOK 24/17 Q1018=
2020030513 - SABZ18 SBSR 051300
2020030513 - METAR SBSR 051300Z 11005KT CAVOK 26/17 Q1017=
2020030514 - SABZ18 SBSR 051400
2020030514 - METAR SBSR 051400Z 16006KT CAVOK 28/16 Q1017=
2020030515 - SABZ18 SBSR 051500
2020030515 - METAR SBSR 051500Z 12004KT 9999 FEW020 29/16 Q1017=
2020030516 - SABZ18 SBSR 051600
2020030516 - METAR SBSR 051600Z 18005KT 9999 FEW020 30/14 Q1016=
2020030517 - SABZ18 SBSR 051700
2020030517 - METAR SBSR 051700Z 24004KT 9999 SCT020 31/13 Q1015=
2020030518 - SABZ18 SBSR 051800
2020030518 - METAR SBSR 051800Z 18005KT 9999 SCT020 31/13 Q1014=
2020030519 - SABZ18 SBSR 051900
2020030519 - METAR SBSR 051900Z 21009KT 9999 SCT020 31/12 Q1014=
2020030520 - SABZ18 SBSR 052000
2020030520 - METAR SBSR 052000Z 21008KT 9999 FEW020 30/13 Q1013=
2020030521 - SABZ18 SBSR 052100
2020030521 - METAR SBSR 052100Z 19009KT CAVOK 30/13 Q1013=
2020030522 - SABZ18 SBSR 052200
2020030522 - METAR SBSR 052200Z 21006KT CAVOK 28/15 Q1014=
2020030523 - SABZ18 SBSR 052300
2020030523 - METAR SBSR 052300Z 19005KT CAVOK 27/15 Q1015=
2020030600 - SABZ18 SBSR 060000
2020030600 - METAR SBSR 060000Z 14005KT CAVOK 27/14 Q1015=
2020030601 - SABZ18 SBSR 060100
2020030601 - METAR SBSR 060100Z 16007KT CAVOK 26/14 Q1016=
2020030602 - SABZ18 SBSR 060200
2020030602 - METAR SBSR 060200Z 15007KT CAVOK 25/15 Q1016=
2020030603 - SABZ18 SBSR 060300
2020030603 - METAR SBSR 060300Z 17008KT CAVOK 24/15 Q1016=
2020030604 - SABZ18 SBSR 060400
2020030604 - METAR SBSR 060400Z 16007KT CAVOK 22/15 Q1016=
2020030605 - SABZ18 SBSR 060500
2020030605 - METAR SBSR 060500Z 15006KT CAVOK 21/15 Q1015=
2020030606 - SABZ18 SBSR 060600
2020030606 - METAR SBSR 060600Z 15006KT CAVOK 20/15 Q1015=
2020030607 - SABZ18 SBSR 060700
2020030607 - METAR SBSR 060700Z 16006KT CAVOK 20/16 Q1015=
2020030608 - SABZ18 SBSR 060800
2020030608 - METAR SBSR 060800Z 15005KT CAVOK 19/15 Q1015=
2020030609 - SABZ18 SBSR 060900
2020030609 - METAR SBSR 060900Z 14006KT CAVOK 19/15 Q1016=
2020030610 - SABZ18 SBSR 061000
2020030610 - METAR SBSR 061000Z 16004KT CAVOK 19/15 Q1016=
2020030611 - SABZ18 SBSR 061100
2020030611 - METAR SBSR 061100Z 17007KT CAVOK 20/15 Q1017=
2020030612 - SABZ18 SBSR 061200
2020030612 - METAR SBSR 061200Z 17007KT CAVOK 22/15 Q1017=
2020030613 - SABZ18 SBSR 061300
2020030613 - METAR SBSR 061300Z 16005KT CAVOK 24/16 Q1017=
2020030614 - SABZ18 SBSR 061400
2020030614 - METAR SBSR 061400Z 19005KT CAVOK 27/16 Q1017=
2020030615 - SABZ18 SBSR 061500
2020030615 - METAR SBSR 061500Z 13007KT CAVOK 29/13 Q1017=
2020030616 - SABZ18 SBSR 061600
2020030616 - METAR SBSR 061600Z 18006KT CAVOK 29/14 Q1016=
2020030617 - SABZ18 SBSR 061700
2020030617 - METAR SBSR 061700Z 21004KT CAVOK 30/13 Q1015=
2020030618 - SABZ18 SBSR 061800
2020030618 - METAR SBSR 061800Z 18008KT 9999 SCT020 32/13 Q1014=
2020030619 - SABZ18 SBSR 061900
2020030619 - METAR SBSR 061900Z 18008KT 9999 SCT020 30/13 Q1014=
2020030620 - SABZ18 SBSR 062000
2020030620 - METAR SBSR 062000Z 21009KT 9999 FEW020 30/13 Q1013=
2020030621 - SABZ18 SBSR 062100
2020030621 - METAR SBSR 062100Z 21009KT CAVOK 29/13 Q1013=
2020030622 - SABZ18 SBSR 062200
2020030622 - METAR SBSR 062200Z 20004KT CAVOK 27/14 Q1013=
2020030623 - SABZ18 SBSR 062300
2020030623 - METAR SBSR 062300Z 18005KT CAVOK 26/14 Q1014=
2020030700 - SABZ18 SBSR 070000
2020030700 - METAR SBSR 070000Z 15003KT CAVOK 26/15 Q1014=
2020030701 - SABZ18 SBSR 070100
2020030701 - METAR SBSR 070100Z 17005KT CAVOK 25/15 Q1015=
2020030702 - SABZ18 SBSR 070200
2020030702 - METAR SBSR 070200Z 17007KT CAVOK 24/14 Q1015=
2020030703 - SABZ18 SBSR 070300
2020030703 - METAR SBSR 070300Z 15005KT 120V180 CAVOK 23/14 Q1014=
2020030704 - SABZ18 SBSR 070400
2020030704 - METAR SBSR 070400Z 17005KT CAVOK 23/13 Q1014=
2020030705 - SABZ18 SBSR 070500
2020030705 - METAR SBSR 070500Z 17007KT CAVOK 21/14 Q1014=
2020030706 - SABZ18 SBSR 070600
2020030706 - METAR SBSR 070600Z 17006KT CAVOK 20/14 Q1014=
2020030707 - SABZ18 SBSR 070700
2020030707 - METAR SBSR 070700Z 16005KT CAVOK 19/14 Q1013=
2020030708 - SABZ18 SBSR 070800
2020030708 - METAR SBSR 070800Z 17006KT CAVOK 19/14 Q1014=
2020030709 - SABZ18 SBSR 070900
2020030709 - METAR SBSR 070900Z 15005KT CAVOK 18/14 Q1014=
2020030710 - SABZ18 SBSR 071000
2020030710 - METAR SBSR 071000Z 18005KT CAVOK 18/14 Q1015=
2020030711 - SABZ18 SBSR 071100
2020030711 - METAR SBSR 071100Z 15004KT CAVOK 19/14 Q1015=
2020030712 - SABZ18 SBSR 071200
2020030712 - METAR SBSR 071200Z 15005KT CAVOK 22/15 Q1016=
2020030713 - SABZ18 SBSR 071300
2020030713 - METAR SBSR 071300Z 15003KT CAVOK 25/15 Q1016=
2020030714 - SABZ18 SBSR 071400
2020030714 - METAR SBSR 071400Z 18003KT CAVOK 27/14 Q1015=
2020030715 - SABZ18 SBSR 071500
2020030715 - METAR SBSR 071500Z 20005KT CAVOK 28/13 Q1015=
2020030716 - SABZ18 SBSR 071600
2020030716 - METAR SBSR 071600Z 18005KT CAVOK 29/10 Q1014=
2020030717 - SABZ18 SBSR 071700
2020030717 - METAR SBSR 071700Z 24010KT CAVOK 30/10 Q1013=
2020030718 - SABZ18 SBSR 071800
2020030718 - METAR SBSR 071800Z 24010KT CAVOK 30/09 Q1012=
2020030719 - SABZ18 SBSR 071900
2020030719 - METAR SBSR 071900Z 21010KT CAVOK 30/10 Q1012=
2020030720 - SABZ18 SBSR 072000
2020030720 - METAR SBSR 072000Z 24008KT CAVOK 30/09 Q1012=
2020030721 - SABZ18 SBSR 072100
2020030721 - METAR SBSR 072100Z 24007KT CAVOK 28/11 Q1012=
2020030722 - SABZ18 SBSR 072200
2020030722 - METAR SBSR 072200Z 21003KT CAVOK 27/11 Q1012=
2020030723 - SABZ18 SBSR 072300
2020030723 - METAR SBSR 072300Z 21002KT CAVOK 26/12 Q1013=
2020030800 - SABZ18 SBSR 080000
2020030800 - METAR SBSR 080000Z 21002KT CAVOK 26/11 Q1013=
2020030801 - SABZ18 SBSR 080100
2020030801 - METAR SBSR 080100Z 00000KT CAVOK 23/14 Q1014=
2020030802 - SABZ18 SBSR 080200
2020030802 - METAR SBSR 080200Z 00000KT CAVOK 22/14 Q1014=
2020030803 - SABZ18 SBSR 080300
2020030803 - METAR SBSR 080300Z 00000KT CAVOK 21/14 Q1014=
2020030804 - SABZ18 SBSR 080400
2020030804 - METAR SBSR 080400Z 00000KT CAVOK 20/14 Q1013=
2020030805 - SABZ18 SBSR 080500
2020030805 - METAR SBSR 080500Z 17002KT CAVOK 22/13 Q1013=
2020030806 - SABZ18 SBSR 080600
2020030806 - METAR SBSR 080600Z 18002KT CAVOK 21/14 Q1013=
2020030807 - SABZ18 SBSR 080700
2020030807 - METAR SBSR 080700Z 18004KT CAVOK 20/15 Q1013=
2020030808 - SABZ18 SBSR 080800
2020030808 - METAR SBSR 080800Z 19002KT CAVOK 19/15 Q1013=
2020030809 - SABZ18 SBSR 080900
2020030809 - METAR SBSR 080900Z 17001KT CAVOK 19/15 Q1013=
2020030810 - SABZ18 SBSR 081000
2020030810 - METAR SBSR 081000Z 24003KT CAVOK 18/15 Q1014=
2020030811 - SABZ18 SBSR 081100
2020030811 - METAR SBSR 081100Z 18003KT CAVOK 20/16 Q1015=
2020030812 - SABZ18 SBSR 081200
2020030812 - METAR SBSR 081200Z 00000KT CAVOK 23/17 Q1016=
2020030813 - SABZ18 SBSR 081300
2020030813 - METAR SBSR 081300Z 00000KT CAVOK 25/16 Q1016=
2020030814 - SABZ18 SBSR 081400
2020030814 - METAR SBSR 081400Z 28003KT CAVOK 27/16 Q1016=
2020030815 - SABZ18 SBSR 081500
2020030815 - METAR SBSR 081500Z 00000KT 9999 FEW030 29/14 Q1015=
2020030816 - SABZ18 SBSR 081600
2020030816 - METAR SBSR 081600Z 27005KT 9999 SCT025 29/14 Q1014=
2020030817 - SABZ18 SBSR 081700
2020030817 - METAR SBSR 081700Z 30004KT 9999 SCT025 30/12 Q1014=
2020030818 - SABZ18 SBSR 081800
2020030818 - METAR SBSR 081800Z 27008KT 9999 SCT022 31/12 Q1013=
2020030819 - SABZ18 SBSR 081900
2020030819 - METAR SBSR 081900Z 24009KT CAVOK 31/11 Q1012=
2020030820 - SABZ18 SBSR 082000
2020030820 - METAR SBSR 082000Z 24009KT CAVOK 30/11 Q1012=
2020030821 - SABZ18 SBSR 082100
2020030821 - METAR SBSR 082100Z 21006KT CAVOK 29/11 Q1012=
2020030822 - SABZ18 SBSR 082200
2020030822 - METAR SBSR 082200Z 21006KT CAVOK 28/12 Q1013=
2020030823 - SABZ18 SBSR 082300
2020030823 - METAR SBSR 082300Z 20003KT CAVOK 27/13 Q1013=
2020030900 - SABZ18 SBSR 090000
2020030900 - METAR SBSR 090000Z 19002KT CAVOK 26/14 Q1014=
2020030901 - SABZ18 SBSR 090100
2020030901 - METAR SBSR 090100Z 00000KT CAVOK 25/15 Q1015=
2020030902 - SABZ18 SBSR 090200
2020030902 - METAR SBSR 090200Z 00000KT CAVOK 23/15 Q1016=
2020030903 - SABZ18 SBSR 090300
2020030903 - METAR SBSR 090300Z 00000KT CAVOK 23/15 Q1016=
2020030904 - SABZ18 SBSR 090400
2020030904 - METAR SBSR 090400Z 00000KT CAVOK 24/14 Q1015=
2020030905 - SABZ18 SBSR 090500
2020030905 - METAR SBSR 090500Z 00000KT CAVOK 23/14 Q1015=
2020030906 - SABZ18 SBSR 090600
2020030906 - METAR SBSR 090600Z 00000KT CAVOK 22/15 Q1015=
2020030907 - SABZ18 SBSR 090700
2020030907 - METAR SBSR 090700Z 18005KT CAVOK 20/15 Q1015=
2020030908 - SABZ18 SBSR 090800
2020030908 - METAR SBSR 090800Z 15003KT CAVOK 20/15 Q1015=
2020030909 - SABZ18 SBSR 090900
2020030909 - METAR SBSR 090900Z 19005KT CAVOK 19/15 Q1016=
2020030910 - SABZ18 SBSR 091000
2020030910 - METAR SBSR 091000Z 16003KT CAVOK 19/16 Q1016=
2020030911 - SABZ18 SBSR 091100
2020030911 - METAR SBSR 091100Z 15006KT CAVOK 21/16 Q1017=
2020030912 - SABZ18 SBSR 091200
2020030912 - METAR SBSR 091200Z 10006KT CAVOK 24/17 Q1017=
2020030913 - SABZ18 SBSR 091300
2020030913 - METAR SBSR 091300Z 13004KT CAVOK 27/17 Q1017=
2020030914 - SABZ18 SBSR 091400
2020030914 - METAR SBSR 091400Z 08003KT CAVOK 28/17 Q1017=
2020030915 - SABZ18 SBSR 091500
2020030915 - METAR SBSR 091500Z 11002KT CAVOK 30/15 Q1017=
2020030916 - SABZ18 SBSR 091600
2020030916 - METAR SBSR 091600Z 30002KT 9999 SCT025 29/14 Q1016=
2020030917 - SABZ18 SBSR 091700
2020030917 - METAR SBSR 091700Z 21004KT 9999 SCT025 31/14 Q1015=
2020030918 - SABZ18 SBSR 091800
2020030918 - METAR SBSR 091800Z 09003KT 9999 SCT030 30/13 Q1014=
2020030919 - SABZ18 SBSR 091900
2020030919 - METAR SBSR 091900Z 16005KT 9999 SCT030 31/13 Q1014=
2020030920 - SABZ18 SBSR 092000
2020030920 - METAR SBSR 092000Z 21006KT 9999 FEW030 32/12 Q1014=
2020030921 - SABZ18 SBSR 092100
2020030921 - METAR SBSR 092100Z 27006KT 9999 FEW035 31/12 Q1014=
2020030922 - SABZ18 SBSR 092200
2020030922 - METAR SBSR 092200Z 23004KT CAVOK 29/14 Q1014=
2020030923 - SABZ18 SBSR 092300
2020030923 - METAR SBSR 092300Z 21007KT 9999 FEW035 28/12 Q1015=
2020031000 - SABZ18 SBSR 100000
2020031000 - METAR SBSR 100000Z 20003KT CAVOK 27/13 Q1015=
2020031001 - SABZ18 SBSR 100100
2020031001 - METAR SBSR 100100Z 20003KT CAVOK 27/13 Q1016=
2020031002 - SABZ18 SBSR 100200
2020031002 - METAR SBSR 100200Z 17006KT 150V210 CAVOK 26/14 Q1016=
2020031003 - SABZ18 SBSR 100300
2020031003 - METAR SBSR 100300Z 16004KT 100V170 CAVOK 25/16 Q1016=
2020031004 - SABZ18 SBSR 100400
2020031004 - METAR SBSR 100400Z 12002KT CAVOK 24/16 Q1015=
2020031005 - SABZ18 SBSR 100500
2020031005 - METAR SBSR 100500Z 18007KT CAVOK 24/16 Q1015=
2020031006 - SABZ18 SBSR 100600
2020031006 - METAR SBSR 100600Z 15004KT CAVOK 23/17 Q1015=
2020031007 - SABZ18 SBSR 100700
2020031007 - METAR SBSR 100700Z 18005KT CAVOK 23/17 Q1015=
2020031008 - SABZ18 SBSR 100800
2020031008 - METAR SBSR 100800Z 18003KT CAVOK 22/17 Q1015=
2020031009 - SABZ18 SBSR 100900
2020031009 - METAR SBSR 100900Z 15003KT CAVOK 21/17 Q1016=
2020031010 - SABZ18 SBSR 101000
2020031010 - METAR SBSR 101000Z 12004KT CAVOK 22/17 Q1016=
2020031011 - SABZ18 SBSR 101100
2020031011 - METAR SBSR 101100Z 11005KT CAVOK 23/17 Q1017=
2020031012 - SABZ18 SBSR 101200
2020031012 - METAR SBSR 101200Z 10004KT CAVOK 25/18 Q1018=
2020031013 - SABZ18 SBSR 101300
2020031013 - METAR SBSR 101300Z 09007KT CAVOK 28/17 Q1018=
2020031014 - SABZ18 SBSR 101400
2020031014 - METAR SBSR 101400Z 05010KT CAVOK 29/17 Q1018=
2020031015 - SABZ18 SBSR 101500
2020031015 - METAR SBSR 101500Z 02007KT 9999 FEW030 30/17 Q1017=
2020031016 - SABZ18 SBSR 101600
2020031016 - METAR SBSR 101600Z 05008KT 9999 FEW030 31/17 Q1016=
2020031017 - SABZ18 SBSR 101700
2020031017 - METAR SBSR 101700Z 12006KT 9999 SCT030 32/15 Q1015=
2020031018 - SABZ18 SBSR 101800
2020031018 - METAR SBSR 101800Z 07006KT 9999 SCT030 32/14 Q1014=
2020031019 - SABZ18 SBSR 101900
2020031019 - METAR SBSR 101900Z 19004KT 9999 SCT030 32/14 Q1013=
2020031020 - SABZ18 SBSR 102000
2020031020 - METAR SBSR 102000Z 23003KT 9999 FEW030 32/14 Q1013=
2020031021 - SABZ18 SBSR 102100
2020031021 - METAR SBSR 102100Z 20005KT 9999 FEW030 32/15 Q1013=
2020031022 - SABZ18 SBSR 102200
2020031022 - METAR SBSR 102200Z 18004KT 9999 FEW025 31/15 Q1013=
2020031023 - SABZ18 SBSR 102300
2020031023 - METAR SBSR 102300Z 18005KT 150V210 9999 FEW025 29/16 Q1013=
2020031100 - SABZ18 SBSR 110000
2020031100 - METAR SBSR 110000Z 09009KT 060V120 9999 FEW025 SCT070 28/18 Q1014=
2020031101 - SABZ18 SBSR 110100
2020031101 - METAR SBSR 110100Z 06007KT 020V090 9999 FEW025 SCT070 27/19 Q1015=
2020031102 - SABZ18 SBSR 110200
2020031102 - METAR SBSR 110200Z 05005KT 010V070 9999 FEW035 SCT070 26/18 Q1015=
2020031103 - SABZ18 SBSR 110300
2020031103 - METAR SBSR 110300Z 00000KT 9999 SCT030 SCT070 26/18 Q1015=
2020031104 - SABZ18 SBSR 110400
2020031104 - METAR SBSR 110400Z 00000KT 9999 SCT030 SCT070 25/18 Q1014=
2020031105 - SABZ18 SBSR 110500
2020031105 - METAR SBSR 110500Z 00000KT 9999 FEW030 SCT070 26/18 Q1014=
2020031106 - SABZ18 SBSR 110600
2020031106 - METAR SBSR 110600Z 12004KT 9999 FEW030 SCT070 26/18 Q1014=
2020031107 - SABZ18 SBSR 110700
2020031107 - METAR SBSR 110700Z 15003KT CAVOK 24/19 Q1014=
2020031108 - SABZ18 SBSR 110800
2020031108 - METAR SBSR 110800Z 13003KT CAVOK 24/18 Q1014=
2020031109 - SABZ18 SBSR 110900
2020031109 - METAR SBSR 110900Z 14004KT 9999 FEW025 23/18 Q1014=
2020031110 - SABZ18 SBSR 111000
2020031110 - METAR SBSR 111000Z 13005KT CAVOK 23/18 Q1014=
2020031111 - SABZ18 SBSR 111100
2020031111 - METAR SBSR 111100Z 11007KT CAVOK 24/18 Q1015=
2020031112 - SABZ18 SBSR 111200
2020031112 - METAR SBSR 111200Z 09008KT CAVOK 27/18 Q1016=
2020031113 - SABZ18 SBSR 111300
2020031113 - METAR SBSR 111300Z 07009KT CAVOK 29/20 Q1016=
2020031114 - SABZ18 SBSR 111400
2020031114 - METAR SBSR 111400Z 03010KT 9999 FEW025 29/18 Q1016=
2020031115 - SABZ18 SBSR 111500
2020031115 - METAR SBSR 111500Z 04008KT 9999 SCT025 30/18 Q1015=
2020031116 - SABZ18 SBSR 111600
2020031116 - METAR SBSR 111600Z 04006KT 9999 SCT025 30/17 Q1015=
2020031117 - SABZ18 SBSR 111700
2020031117 - METAR SBSR 111700Z 04008KT 9999 SCT025 32/16 Q1014=
2020031118 - SABZ18 SBSR 111800
2020031118 - METAR SBSR 111800Z 00000KT 9999 SCT025 33/16 Q1013=
2020031119 - SABZ18 SBSR 111900
2020031119 - METAR SBSR 111900Z 00000KT 9999 FEW025 32/15 Q1012=
2020031120 - SABZ18 SBSR 112000
2020031120 - METAR SBSR 112000Z 10007KT 9999 FEW025 33/15 Q1012=
2020031121 - SABZ18 SBSR 112100
2020031121 - METAR SBSR 112100Z 10005KT CAVOK 32/15 Q1011=
2020031122 - SABZ18 SBSR 112200
2020031122 - METAR SBSR 112200Z 12006KT CAVOK 31/16 Q1012=
2020031123 - SABZ18 SBSR 112300
2020031123 - METAR SBSR 112300Z 12008KT CAVOK 30/16 Q1012=
2020031200 - SABZ18 SBSR 120000
2020031200 - METAR SBSR 120000Z 12002KT CAVOK 30/17 Q1013=
2020031201 - SABZ18 SBSR 120100
2020031201 - METAR SBSR 120100Z 09002KT CAVOK 28/17 Q1014=
2020031202 - SABZ18 SBSR 120200
2020031202 - METAR SBSR 120200Z 12003KT CAVOK 28/17 Q1014=
2020031203 - SABZ18 SBSR 120300
2020031203 - METAR SBSR 120300Z 12002KT CAVOK 27/18 Q1014=
2020031204 - SABZ18 SBSR 120400
2020031204 - METAR SBSR 120400Z 11003KT CAVOK 26/18 Q1014=
2020031205 - SABZ18 SBSR 120500
2020031205 - METAR SBSR 120500Z 10004KT CAVOK 26/18 Q1014=
2020031206 - SABZ18 SBSR 120600
2020031206 - METAR SBSR 120600Z 00000KT CAVOK 25/18 Q1014=
2020031207 - SABZ18 SBSR 120700
2020031207 - METAR SBSR 120700Z 16005KT CAVOK 24/18 Q1014=
2020031208 - SABZ18 SBSR 120800
2020031208 - METAR SBSR 120800Z 13007KT CAVOK 24/18 Q1014=
2020031209 - SABZ18 SBSR 120900
2020031209 - METAR SBSR 120900Z 14006KT CAVOK 23/18 Q1014=
2020031210 - SABZ18 SBSR 121000
2020031210 - METAR SBSR 121000Z 12007KT CAVOK 23/17 Q1015=
2020031211 - SABZ18 SBSR 121100
2020031211 - METAR SBSR 121100Z 09004KT CAVOK 25/18 Q1016=
2020031212 - SABZ18 SBSR 121200
2020031212 - METAR SBSR 121200Z 06011KT CAVOK 27/18 Q1017=
2020031213 - SABZ18 SBSR 121300
2020031213 - METAR SBSR 121300Z 07009KT CAVOK 29/18 Q1017=
2020031214 - SABZ18 SBSR 121400
2020031214 - METAR SBSR 121400Z 04007KT 350V070 CAVOK 31/18 Q1017=
2020031215 - SABZ18 SBSR 121500
2020031215 - METAR SBSR 121500Z 06004KT FEW025 31/18 Q1016=
2020031216 - SABZ18 SBSR 121600
2020031216 - METAR SBSR 121600Z 05006KT 9999 SCT025 32/17 Q1016=
2020031217 - SABZ18 SBSR 121700
2020031217 - METAR SBSR 121700Z 07008KT 9999 SCT025 33/16 Q1015=
2020031218 - SABZ18 SBSR 121800
2020031218 - METAR SBSR 121800Z 07009KT 9999 SCT025 32/16 Q1014=
2020031219 - SABZ18 SBSR 121900
2020031219 - METAR SBSR 121900Z 13004KT 9999 FEW025 32/15 Q1013=
2020031220 - SABZ18 SBSR 122000
2020031220 - METAR SBSR 122000Z 13004KT 9999 FEW025 33/15 Q1013=
2020031221 - SABZ18 SBSR 122100
2020031221 - METAR SBSR 122100Z 15003KT CAVOK 32/16 Q1013=
2020031222 - SABZ18 SBSR 122200
2020031222 - METAR SBSR 122200Z 15004KT CAVOK 31/15 Q1013=
2020031223 - SABZ18 SBSR 122300
2020031223 - METAR SBSR 122300Z 18002KT CAVOK 30/16 Q1014=
2020031300 - SABZ18 SBSR 130000
2020031300 - METAR SBSR 130000Z 15002KT CAVOK 29/17 Q1015=
2020031301 - SABZ18 SBSR 130100
2020031301 - METAR SBSR 130100Z 15004KT CAVOK 28/16 Q1015=
2020031302 - SABZ18 SBSR 130200
2020031302 - METAR SBSR 130200Z 12006KT CAVOK 28/17 Q1016=
2020031303 - SABZ18 SBSR 130300
2020031303 - METAR SBSR 130300Z 12007KT CAVOK 27/17 Q1016=
2020031304 - SABZ18 SBSR 130400
2020031304 - METAR SBSR 130400Z 13005KT CAVOK 27/17 Q1015=
2020031305 - SABZ18 SBSR 130500
2020031305 - METAR SBSR 130500Z 11008KT CAVOK 26/17 Q1015=
2020031306 - SABZ18 SBSR 130600
2020031306 - METAR SBSR 130600Z 12006KT CAVOK 25/17 Q1015=
2020031307 - SABZ18 SBSR 130700
2020031307 - METAR SBSR 130700Z 11005KT CAVOK 25/17 Q1015=
2020031308 - SABZ18 SBSR 130800
2020031308 - METAR SBSR 130800Z 16004KT CAVOK 24/17 Q1015=
2020031309 - SABZ18 SBSR 130900
2020031309 - METAR SBSR 130900Z 18003KT CAVOK 24/17 Q1016=
2020031310 - SABZ18 SBSR 131000
2020031310 - METAR SBSR 131000Z 00000KT CAVOK 23/17 Q1017=
2020031311 - SABZ18 SBSR 131100
2020031311 - METAR SBSR 131100Z 12004KT CAVOK 25/17 Q1017=
2020031312 - SABZ18 SBSR 131200
2020031312 - METAR SBSR 131200Z 09002KT CAVOK 26/17 Q1018=
2020031313 - SABZ18 SBSR 131300
2020031313 - METAR SBSR 131300Z 03007KT CAVOK 29/17 Q1018=
2020031314 - SABZ18 SBSR 131400
2020031314 - METAR SBSR 131400Z 06008KT CAVOK 30/18 Q1018=
2020031315 - SABZ18 SBSR 131500
2020031315 - METAR SBSR 131500Z 36003KT 9999 FEW025 32/17 Q1017=
2020031316 - SABZ18 SBSR 131600
2020031316 - METAR SBSR 131600Z 05006KT 9999 SCT025 33/16 Q1016=
2020031317 - SABZ18 SBSR 131700
2020031317 - METAR SBSR 131700Z 12004KT 9999 SCT025 33/14 Q1015=
2020031318 - SABZ18 SBSR 131800
2020031318 - METAR SBSR 131800Z 18003KT 9999 SCT025 33/14 Q1015=
2020031319 - SABZ18 SBSR 131900
2020031319 - METAR SBSR 131900Z 16003KT 9999 SCT025 33/14 Q1014=
2020031320 - SABZ18 SBSR 132000
2020031320 - METAR SBSR 132000Z 16003KT 9999 FEW025 34/13 Q1014=
2020031321 - SABZ18 SBSR 132100
2020031321 - METAR SBSR 132100Z 20005KT 9999 FEW025 33/13 Q1013=
2020031322 - SABZ18 SBSR 132200
2020031322 - METAR SBSR 132200Z 21007KT CAVOK 31/14 Q1014=
2020031323 - SABZ18 SBSR 132300
2020031323 - METAR SBSR 132300Z 18006KT CAVOK 30/15 Q1014=
2020031400 - SABZ18 SBSR 140000
2020031400 - METAR SBSR 140000Z 18004KT CAVOK 30/15 Q1015=
2020031401 - SABZ18 SBSR 140100
2020031401 - METAR SBSR 140100Z 17005KT CAVOK 28/15 Q1016=
2020031402 - SABZ18 SBSR 140200
2020031402 - METAR SBSR 140200Z 16003KT CAVOK 27/16 Q1016=
2020031403 - SABZ18 SBSR 140300
2020031403 - METAR SBSR 140300Z 15004KT CAVOK 27/14 Q1016=
2020031404 - SABZ18 SBSR 140400
2020031404 - METAR SBSR 140400Z 14005KT CAVOK 27/14 Q1015=
2020031405 - SABZ18 SBSR 140500
2020031405 - METAR SBSR 140500Z 12004KT CAVOK 26/15 Q1015=
2020031406 - SABZ18 SBSR 140600
2020031406 - METAR SBSR 140600Z 11008KT CAVOK 25/15 Q1015=
2020031407 - SABZ18 SBSR 140700
2020031407 - METAR SBSR 140700Z 10005KT CAVOK 24/16 Q1015=
2020031408 - SABZ18 SBSR 140800
2020031408 - METAR SBSR 140800Z 10006KT CAVOK 24/16 Q1015=
2020031409 - SABZ18 SBSR 140900
2020031409 - METAR SBSR 140900Z 09004KT CAVOK 23/17 Q1015=
2020031410 - SABZ18 SBSR 141000
2020031410 - METAR SBSR 141000Z 11006KT CAVOK 23/17 Q1016=
2020031411 - SABZ18 SBSR 141100
2020031411 - METAR SBSR 141100Z 09006KT CAVOK 25/17 Q1017=
2020031412 - SABZ18 SBSR 141200
2020031412 - METAR SBSR 141200Z 07009KT CAVOK 27/18 Q1018=
2020031413 - SABZ18 SBSR 141300
2020031413 - METAR SBSR 141300Z 06012KT CAVOK 29/19 Q1018=
2020031414 - SABZ18 SBSR 141400
2020031414 - METAR SBSR 141400Z 04009KT CAVOK 29/19 Q1018=
2020031415 - SABZ18 SBSR 141500
2020031415 - METAR SBSR 141500Z 03007KT 9999 FEW025 31/18 Q1017=
2020031416 - SABZ18 SBSR 141600
2020031416 - METAR SBSR 141600Z 03003KT 9999 SCT025 32/18 Q1016=
2020031417 - SABZ18 SBSR 141700
2020031417 - METAR SBSR 141700Z 03005KT 9999 SCT025 33/16 Q1015=
2020031418 - SABZ18 SBSR 141800
2020031418 - METAR SBSR 141800Z 12005KT 9999 SCT025 32/15 Q1014=
2020031419 - SABZ18 SBSR 141900
2020031419 - METAR SBSR 141900Z 08003KT 9999 SCT025 33/15 Q1014=
2020031420 - SABZ18 SBSR 142000
2020031420 - METAR SBSR 142000Z 13005KT 9999 FEW025 33/15 Q1013=
2020031421 - SABZ18 SBSR 142100 CCA
2020031421 - METAR COR SBSR 142100Z 11005KT 9999 FEW025 33/15 Q1013=
2020031422 - SABZ18 SBSR 142200
2020031422 - METAR SBSR 142200Z 06005KT CAVOK 30/19 Q1014=
2020031423 - SABZ18 SBSR 142300
2020031423 - METAR SBSR 142300Z 09005KT CAVOK 30/19 Q1015=
2020031500 - SABZ18 SBSR 150000
2020031500 - METAR SBSR 150000Z 06004KT CAVOK 29/19 Q1015=
2020031501 - SABZ18 SBSR 150100
2020031501 - METAR SBSR 150100Z 03004KT CAVOK 29/20 Q1016=
2020031502 - SABZ18 SBGR 150200
2020031502 - METAR SBSR 150200Z 04007KT CAVOK 28/19 Q1016=
2020031503 - SABZ18 SBGR 150300
2020031503 - METAR SBSR 150300Z 36002KT CAVOK 26/19 Q1016=
2020031504 - SABZ18 SBGR 150400
2020031504 - METAR SBSR 150400Z 00000KT CAVOK 25/20 Q1015=
2020031505 - SABZ18 SBGR 150500
2020031505 - METAR SBSR 150500Z 00000KT CAVOK 25/19 Q1015=
2020031506 - SABZ18 SBGR 150600
2020031506 - METAR SBSR 150600Z 07004KT CAVOK 25/20 Q1015=
2020031507 - SABZ18 SBGR 150700
2020031507 - METAR SBSR 150700Z 07005KT CAVOK 25/19 Q1015=
2020031508 - SABZ18 SBGR 150800
2020031508 - METAR SBSR 150800Z 08005KT CAVOK 25/19 Q1015=
2020031509 - SABZ18 SBGR 150900
2020031509 - METAR SBSR 150900Z 07006KT CAVOK 25/19 Q1015=
2020031510 - SABZ18 SBGR 151000
2020031510 - METAR SBSR 151000Z 08007KT CAVOK 24/19 Q1016=
2020031511 - SABZ18 SBGR 151100
2020031511 - METAR SBSR 151100Z 05008KT CAVOK 25/19 Q1017=
2020031512 - SABZ18 SBGR 151200 RRA
2020031512 - METAR SBSR 151200Z 05009KT CAVOK 27/19 Q1017=
2020031513 - SABZ18 SBGR 151300
2020031513 - METAR SBSR 151300Z 04007KT CAVOK 30/19 Q1017=
2020031514 - SABZ18 SBGR 151400
2020031514 - METAR SBSR 151400Z 04007K 9999 FEW025 30/18 Q1017=
2020031515 - SABZ18 SBGR 151500
2020031515 - METAR SBSR 151500Z 02006KT 9999 SCT025 31/18 Q1016=
2020031516 - SABZ18 SBSR 151600
2020031516 - METAR SBSR 151600Z 05008KT 9999 BKN025 32/18 Q1016=
2020031517 - SABZ18 SBSR 151700
2020031517 - METAR SBSR 151700Z 36003KT 9999 BKN025 33/17 Q1014=
2020031518 - SABZ18 SBSR 151800
2020031518 - METAR SBSR 151800Z 04008KT 9999 BKN025 32/18 Q1013=
2020031519 - SABZ18 SBSR 151900
2020031519 - METAR SBSR 151900Z 35004KT 9999 BKN025 31/18 Q1012=
2020031520 - SABZ18 SBSR 152000
2020031520 - METAR SBSR 152000Z 27004KT 9999 VCSH BKN025 FEW030TCU 30/19 Q1012=
2020031520 - SPECI SBSR 152035Z 19011KT 5000 -TSRA BKN020 FEW025CB 26/19 Q1014=
2020031521 - SABZ18 SBSR 152100
2020031521 - METAR SBSR 152100Z 26020KT 3000 -TSRA SCT010 BKN015 FEW020CB 22/21 Q1016=
2020031522 - SABZ18 SBSR 152200
2020031522 - METAR SBSR 152200Z 16006KT 5000 TS SCT010 BKN020 FEW025CB 23/19 Q1015=
2020031523 - SABZ18 SBSR 152300
2020031523 - METAR SBSR 152300Z 17004KT 9999 -TSRA SCT010 BKN020 FEW025CB 22/20 Q1016=
2020031600 - SABZ18 SBSR 160000
2020031600 - METAR SBSR 160000Z 00000KT 9999 VCTS BKN020 FEW025CB 23/21 Q1015=
2020031601 - SABZ18 SBSR 160100
2020031601 - METAR SBSR 160100Z 00000KT 9999 BKN020 23/21 Q1016=
2020031602 - SABZ18 SBSR 160200
2020031602 - METAR SBSR 160200Z 09002KT 9999 BKN020 23/19 Q1016=
2020031603 - SABZ18 SBSR 160300
2020031603 - METAR SBSR 160300Z 00000KT 9999 BKN020 23/19 Q1016=
2020031604 - SABZ18 SBSR 160400
2020031604 - METAR SBSR 160400Z 06003KT 9999 SCT025 23/19 Q1016=
2020031605 - SABZ18 SBSR 160500
2020031605 - METAR SBSR 160500Z 05004KT 9999 SCT030 22/20 Q1015=
2020031606 - SABZ18 SBSR 160600
2020031606 - METAR SBSR 160600Z 36003KT 9999 SCT030 22/19 Q1016=
2020031607 - SABZ18 SBSR 160700
2020031607 - METAR SBSR 160700Z 36004KT 9999 FEW035 23/20 Q1016=
2020031608 - SABZ18 SBSR 160800
2020031608 - METAR SBSR 160800Z 02004KT CAVOK 23/19 Q1016=
2020031609 - SABZ18 SBSR 160900
2020031609 - METAR SBSR 160900Z 08002KT CAVOK 23/19 Q1015=
2020031610 - SABZ18 SBSR 161000
2020031610 - METAR SBSR 161000Z 08003KT CAVOK 22/19 Q1016=
2020031611 - SABZ18 SBSR 161100
2020031611 - METAR SBSR 161100Z 06005KT CAVOK 24/19 Q1016=
2020031612 - SABZ18 SBSR 161200
2020031612 - METAR SBSR 161200Z 07006KT CAVOK 25/19 Q1017=
2020031613 - SABZ18 SBSR 161300
2020031613 - METAR SBSR 161300Z 09006KT CAVOK 27/21 Q1017=
2020031614 - SABZ18 SBSR 161400
2020031614 - METAR SBSR 161400Z 04005KT 9999 FEW025 29/21 Q1017=
2020031615 - SABZ18 SBSR 161500
2020031615 - METAR SBSR 161500Z 02006KT 9999 SCT025 30/20 Q1016=
2020031616 - SABZ18 SBSR 161600
2020031616 - METAR SBSR 161600Z VRB08KT 9999 SCT025 32/19 Q1015=
2020031617 - SABZ18 SBSR 161700
2020031617 - METAR SBSR 161700Z 03004KT 9999 SCT030 BKN070 31/17 Q1014=
2020031618 - SABZ18 SBSR 161800
2020031618 - METAR SBSR 161800Z VRB03KT 9999 SCT030 FEW040TCU BKN070 32/18 Q1013=
2020031619 - SABZ18 SBSR 161900
2020031619 - METAR SBSR 161900Z VRB07KT 9999 -RA SCT025 FEW040TCU BKN070 29/20 Q1013=
2020031620 - SABZ18 SBSR 162000
2020031620 - METAR SBSR 162000Z 25011KT 9999 TS VCSH SCT025 FEW035CB BKN070 24/20 Q1014=
2020031621 - SABZ18 SBSR 162100
2020031621 - METAR SBSR 162100Z 27005KT 9999 SCT025 SCT070 24/20 Q1013=
2020031622 - SABZ18 SBSR 162200
2020031622 - METAR SBSR 162200Z 26004KT 9999 SCT025 BKN070 23/20 Q1014=
2020031623 - SABZ18 SBSR 162300
2020031623 - METAR SBSR 162300Z 29002KT 9999 SCT025 BKN070 23/19 Q1014=
2020031700 - SABZ18 SBSR 170000
2020031700 - METAR SBSR 170000Z 00000KT 9999 SCT025 SCT070 23/19 Q1015=
2020031701 - SABZ18 SBSR 170100
2020031701 - METAR SBSR 170100Z 00000KT 9999 FEW025 SCT070 24/19 Q1016=
2020031702 - SABZ18 SBSR 170200
2020031702 - METAR SBSR 170200Z 00000KT 9999 FEW025 SCT070 25/19 Q1016=
2020031703 - SABZ18 SBSR 170300
2020031703 - METAR SBSR 170300Z 00000KT CAVOK 24/20 Q1016=
2020031704 - SABZ18 SBSR 170400
2020031704 - METAR SBSR 170400Z 00000KT CAVOK 24/20 Q1015=
2020031705 - SABZ18 SBSR 170500
2020031705 - METAR SBSR 170500Z 00000KT CAVOK 24/20 Q1014=
2020031706 - SABZ18 SBSR 170600
2020031706 - METAR SBSR 170600Z 00000KT CAVOK 24/20 Q1014=
2020031707 - SABZ18 SBSR 170700
2020031707 - METAR SBSR 170700Z 04002KT CAVOK 24/20 Q1014=
2020031708 - SABZ18 SBSR 170800
2020031708 - METAR SBSR 170800Z 08002KT CAVOK 24/19 Q1014=
2020031709 - SABZ18 SBSR 170900
2020031709 - METAR SBSR 170900Z 00000KT CAVOK 23/19 Q1015=
2020031710 - SABZ18 SBSR 171000
2020031710 - METAR SBSR 171000Z 12002KT 9999 BKN025 23/19 Q1016=
2020031711 - SABZ18 SBSR 171100
2020031711 - METAR SBSR 171100Z 14003KT 9999 SCT025 26/19 Q1017=
2020031712 - SABZ18 SBSR 171200
2020031712 - METAR SBSR 171200Z 13007KT 9999 FEW025 27/19 Q1017=
2020031713 - SABZ18 SBSR 171300
2020031713 - METAR SBSR 171300Z 12007KT CAVOK 28/19 Q1017=
2020031714 - SABZ18 SBSR 171400
2020031714 - METAR SBSR 171400Z 13004KT CAVOK 30/19 Q1017=
2020031715 - SABZ18 SBSR 171500
2020031715 - METAR SBSR 171500Z 15006KT 9999 FEW025 31/19 Q1016=
2020031716 - SABZ18 SBSR 171600
2020031716 - METAR SBSR 171600Z VRB04KT 9999 SCT025 32/19 Q1015=
2020031717 - SABZ18 SBSR 171700
2020031717 - METAR SBSR 171700Z 24006KT 9999 SCT025 32/18 Q1014=
2020031718 - SABZ18 SBSR 171800
2020031718 - METAR SBSR 171800Z VRB04KT 9999 SCT030 34/18 Q1013=
2020031719 - SABZ18 SBSR 171900
2020031719 - METAR SBSR 171900Z VRB03KT 9999 SCT030 33/17 Q1013=
2020031720 - SABZ18 SBSR 172000
2020031720 - METAR SBSR 172000Z 03006KT 9999 FEW025 SCT070 32/18 Q1012=
2020031721 - SABZ18 SBSR 172100
2020031721 - METAR SBSR 172100Z VRB04KT 9999 FEW030 30/17 Q1013=
2020031722 - SABZ18 SBSR 172200
2020031722 - METAR SBSR 172200Z 11003KT 9999 FEW030 SCT070 29/19 Q1013=
2020031723 - SABZ18 SBSR 172300
2020031723 - METAR SBSR 172300Z 00000KT CAVOK 29/18 Q1014=
2020031800 - SABZ18 SBSR 180000
2020031800 - METAR SBSR 180000Z 00000KT 9999 FEW030 29/19 Q1014=
2020031801 - SABZ18 SBSR 180100
2020031801 - METAR SBSR 180100Z 00000KT 9999 FEW030 27/20 Q1015=
2020031802 - SABZ18 SBSR 180200
2020031802 - METAR SBSR 180200Z 00000KT CAVOK 27/20 Q1015=
2020031803 - SABZ18 SBSR 180300
2020031803 - METAR SBSR 180300Z 00000KT CAVOK 27/19 Q1015=
2020031804 - SABZ18 SBSR 180400
2020031804 - METAR SBSR 180400Z 00000KT CAVOK 26/19 Q1015=
2020031805 - SABZ18 SBSR 180500
2020031805 - METAR SBSR 180500Z 10003KT CAVOK 26/19 Q1015=
2020031806 - SABZ18 SBSR 180600
2020031806 - METAR SBSR 180600Z 12003KT CAVOK 25/19 Q1014=
2020031807 - SABZ18 SBSR 180700
2020031807 - METAR SBSR 180700Z 09002KT CAVOK 25/19 Q1014=
2020031808 - SABZ18 SBSR 180800
2020031808 - METAR SBSR 180800Z 10002KT CAVOK 25/19 Q1014=
2020031809 - SABZ18 SBSR 180900
2020031809 - METAR SBSR 180900Z 09005KT CAVOK 24/18 Q1015=
2020031810 - SABZ18 SBSR 181000
2020031810 - METAR SBSR 181000Z 09003KT CAVOK 24/19 Q1015=
2020031811 - SABZ18 SBSR 181100
2020031811 - METAR SBSR 181100Z 07007KT CAVOK 26/19 Q1016=
2020031812 - SABZ18 SBSR 181200
2020031812 - METAR SBSR 181200Z 06005KT CAVOK 27/19 Q1017=
2020031813 - SABZ18 SBSR 181300
2020031813 - METAR SBSR 181300Z 05006KT CAVOK 29/19 Q1017=
2020031814 - SABZ18 SBSR 181400
2020031814 - METAR SBSR 181400Z 03003KT CAVOK 31/20 Q1017=
2020031815 - SABZ18 SBSR 181500
2020031815 - METAR SBSR 181500Z 04005KT 330V120 9999 FEW030 32/19 Q1016=
2020031816 - SABZ18 SBSR 181600
2020031816 - METAR SBSR 181600Z 29003KT 280V010 9999 SCT025 SCT070 32/19 Q1015=
2020031817 - SABZ18 SBSR 181700
2020031817 - METAR SBSR 181700Z 13006KT 090V200 9999 SCT025 BKN070 29/18 Q1014=
2020031818 - SABZ18 SBSR 181800
2020031818 - METAR SBSR 181800Z VRB02KT 9999 SCT025 32/18 Q1012=
2020031819 - SABZ18 SBSR 181900
2020031819 - METAR SBSR 181900Z 26005KT 9999 VCSH FEW025 SCT070 32/19 Q1012=
2020031820 - SABZ18 SBSR 182000
2020031820 - METAR SBSR 182000Z 27005KT 9999 FEW025 BKN070 33/19 Q1012=
2020031821 - SABZ18 SBSR 182100
2020031821 - METAR SBSR 182100Z 17006KT 9999 FEW030 31/19 Q1012=
2020031822 - SABZ18 SBSR 182200
2020031822 - METAR SBSR 182200Z 18004KT 9999 FEW025 30/19 Q1012=
2020031823 - SABZ18 SBSR 182300
2020031823 - METAR SBSR 182300Z 17002KT 9999 FEW025 29/19 Q1013=
2020031900 - SABZ18 SBSR 190000
2020031900 - METAR SBSR 190000Z 17004KT CAVOK 29/19 Q1013=
2020031901 - SABZ18 SBSR 190100
2020031901 - METAR SBSR 190100Z 13008KT CAVOK 27/20 Q1014=
2020031902 - SABZ18 SBSR 190200
2020031902 - METAR SBSR 190200Z 12005KT CAVOK 26/20 Q1015=
2020031903 - SABZ18 SBSR 190300
2020031903 - METAR SBSR 190300Z 10005KT CAVOK 26/19 Q1014=
2020031904 - SABZ18 SBSR 190400
2020031904 - METAR SBSR 190400Z 09003KT CAVOK 26/19 Q1014=
2020031905 - SABZ18 SBSR 190500
2020031905 - METAR SBSR 190500Z 07002KT 9999 FEW020 25/19 Q1013=
2020031906 - SABZ18 SBSR 190600
2020031906 - METAR SBSR 190600Z 06002KT 9999 FEW025 25/19 Q1013=
2020031907 - SABZ18 SBSR 190700
2020031907 - METAR SBSR 190700Z 00000KT 9999 FEW020 25/19 Q1012=
2020031908 - SABZ18 SBSR 190800
2020031908 - METAR SBSR 190800Z 00000KT 9999 FEW020 24/19 Q1012=
2020031909 - SABZ18 SBSR 190900
2020031909 - METAR SBSR 190900Z 06002KT 9999 SCT020 SCT070 25/19 Q1013=
2020031910 - SABZ18 SBSR 191000
2020031910 - METAR SBSR 191000Z 07002KT 9999 FEW025 SCT070 24/19 Q1013=
2020031911 - SABZ18 SBSR 191100
2020031911 - METAR SBSR 191100Z 09002KT 9999 SCT045 SCT070 25/20 Q1014=
2020031912 - SABZ18 SBSR 191200
2020031912 - METAR SBSR 191200Z 25007KT 9999 SCT045 BKN070 25/20 Q1014=
2020031913 - SABZ18 SBSR 191300
2020031913 - METAR SBSR 191300Z 31002KT 9999 FEW030 BKN070 27/20 Q1014=
2020031914 - SABZ18 SBSR 191400
2020031914 - METAR SBSR 191400Z 00000KT 9999 FEW035 BKN070 28/20 Q1014=
2020031915 - SABZ18 SBSR 191500
2020031915 - METAR SBSR 191500Z 01004KT 9999 SCT030 BKN070 30/20 Q1014=
2020031916 - SABZ18 SBSR 191600
2020031916 - METAR SBSR 191600Z VRB04KT 9999 FEW030 BKN070 30/19 Q1013=
2020031917 - SABZ18 SBSR 191700
2020031917 - METAR SBSR 191700Z 29003KT 9999 -DZ FEW020 SCT030 BKN070 29/22 Q1011=
2020031918 - SABZ18 SBSR 191800
2020031918 - METAR SBSR 191800Z 00000KT 9999 SCT030 BKN070 31/20 Q1009=
2020031919 - SABZ18 SBSR 191900
2020031919 - METAR SBSR 191900Z VRB03KT 9999 SCT030 BKN070 31/20 Q1009=
2020031920 - SABZ18 SBSR 192000
2020031920 - METAR SBSR 192000Z VRB02KT 9999 VCSH SCT025 BKN070 30/21 Q1009=
2020031921 - SABZ18 SBSR 192100
2020031921 - METAR SBSR 192100Z 24007KT 9999 VCSH SCT025 BKN070 29/21 Q1010=
2020031922 - SABZ18 SBSR 192200
2020031922 - METAR SBSR 192200Z 19008KT 9999 VCSH SCT025 FEW030TCU BKN070 27/21 Q1010=
2020031923 - SABZ18 SBSR 192300
2020031923 - METAR SBSR 192300Z 00000KT 9999 SCT025 BKN070 26/20 Q1011=
2020032000 - SABZ18 SBSR 200000
2020032000 - METAR SBSR 200000Z 18002KT 9999 SCT025 BKN070 26/20 Q1012=
2020032001 - SABZ18 SBSR 200100
2020032001 - METAR SBSR 200100Z 23003KT 9999 SCT025 BKN070 25/20 Q1013=
2020032002 - SABZ18 SBSR 200200
2020032002 - METAR SBSR 200200Z 25006KT 9999 BKN025 BKN070 24/20 Q1013=
2020032003 - SABZ18 SBSR 200300
2020032003 - METAR SBSR 200300Z 20008KT 9999 BKN020 BKN070 23/21 Q1013=
2020032004 - SABZ18 SBSR 200400
2020032004 - METAR SBSR 200400Z 15003KT 9999 BKN020 SCT070 23/20 Q1012=
2020032005 - SABZ18 SBSR 200500
2020032005 - METAR SBSR 200500Z 09004KT 9999 SCT020 SCT070 23/20 Q1011=
2020032006 - SABZ18 SBSR 200600
2020032006 - METAR SBSR 200600Z 12002KT 9999 SCT020 SCT070 23/20 Q1010=
2020032007 - SABZ18 SBSR 200700
2020032007 - METAR SBSR 200700Z 00000KT 9999 SCT020 SCT070 23/20 Q1010=
2020032008 - SABZ18 SBSR 200800
2020032008 - METAR SBSR 200800Z 09005KT 9999 SCT025 SCT070 23/20 Q1010=
2020032009 - SABZ18 SBSR 200900
2020032009 - METAR SBSR 200900Z 03002KT 9999 SCT025 SCT070 22/20 Q1011=
2020032010 - SABZ18 SBSR 201000
2020032010 - METAR SBSR 201000Z 04005KT 9999 SCT025 BKN070 23/20 Q1011=
2020032011 - SABZ18 SBSR 201100
2020032011 - METAR SBSR 201100Z 04005KT 9999 FEW030 BKN070 23/20 Q1011=
2020032012 - SABZ18 SBSR 201200
2020032012 - METAR SBSR 201200Z 09008KT 9999 FEW035 BKN080 25/20 Q1012=
2020032013 - SABZ18 SBSR 201300
2020032013 - METAR SBSR 201300Z 36005KT 9999 SCT035 BKN070 27/20 Q1021=
2020032014 - SABZ18 SBSR 201400
2020032014 - METAR SBSR 201400Z 30006KT 9999 FEW040 BKN060 28/20 Q1012=
2020032015 - SABZ18 SBSR 201500
2020032015 - METAR SBSR 201500Z 07005KT 9999 FEW035 SCT045 29/20 Q1011=
2020032016 - SABZ18 SBSR 201600
2020032016 - METAR SBSR 201600Z 02004KT 9999 BKN035 30/19 Q1010=
2020032017 - SABZ18 SBSR 201700
2020032017 - METAR SBSR 201700Z 00000KT 9999 BKN035 31/19 Q1009=
2020032018 - SABZ18 SBSR 201800
2020032018 - METAR SBSR 201800Z 24007KT 9999 BKN025 FEW030TCU 30/20 Q1008=
2020032019 - SABZ18 SBSR 201900
2020032019 - METAR SBSR 201900Z 04010KT 9999 FEW007 BKN015 FEW020TCU 25/20 Q1008=
2020032019 - SPECI SBSR 201915Z 03010KT 5000 -TSRA FEW007 BKN015 FEW020CB 24/21 Q1009=
2020032020 - SABZ18 SBSR 202000
2020032020 - METAR SBSR 202000Z 05005KT 9999 SCT007 BKN015 FEW020TCU 23/21 Q1009 RETS=
2020032021 - SABZ18 SBSR 202100
2020032021 - METAR SBSR 202100Z 36003KT 9999 SCT007 SCT015 OVC070 23/21 Q1009=
2020032022 - SABZ18 SBSR 202200
2020032022 - METAR SBSR 202200Z 21003KT 8000 -DZ SCT007 OVC015 22/20 Q1010=
2020032023 - SABZ18 SBSR 202300
2020032023 - METAR SBSR 202300Z 30002KT 8000 -DZ SCT007 BKN015 OVC070 22/20 Q1011=
2020032100 - SABZ18 SBSR 210000
2020032100 - METAR SBSR 210000Z 06004KT 9999 SCT007 OVC070 22/20 Q1011=
2020032101 - SABZ18 SBSR 210100
2020032101 - METAR SBSR 210100Z 33002KT 9999 SCT008 OVC070 22/21 Q1012=
2020032102 - SABZ18 SBSR 210200
2020032102 - METAR SBSR 210200Z 33003KT 9999 SCT007 OVC070 22/21 Q1012=
2020032103 - SABZ18 SBSR 210300
2020032103 - METAR SBSR 210300Z 36002KT 9999 FEW007 BKN070 22/21 Q1012=
2020032104 - SABZ18 SBSR 210400
2020032104 - METAR SBSR 210400Z 00000KT 9999 FEW009 SCT020 BKN070 22/20 Q1011=
2020032105 - SABZ18 SBSR 210500
2020032105 - METAR SBSR 210500Z 00000KT 9999 FEW009 SCT020 BKN070 22/20 Q1011=
2020032106 - SABZ18 SBSR 210600
2020032106 - METAR SBSR 210600Z 02003KT 9999 SCT019 BKN070 22/20 Q1010=
2020032107 - SABZ18 SBSR 210700
2020032107 - METAR SBSR 210700Z 00000KT 9999 SCT020 SCT070 22/20 Q1010=
2020032108 - SABZ18 SBSR 210800
2020032108 - METAR SBSR 210800Z 36003KT 320V030 9999 SCT007 BKN020 BKN070 22/20 Q1011=
2020032109 - SABZ18 SBSR 210900
2020032109 - METAR SBSR 210900Z 00000KT 9000 BKN007 BKN070 22/20 Q1011=
2020032110 - SABZ18 SBSR 211000
2020032110 - METAR SBSR 211000Z 00000KT 6000 BKN006 OVC070 22/21 Q1012=
2020032111 - SABZ18 SBSR 211100
2020032111 - METAR SBSR 211100Z 00000KT 7000 BKN005 OVC070 23/21 Q1013=
2020032112 - SABZ18 SBSR 211200
2020032112 - METAR SBSR 211200Z 00000KT 8000 BKN007 OVC070 24/21 Q1013=
2020032113 - SABZ18 SBSR 211300
2020032113 - METAR SBSR 211300Z 22003KT 9000 BKN010 BKN025 BKN070 24/21 Q1014=
2020032114 - SABZ18 SBSR 211400
2020032114 - METAR SBSR 211400Z 00000KT 9999 SCT015 SCT020 BKN070 25/21 Q1014=
2020032115 - SABZ18 SBSR 211500
2020032115 - METAR SBSR 211500Z 36002KT 9999 FEW015 SCT020 BKN070 27/21 Q1013=
2020032116 - SABZ18 SBSR 211600
2020032116 - METAR SBSR 211600Z 05005KT 9999 BKN020 BKN070 28/21 Q1012=
2020032117 - SABZ18 SBSR 211700
2020032117 - METAR SBSR 211700Z 36003KT 9999 BKN020 SCT070 29/20 Q1011=
2020032118 - SABZ18 SBSR 211800
2020032118 - METAR SBSR 211800Z 30006KT 9999 BKN020 30/20 Q1011=
2020032119 - SABZ18 SBSR 211900
2020032119 - METAR SBSR 211900Z 25007KT 9999 BKN020 29/20 Q1010=
2020032120 - SABZ18 SBSR 212000
2020032120 - METAR SBSR 212000Z 21005KT 9999 SCT020 29/20 Q1010=
2020032121 - SABZ18 SBSR 212100
2020032121 - METAR SBSR 212100Z 16007KT 9999 SCT020 29/20 Q1010=
2020032122 - SABZ18 SBSR 212200
2020032122 - METAR SBSR 212200Z 15003KT 9999 SCT025 27/20 Q1011=
2020032123 - SABZ18 SBSR 212300
2020032123 - METAR SBSR 212300Z 14003KT 9999 FEW025 27/20 Q1012=
2020032200 - SABZ18 SBSR 220000
2020032200 - METAR SBSR 220000Z 14004KT CAVOK 26/21 Q1013=
2020032201 - SABZ18 SBSR 220100
2020032201 - METAR SBSR 220100Z 16001KT CAVOK 26/21 Q1014=
2020032202 - SABZ18 SBSR 220200
2020032202 - METAR SBSR 220200Z 16005KT 9999 -RA SCT025 BKN070 25/21 Q1014=
2020032203 - SABZ18 SBSR 220300
2020032203 - METAR SBSR 220300Z 15004KT 9999 SCT025 BKN070 24/20 Q1014=
2020032204 - SABZ18 SBSR 220400
2020032204 - METAR SBSR 220400Z 13006KT 9999 FEW009 SCT020 BKN070 23/19 Q1014=
2020032205 - SABZ18 SBSR 220500
2020032205 - METAR SBSR 220500Z 14007KT 9999 FEW009 SCT020 BKN070 23/19 Q1013=
2020032206 - SABZ18 SBSR 220600
2020032206 - METAR SBSR 220600Z 13005KT 9999 FEW009 SCT020 BKN070 23/18 Q1013=
2020032207 - SABZ18 SBSR 220700
2020032207 - METAR SBSR 220700Z 14005KT 9999 SCT020 BKN070 22/17 Q1013=
2020032208 - SABZ18 SBSR 220800
2020032208 - METAR SBSR 220800Z 18003KT 9999 SCT015 BKN070 22/18 Q1014=
2020032209 - SABZ18 SBSR 220900
2020032209 - METAR SBSR 220900Z 15007KT 9999 SCT015 BKN070 22/17 Q1014=
2020032210 - SABZ18 SBSR 221000
2020032210 - METAR SBSR 221000Z 19005KT 9999 SCT015 BKN070 21/18 Q1015=
2020032211 - SABZ18 SBSR 221100
2020032211 - METAR SBSR 221100Z 17007KT 6000 -RA BKN008 OVC070 20/18 Q1016=
2020032212 - SABZ18 SBSR 221200
2020032212 - METAR SBSR 221200Z 16004KT 9999 -RA BKN020 OVC070 20/18 Q1017=
2020032213 - SABZ18 SBSR 221300
2020032213 - METAR SBSR 221300Z 00000KT 8000 -RA BKN020 OVC070 20/18 Q1017=
2020032214 - SABZ18 SBSR 221400
2020032214 - METAR SBSR 221400Z 00000KT 9999 SCT030 SCT070 21/19 Q1017=
2020032215 - SABZ18 SBSR 221500
2020032215 - METAR SBSR 221500Z 00000KT 9999 FEW030 BKN070 23/19 Q1017=
2020032216 - SABZ18 SBSR 221600
2020032216 - METAR SBSR 221600Z 19004KT 9999 FEW030 BKN070 25/20 Q1016=
2020032217 - SABZ18 SBSR 221700
2020032217 - METAR SBSR 221700Z 16005KT 9999 FEW030 BKN070 27/20 Q1015=
2020032218 - SABZ18 SBSR 221800
2020032218 - METAR SBSR 221800Z 17002KT 9999 FEW030 SCT070 28/20 Q1014=
2020032219 - SABZ18 SBSR 221900
2020032219 - METAR SBSR 221900Z 19008KT 9999 SCT025 SCT070 30/19 Q1014=
2020032220 - SABZ18 SBSR 222000
2020032220 - METAR SBSR 222000Z 18006KT 9999 FEW025 29/18 Q1013=
2020032221 - SABZ18 SBSR 222100
2020032221 - METAR SBSR 222100Z 17005KT 9999 FEW025 28/17 Q1013=
2020032222 - SABZ18 SBSR 222200
2020032222 - METAR SBSR 222200Z 18007KT 9999 FEW030 27/19 Q1014=
2020032223 - SABZ18 SBSR 222300
2020032223 - METAR SBSR 222300Z 18010KT 9999 FEW030 26/16 Q1015=
2020032300 - SABZ18 SBSR 230000
2020032300 - METAR SBSR 230000Z 17006KT 9999 FEW030 25/15 Q1016=
2020032301 - SABZ18 SBSR 230100
2020032301 - METAR SBSR 230100Z 17005KT CAVOK 24/14 Q1017=
2020032302 - SABZ18 SBSR 230200
2020032302 - METAR SBSR 230200Z 15007KT CAVOK 23/14 Q1018=
2020032303 - SABZ18 SBSR 230300
2020032303 - METAR SBSR 230300Z 16007KT CAVOK 22/14 Q1018=
2020032304 - SABZ18 SBSR 230400
2020032304 - METAR SBSR 230400Z 18009KT CAVOK 21/15 Q1018=
2020032305 - SABZ18 SBSR 230500
2020032305 - METAR SBSR 230500Z 18007KT CAVOK 20/15 Q1017=
2020032306 - SABZ18 SBSR 230600
2020032306 - METAR SBSR 230600Z 18006KT CAVOK 19/15 Q1017=
2020032307 - SABZ18 SBSR 230700
2020032307 - METAR SBSR 230700Z 18008KT CAVOK 19/15 Q1016=
2020032308 - SABZ18 SBSR 230800
2020032308 - METAR SBSR 230800Z 18006KT CAVOK 18/15 Q1016=
2020032309 - SABZ18 SBSR 230900
2020032309 - METAR SBSR 230900Z 18006KT CAVOK 18/15 Q1017=
2020032310 - SABZ18 SBSR 231000
2020032310 - METAR SBSR 231000Z 18005KT 9999 SCT035 17/15 Q1017=
2020032311 - SABZ18 SBSR 231100
2020032311 - METAR SBSR 231100Z 18006KT 9999 FEW040 SCT050 19/15 Q1018=
2020032312 - SABZ18 SBSR 231200
2020032312 - METAR SBSR 231200Z 17004KT 9999 SCT040 21/17 Q1019=
2020032313 - SABZ18 SBSR 231300
2020032313 - METAR SBSR 231300Z 12006KT 9999 SCT040 24/18 Q1019=
2020032314 - SABZ18 SBSR 231400
2020032314 - METAR SBSR 231400Z 09008KT 9999 FEW035 26/18 Q1019=
2020032315 - SABZ18 SBSR 231500
2020032315 - METAR SBSR 231500Z 05008KT 9999 SCT030 28/18 Q1018=
2020032316 - SABZ18 SBSR 231600
2020032316 - METAR SBSR 231600Z 06009KT 9999 BKN030 29/18 Q1017=
2020032317 - SABZ18 SBSR 231700
2020032317 - METAR SBSR 231700Z 11007KT 9999 BKN030 29/18 Q1016=
2020032318 - SABZ18 SBSR 231800
2020032318 - METAR SBSR 231800Z 08007KT 9999 BKN030 29/18 Q1016=
2020032319 - SABZ18 SBSR 231900
2020032319 - METAR SBSR 231900Z 13006KT 9999 SCT030 29/17 Q1015=
2020032320 - SABZ18 SBSR 232000
2020032320 - METAR SBSR 232000Z 15006KT 9999 FEW025 30/17 Q1014=
2020032321 - SABZ18 SBSR 232100
2020032321 - METAR SBSR 232100Z 13006KT 9999 FEW025 29/17 Q1014=
2020032322 - SABZ18 SBSR 232200
2020032322 - METAR SBSR 232200Z 16003KT CAVOK 28/17 Q1015=
2020032323 - SABZ18 SBSR 232300
2020032323 - METAR SBSR 232300Z 16002KT CAVOK 26/17 Q1015=
2020032400 - SABZ18 SBSR 240000
2020032400 - METAR SBSR 240000Z 16008KT CAVOK 26/17 Q1016=
2020032401 - SABZ18 SBSR 240100
2020032401 - METAR SBSR 240100Z 16007KT CAVOK 25/16 Q1017=
2020032402 - SABZ18 SBSR 240200
2020032402 - METAR SBSR 240200Z 15006KT CAVOK 24/15 Q1017=
2020032403 - SABZ18 SBSR 240300
2020032403 - METAR SBSR 240300Z 15008KT CAVOK 23/14 Q1017=
2020032404 - SABZ18 SBSR 240400
2020032404 - METAR SBSR 240400Z 15009KT CAVOK 22/15 Q1017=
2020032405 - SABZ18 SBSR 240500
2020032405 - METAR SBSR 240500Z 15005KT CAVOK 21/15 Q1017=
2020032406 - SABZ18 SBSR 240600
2020032406 - METAR SBSR 240600Z 18004KT CAVOK 20/14 Q1016=
2020032407 - SABZ18 SBSR 240700
2020032407 - METAR SBSR 240700Z 18006KT CAVOK 19/15 Q1016=
2020032408 - SABZ18 SBSR 240800
2020032408 - METAR SBSR 240800Z 18004KT CAVOK 19/14 Q1017=
2020032409 - SABZ18 SBSR 240900
2020032409 - METAR SBSR 240900Z 15004KT CAVOK 19/14 Q1017=
2020032410 - SABZ18 SBSR 241000
2020032410 - METAR SBSR 241000Z 14007KT CAVOK 19/15 Q1017=
2020032411 - SABZ18 SBSR 241100
2020032411 - METAR SBSR 241100Z 11008KT CAVOK 20/15 Q1018=
2020032412 - SABZ18 SBSR 241200
2020032412 - METAR SBSR 241200Z 08009KT CAVOK 23/16 Q1018=
2020032413 - SABZ18 SBSR 241300
2020032413 - METAR SBSR 241300Z 07010KT CAVOK 25/16 Q1018=
2020032414 - SABZ18 SBSR 241400
2020032414 - METAR SBSR 241400Z 11010KT CAVOK 27/17 Q1018=
2020032415 - SABZ18 SBSR 241500
2020032415 - METAR SBSR 241500Z 10005KT CAVOK 27/16 Q1017=
2020032416 - SABZ18 SBSR 241600
2020032416 - METAR SBSR 241600Z 11006KT 9999 FEW025 29/16 Q1017=
2020032417 - SABZ18 SBSR 241700
2020032417 - METAR SBSR 241700Z 13006KT 9999 SCT025 29/15 Q1016=
2020032418 - SABZ18 SBSR 241800
2020032418 - METAR SBSR 241800Z 15007KT 9999 BKN025 29/12 Q1015=
2020032419 - SABZ18 SBSR 241900
2020032419 - METAR SBSR 241900Z 12006KT 9999 SCT025 30/12 Q1014=
2020032420 - SABZ18 SBSR 242000
2020032420 - METAR SBSR 242000Z 11008KT 9999 FEW025 29/12 Q1014=
2020032421 - SABZ18 SBSR 242100
2020032421 - METAR SBSR 242100Z 13009KT CAVOK 28/12 Q1014=
2020032422 - SABZ18 SBSR 242200
2020032422 - METAR SBSR 242200Z 17003KT CAVOK 27/13 Q1014=
2020032423 - SABZ18 SBSR 242300
2020032423 - METAR SBSR 242300Z 14004KT CAVOK 26/13 Q1014=
2020032500 - SABZ18 SBSR 250000
2020032500 - METAR SBSR 250000Z 14003KT CAVOK 25/12 Q1015=
2020032501 - SABZ18 SBSR 250100
2020032501 - METAR SBSR 250100Z 12003KT CAVOK 24/12 Q1015=
2020032502 - SABZ18 SBSR 250200
2020032502 - METAR SBSR 250200Z 14003KT CAVOK 23/13 Q1016=
2020032503 - SABZ18 SBSR 250300
2020032503 - METAR SBSR 250300Z 13004KT CAVOK 23/13 Q1016=
2020032504 - SABZ18 SBSR 250400
2020032504 - METAR SBSR 250400Z 13005KT CAVOK 22/13 Q1016=
2020032505 - SABZ18 SBSR 250500
2020032505 - METAR SBSR 250500Z 17008KT CAVOK 20/14 Q1015=
2020032506 - SABZ18 SBSR 250600
2020032506 - METAR SBSR 250600Z 13008KT CAVOK 20/14 Q1015=
2020032507 - SABZ18 SBSR 250700
2020032507 - METAR SBSR 250700Z 13005KT CAVOK 19/14 Q1015=
2020032508 - SABZ18 SBSR 250800
2020032508 - METAR SBSR 250800Z 12006KT CAVOK 19/14 Q1015=
2020032509 - SABZ18 SBSR 250900 RRA
2020032509 - METAR SBSR 250900Z 12005KT CAVOK 19/14 Q1015=
2020032510 - SABZ18 SBSR 251000
2020032510 - METAR SBSR 251000Z 12005KT CAVOK 19/14 Q1016=
2020032511 - SABZ18 SBSR 251100
2020032511 - METAR SBSR 251100Z 12007KT CAVOK 20/14 Q1016=
2020032512 - SABZ18 SBSR 251200
2020032512 - METAR SBSR 251200Z 10008KT CAVOK 22/14 Q1017=
2020032513 - SABZ18 SBSR 251300
2020032513 - METAR SBSR 251300Z 07008KT CAVOK 25/15 Q1017=
2020032514 - SABZ18 SBSR 251400
2020032514 - METAR SBSR 251400Z 06010KT CAVOK 26/16 Q1017=
2020032515 - SABZ18 SBSR 251500
2020032515 - METAR SBSR 251500Z 06007KT 9999 FEW030 27/15 Q1016=
2020032516 - SABZ18 SBSR 251600
2020032516 - METAR SBSR 251600Z 07005KT 9999 SCT040 28/16 Q1015=
2020032517 - SABZ18 SBSR 251700
2020032517 - METAR SBSR 251700Z 16003KT 9999 SCT035 28/14 Q1015=
2020032518 - SABZ18 SBSR 251800
2020032518 - METAR SBSR 251800Z 14005KT 9999 FEW035 SCT040 29/14 Q1014=
2020032519 - SABZ18 SBSR 251900
2020032519 - METAR SBSR 251900Z 10004KT 9999 FEW030 SCT040 29/14 Q1013=
2020032520 - SABZ18 SBSR 252000
2020032520 - METAR SBSR 252000Z 10005KT 9999 FEW030 SCT035 29/13 Q1013=
2020032521 - SABZ18 SBSR 252100
2020032521 - METAR SBSR 252100Z 14007KT 9999 FEW035 28/13 Q1013=
2020032522 - SABZ18 SBSR 252200
2020032522 - METAR SBSR 252200Z 18004KT CAVOK 27/14 Q1013=
2020032523 - SABZ18 SBSR 252300
2020032523 - METAR SBSR 252300Z 16004KT CAVOK 26/14 Q1014=
2020032600 - SABZ18 SBSR 260000
2020032600 - METAR SBSR 260000Z 15005KT CAVOK 25/14 Q1014=
2020032601 - SABZ18 SBSR 260100
2020032601 - METAR SBSR 260100Z 16005KT CAVOK 24/13 Q1014=
2020032602 - SABZ18 SBSR 260200
2020032602 - METAR SBSR 260200Z 15005KT CAVOK 23/12 Q1015=
2020032603 - SABZ18 SBSR 260300
2020032603 - METAR SBSR 260300Z 15004KT CAVOK 23/12 Q1015=
2020032604 - SABZ18 SBSR 260400
2020032604 - METAR SBSR 260400Z 12005KT CAVOK 22/12 Q1015=
2020032605 - SABZ18 SBSR 260500
2020032605 - METAR SBSR 260500Z 15005KT CAVOK 22/12 Q1015=
2020032606 - SABZ18 SBSR 260600
2020032606 - METAR SBSR 260600Z 15006KT CAVOK 21/12 Q1014=
2020032607 - SABZ18 SBSR 260700
2020032607 - METAR SBSR 260700Z 12006KT CAVOK 20/12 Q1014=
2020032608 - SABZ18 SBSR 260800
2020032608 - METAR SBSR 260800Z 12006KT CAVOK 20/12 Q1014=
2020032609 - SABZ18 SBSR 260900
2020032609 - METAR SBSR 260900Z 12007KT CAVOK 20/12 Q1014=
2020032610 - SABZ18 SBSR 261000
2020032610 - METAR SBSR 261000Z 13006KT 9999 FEW045 SCT070 20/13 Q1015=
2020032611 - SABZ18 SBSR 261100
2020032611 - METAR SBSR 261100Z 11004KT 9999 SCT040 21/13 Q1016=
2020032612 - SABZ18 SBSR 261200
2020032612 - METAR SBSR 261200Z 11006KT 9999 SCT040 23/14 Q1017=
2020032613 - SABZ18 SBSR 261300
2020032613 - METAR SBSR 261300Z 06007KT 9999 FEW030 SCT040 25/16 Q1017=
2020032614 - SABZ18 SBSR 261400
2020032614 - METAR SBSR 261400Z 03008KT 9999 SCT040 26/17 Q1017=
2020032615 - SABZ18 SBSR 261500
2020032615 - METAR SBSR 261500Z 06006KT 9999 SCT045 28/17 Q1016=
2020032616 - SABZ18 SBSR 261600
2020032616 - METAR SBSR 261600Z 36004KT 9999 SCT045 28/15 Q1015=
2020032617 - SABZ18 SBSR 261700
2020032617 - METAR SBSR 261700Z 10006KT 9999 SCT040 28/15 Q1014=
2020032618 - SABZ18 SBSR 261800
2020032618 - METAR SBSR 261800Z 09005KT 9999 FEW025 SCT045 29/13 Q1013=
2020032619 - SABZ18 SBSR 261900
2020032619 - METAR SBSR 261900Z 12004KT 9999 SCT040 30/11 Q1012=
2020032620 - SABZ18 SBSR 262000
2020032620 - METAR SBSR 262000Z 11006KT 9999 FEW035 30/13 Q1012=
2020032621 - SABZ18 SBSR 262100
2020032621 - METAR SBSR 262100Z 14005KT 9999 FEW035 29/14 Q1011=
2020032622 - SABZ18 SBSR 262200
2020032622 - METAR SBSR 262200Z 16005KT CAVOK 28/13 Q1012=
2020032623 - SABZ18 SBSR 262300
2020032623 - METAR SBSR 262300Z 14003KT CAVOK 26/14 Q1013=
2020032700 - SABZ18 SBSR 270000
2020032700 - METAR SBSR 270000Z 00000KT CAVOK 26/14 Q1013=
2020032701 - SABZ18 SBSR 270100
2020032701 - METAR SBSR 270100Z 13004KT CAVOK 25/14 Q1014=
2020032702 - SABZ18 SBSR 270200
2020032702 - METAR SBSR 270200Z 13004KT CAVOK 24/14 Q1014=
2020032703 - SABZ18 SBSR 270300
2020032703 - METAR SBSR 270300Z 00000KT CAVOK 23/14 Q1014=
2020032704 - SABZ18 SBSR 270400
2020032704 - METAR SBSR 270400Z 13003KT CAVOK 23/14 Q1014=
2020032705 - SABZ18 SBSR 270500
2020032705 - METAR SBSR 270500Z 13005KT CAVOK 22/14 Q1014=
2020032706 - SABZ18 SBSR 270600
2020032706 - METAR SBSR 270600Z 14005KT CAVOK 22/14 Q1013=
2020032707 - SABZ18 SBSR 270700
2020032707 - METAR SBSR 270700Z 13006KT CAVOK 21/14 Q1013=
2020032708 - SABZ18 SBSR 270800
2020032708 - METAR SBSR 270800Z 15006KT CAVOK 21/14 Q1013=
2020032709 - SABZ18 SBSR 270900
2020032709 - METAR SBSR 270900Z 16005KT 9999 FEW030 20/14 Q1014=
2020032710 - SABZ18 SBSR 271000
2020032710 - METAR SBSR 271000Z 12007KT 9999 FEW030 20/14 Q1015=
2020032711 - SABZ18 SBSR 271100
2020032711 - METAR SBSR 271100Z 11007KT CAVOK 21/15 Q1015=
2020032712 - SABZ18 SBSR 271200
2020032712 - METAR SBSR 271200Z 07011KT CAVOK 23/17 Q1016=
2020032713 - SABZ18 SBSR 271300
2020032713 - METAR SBSR 271300Z 06013KT CAVOK 25/16 Q1016=
2020032714 - SABZ18 SBSR 271400
2020032714 - METAR SBSR 271400Z 07015KT CAVOK 27/16 Q1016=
2020032715 - SABZ18 SBSR 271500
2020032715 - METAR SBSR 271500Z 06012KT 9999 FEW025 28/16 Q1015=
2020032716 - SABZ18 SBSR 271600
2020032716 - METAR SBSR 271600Z 06010KT 9999 SCT025 30/16 Q1014=
2020032717 - SABZ18 SBSR 271700
2020032717 - METAR SBSR 271700Z 07007KT 9999 BKN025 30/16 Q1014=
2020032718 - SABZ18 SBSR 271800
2020032718 - METAR SBSR 271800Z 07009KT 9999 SCT025 30/16 Q1013=
2020032719 - SABZ18 SBSR 271900
2020032719 - METAR SBSR 271900Z 07006KT 9999 SCT025 31/14 Q1012=
2020032720 - SABZ18 SBSR 272000
2020032720 - METAR SBSR 272000Z 11006KT 9999 FEW025 29/15 Q1012=
2020032721 - Mensagem METAR de 'SBSR' para 27/03/2020 as 21(UTC) no localizada na base de dados da REDEMET
2020032722 - SABZ18 SBSR 272200
2020032722 - METAR SBSR 272200Z 12005KT CAVOK 28/15 Q1012=
2020032723 - SABZ18 SBSR 272300
2020032723 - METAR SBSR 272300Z 15004KT CAVOK 27/15 Q1013=
2020032800 - SABZ18 SBSR 280000
2020032800 - METAR SBSR 280000Z 12004KT CAVOK 27/15 Q1014=
2020032801 - SABZ18 SBSR 280100
2020032801 - METAR SBSR 280100Z 12003KT CAVOK 26/16 Q1015=
2020032802 - SABZ18 SBSR 280200
2020032802 - METAR SBSR 280200Z 12004KT CAVOK 25/17 Q1015=
2020032803 - SABZ18 SBSR 280300
2020032803 - METAR SBSR 280300Z 09005KT CAVOK 24/17 Q1015=
2020032804 - SABZ18 SBSR 280400
2020032804 - METAR SBSR 280400Z 09007KT CAVOK 24/18 Q1015=
2020032805 - SABZ18 SBSR 280500
2020032805 - METAR SBSR 280500Z 09006KT CAVOK 24/18 Q1015=
2020032806 - SABZ18 SBSR 280600
2020032806 - METAR SBSR 280600Z 09005KT CAVOK 23/18 Q1015=
2020032807 - SABZ18 SBSR 280700
2020032807 - METAR SBSR 280700Z 09004KT CAVOK 23/18 Q1015=
2020032808 - SABZ18 SBSR 280800
2020032808 - METAR SBSR 280800Z 09004KT CAVOK 22/18 Q1015=
2020032809 - SABZ18 SBSR 280900
2020032809 - METAR SBSR 280900Z 12002KT CAVOK 22/18 Q1015=
2020032810 - SABZ18 SBSR 281000
2020032810 - METAR SBSR 281000Z 08006KT 9999 FEW020 22/18 Q1016=
2020032811 - SABZ18 SBSR 281100
2020032811 - METAR SBSR 281100Z 08010KT 9999 FEW020 24/18 Q1017=
2020032812 - SABZ18 SBSR 281200
2020032812 - METAR SBSR 281200Z 07010KT 9999 FEW020 25/19 Q1018=
2020032813 - SABZ18 SBSR 281300
2020032813 - METAR SBSR 281300Z 06009KT CAVOK 26/19 Q1018=
2020032814 - SABZ18 SBSR 281400
2020032814 - METAR SBSR 281400Z 05010KT 9999 SCT025 28/19 Q1018=
2020032815 - SABZ18 SBSR 281500
2020032815 - METAR SBSR 281500Z 03008KT 9999 BKN025 29/19 Q1017=
2020032816 - SABZ18 SBSR 281600
2020032816 - METAR SBSR 281600Z 02007KT 9999 SCT025 30/19 Q1017=
2020032817 - SABZ18 SBSR 281700
2020032817 - METAR SBSR 281700Z 01006KT 9999 SCT025 31/20 Q1015=
2020032818 - SABZ18 SBSR 281800
2020032818 - METAR SBSR 281800Z 36005KT 9999 BKN025 31/19 Q1014=
2020032819 - SABZ18 SBSR 281900
2020032819 - METAR SBSR 281900Z 36005KT 9999 BKN025 31/18 Q1014=
2020032820 - SABZ18 SBSR 282000
2020032820 - METAR SBSR 282000Z 35003KT 9999 VCSH SCT025 FEW030TCU 30/19 Q1014=
2020032821 - SABZ18 SBSR 282100
2020032821 - METAR SBSR 282100Z 12004KT 9999 VCSH BKN025 FEW030TCU 28/17 Q1014=
2020032822 - SABZ18 SBSR 282200
2020032822 - METAR SBSR 282200Z 00000KT 9999 VCTS BKN025 FEW030CB 27/17 Q1015=
2020032823 - SABZ18 SBSR 282300
2020032823 - METAR SBSR 282300Z 05005KT 9999 -RA BKN025 FEW030TCU SCT070 25/20 Q1015=
2020032900 - SABZ18 SBSR 290000
2020032900 - METAR SBSR 290000Z 00000KT 9999 BKN025 BKN070 25/20 Q1016=
2020032901 - SABZ18 SBSR 290100
2020032901 - METAR SBSR 290100Z 06005KT 9999 BKN025 BKN070 26/19 Q1017=
2020032902 - SABZ18 SBSR 290200
2020032902 - METAR SBSR 290200Z 04005KT 9999 SCT025 SCT070 24/19 Q1017=
2020032903 - SABZ18 SBSR 290300
2020032903 - METAR SBSR 290300Z 06004KT 9999 FEW025 SCT070 24/19 Q1017=
2020032904 - SABZ18 SBSR 290400
2020032904 - METAR SBSR 290400Z 03005KT CAVOK 24/19 Q1017=
2020032905 - SABZ18 SBSR 290500
2020032905 - METAR SBSR 290500Z 00000KT CAVOK 24/19 Q1016=
2020032906 - SABZ18 SBSR 290600
2020032906 - METAR SBSR 290600Z 02005KT CAVOK 23/20 Q1016=
2020032907 - SABZ18 SBSR 290700
2020032907 - METAR SBSR 290700Z 00000KT CAVOK 23/20 Q1016=
2020032908 - SABZ18 SBSR 290800
2020032908 - METAR SBSR 290800Z 00000KT CAVOK 23/20 Q1017=
2020032909 - SABZ18 SBSR 290900
2020032909 - METAR SBSR 290900Z 00000KT 9999 SCT025 23/20 Q1017=
2020032910 - SABZ18 SBSR 291000
2020032910 - METAR SBSR 291000Z 09004KT 9999 SCT025 SCT070 23/20 Q1018=
2020032911 - SABZ18 SBSR 291100
2020032911 - METAR SBSR 291100Z 11002KT 9999 BKN025 24/20 Q1018=
2020032912 - SABZ18 SBSR 291200
2020032912 - METAR SBSR 291200Z 07002KT 9999 SCT025 SCT070 25/21 Q1019=
2020032913 - SABZ18 SBSR 291300
2020032913 - METAR SBSR 291300Z 03004KT 9999 SCT025 SCT070 26/20 Q1020=
2020032914 - SABZ18 SBSR 291400
2020032914 - METAR SBSR 291400Z 08003KT 9999 SCT025 SCT070 28/20 Q1020=
2020032915 - SABZ18 SBSR 291500
2020032915 - METAR SBSR 291500Z 13003KT 9999 VCSH SCT025 FEW030TCU SCT070 26/20 Q1019=
2020032916 - SABZ18 SBSR 291600
2020032916 - METAR SBSR 291600Z 18008KT 9999 VCSH BKN020 FEW025TCU 23/19 Q1018=
2020032916 - SPECI SBSR 291627Z 19008KT 5000 -TSRA BKN020 FEW025CB 23/21 Q1017=
2020032917 - SABZ18 SBSR 291700
2020032917 - METAR SBSR 291700Z 22007KT 5000 -RA BKN020 OVC070 22/20 Q1017 RETS=
2020032918 - SABZ18 SBSR 291800
2020032918 - METAR SBSR 291800Z 16006KT 3000 TSRA BKN007 BKN015 FEW020CB OVC070 21/20 Q1018=
2020032919 - SABZ18 SBSR 291900
2020032919 - METAR SBSR 291900Z 21008KT 5000 -TSRA BKN007 BKN015 FEW020CB OVC070 21/20 Q1017 RERA=
2020032920 - SABZ18 SBSR 292000
2020032920 - METAR SBSR 292000Z 23007KT 5000 -TSRA BKN005 FEW015CB OVC070 21/20 Q1018=
2020032921 - SABZ18 SBSR 292100
2020032921 - METAR SBSR 292100Z 20005KT 5000 -RA BR SCT005 SCT010 OVC070 21/20 Q1018 RETS=
2020032922 - SABZ18 SBSR 292200
2020032922 - METAR SBSR 292200Z 18003KT 9999 SCT005 BKN015 OVC070 21/20 Q1018=
2020032923 - SABZ18 SBSR 292300
2020032923 - METAR SBSR 292300Z 00000KT 9999 SCT005 BKN017 OVC070 21/19 Q1019=
2020033000 - SABZ18 SBSR 300000
2020033000 - METAR SBSR 300000Z 14007KT 5000 -RA BR BKN005 SCT017 OVC070 21/20 Q1020=
2020033001 - SABZ18 SBSR 300100
2020033001 - METAR SBSR 300100Z 10005KT 6000 -RA BKN005 SCT017 OVC070 21/20 Q1020=
2020033002 - SABZ18 SBSR 300200
2020033002 - METAR SBSR 300200Z 00000KT 9999 BKN005 SCT017 OVC070 21/20 Q1020=
2020033003 - SABZ18 SBSR 300300
2020033003 - METAR SBSR 300300Z 16004KT 9999 FEW005 SCT017 OVC070 21/19 Q1019=
2020033004 - SABZ18 SBSR 300400
2020033004 - METAR SBSR 300400Z 00000KT 9999 BKN005 SCT017 BKN070 21/19 Q1018=
2020033005 - SABZ18 SBSR 300500
2020033005 - METAR SBSR 300500Z 14004KT 9999 FEW020 BKN070 21/19 Q1018=
2020033006 - SABZ18 SBSR 300600
2020033006 - METAR SBSR 300600Z 10004KT 9999 FEW005 BKN070 21/19 Q1017=
2020033007 - SABZ18 SBSR 300700
2020033007 - METAR SBSR 300700Z 00000KT 9999 FEW005 BKN070 21/19 Q1017=
2020033008 - SABZ18 SBSR 300800
2020033008 - METAR SBSR 300800Z 00000KT 9999 BKN005 BKN070 20/29 Q1017=
2020033009 - SABZ18 SBSR 300900
2020033009 - METAR SBSR 300900Z 12003KT 9999 BKN005 BKN083 20/29 Q1017=
2020033010 - SABZ18 SBSR 301000
2020033010 - METAR SBSR 301000Z 00000KT 9999 SCT010 SCT070 20/19 Q1017=
2020033011 - SABZ18 SBSR 301100
2020033011 - METAR SBSR 301100Z 14002KT 9999 FEW010 SCT070 23/20 Q1018=
2020033012 - SABZ18 SBSR 301200
2020033012 - METAR SBSR 301200Z 15002KT 9999 FEW010 24/20 Q1018=
2020033013 - SABZ18 SBSR 301300
2020033013 - METAR SBSR 301300Z 09003KT 9999 FEW010 25/20 Q1018=
2020033014 - SABZ18 SBSR 301400
2020033014 - METAR SBSR 301400Z 15003KT 9999 SCT025 28/20 Q1018=
2020033015 - SABZ18 SBSR 301500
2020033015 - METAR SBSR 301500Z 18004KT 9999 SCT025 29/20 Q1018=
2020033016 - SABZ18 SBSR 301600
2020033016 - METAR SBSR 301600Z 22004KT 9999 BKN025 29/19 Q1017=
2020033017 - SABZ18 SBSR 301700
2020033017 - METAR SBSR 301700Z 25006KT 9999 BKN025 29/19 Q1015=
2020033018 - SABZ18 SBSR 301800
2020033018 - METAR SBSR 301800Z 24005KT 9999 BKN025 30/18 Q1014=
2020033019 - SABZ18 SBSR 301900
2020033019 - METAR SBSR 301900Z 23008KT 9999 SCT025 30/19 Q1014=
2020033020 - SABZ18 SBSR 302000
2020033020 - METAR SBSR 302000Z 21004KT 9999 FEW025 29/19 Q1014=
2020033021 - SABZ18 SBSR 302100
2020033021 - METAR SBSR 302100Z 18005KT 9999 FEW025 28/19 Q1014=
2020033022 - SABZ18 SBSR 302200
2020033022 - METAR SBSR 302200Z 21004KT CAVOK 27/19 Q1015=
2020033023 - SABZ18 SBSR 302300
2020033023 - METAR SBSR 302300Z 21004KT CAVOK 26/18 Q1016=
2020033100 - SABZ18 SBSR 310000
2020033100 - METAR SBSR 310000Z 15002KT CAVOK 26/18 Q1016=
2020033101 - SABZ18 SBSR 310100
2020033101 - METAR SBSR 310100Z 18003KT CAVOK 25/18 Q1016=
2020033102 - SABZ18 SBSR 310200
2020033102 - METAR SBSR 310200Z 09005KT CAVOK 24/20 Q1017=
2020033103 - SABZ18 SBSR 310300
2020033103 - METAR SBSR 310300Z 09002KT CAVOK 23/20 Q1016=
2020033104 - SABZ18 SBSR 310400
2020033104 - METAR SBSR 310400Z 09003KT CAVOK 23/20 Q1015=
2020033105 - SABZ18 SBSR 310500
2020033105 - METAR SBSR 310500Z 00000KT CAVOK 22/20 Q1015=
2020033106 - SABZ18 SBSR 310600
2020033106 - METAR SBSR 310600Z 12002KT CAVOK 22/20 Q1015=
2020033107 - SABZ18 SBSR 310700
2020033107 - METAR SBSR 310700Z 09004KT CAVOK 22/19 Q1014=
2020033108 - SABZ18 SBSR 310800
2020033108 - METAR SBSR 310800Z 09002KT CAVOK 21/19 Q1015=
2020033109 - SABZ18 SBSR 310900
2020033109 - METAR SBSR 310900Z 03004KT CAVOK 21/19 Q1015=
2020033110 - SABZ18 SBSR 311000
2020033110 - METAR SBSR 311000Z 00000KT CAVOK 21/19 Q1015=
2020033111 - SABZ18 SBSR 311100
2020033111 - METAR SBSR 311100Z 00000KT CAVOK 23/19 Q1016=
2020033112 - SABZ18 SBSR 311200
2020033112 - METAR SBSR 311200Z 06003KT CAVOK 25/19 Q1017=
2020033113 - SABZ18 SBSR 311300
2020033113 - METAR SBSR 311300Z 04005KT CAVOK 26/19 Q1017=
2020033114 - SABZ18 SBSR 311400
2020033114 - METAR SBSR 311400Z 09004KT CAVOK 28/18 Q1016=
2020033115 - SABZ18 SBSR 311500
2020033115 - METAR SBSR 311500Z 00000KT 9999 FEW030 29/19 Q1016=
2020033116 - SABZ18 SBSR 311600
2020033116 - METAR SBSR 311600Z 00000KT 9999 FEW030 31/17 Q1015=
2020033117 - SABZ18 SBSR 311700
2020033117 - METAR SBSR 311700Z 28004KT 9999 SCT030 31/18 Q1014=
2020033118 - SABZ18 SBSR 311800
2020033118 - METAR SBSR 311800Z 00000KT 9999 SCT030 32/17 Q1013=
2020033119 - SABZ18 SBSR 311900
2020033119 - METAR SBSR 311900Z 24007KT 9999 FEW030 31/19 Q1013=
2020033120 - SABZ18 SBSR 312000
2020033120 - METAR SBSR 312000Z 24007KT 9999 FEW030 31/19 Q1013=
2020033121 - SABZ18 SBSR 312100
2020033121 - METAR SBSR 312100Z 21008KT 9999 FEW030 30/19 Q1013=
2020033122 - SABZ18 SBSR 312200
2020033122 - METAR SBSR 312200Z 21006KT CAVOK 28/19 Q1013=
2020033123 - SABZ18 SBSR 312300
2020033123 - METAR SBSR 312300Z 21005KT CAVOK 28/18 Q1014=
