
2020060100 - SABZ18 SBSR 010000
2020060100 - METAR SBSR 010000Z 00000KT CAVOK 18/06 Q1018=
2020060101 - SABZ18 SBSR 010100
2020060101 - METAR SBSR 010100Z 00000KT CAVOK 17/08 Q1019=
2020060102 - SABZ18 SBSR 010200 RRA
2020060102 - METAR SBSR 010200Z 00000KT CAVOK 16/07 Q1019=
2020060103 - SABZ18 SBSR 010300
2020060103 - METAR SBSR 010300Z 00000KT CAVOK 15/08 Q1019=
2020060104 - SABZ18 SBSR 010400
2020060104 - METAR SBSR 010400Z 00000KT CAVOK 14/08 Q1018=
2020060105 - SABZ18 SBSR 010500
2020060105 - METAR SBSR 010500Z 00000KT CAVOK 13/08 Q1018=
2020060106 - SABZ18 SBSR 010600
2020060106 - METAR SBSR 010600Z 00000KT CAVOK 13/08 Q1018=
2020060107 - SABZ18 SBSR 010700
2020060107 - METAR SBSR 010700Z 00000KT CAVOK 13/07 Q1017=
2020060108 - SABZ18 SBSR 010800
2020060108 - METAR SBSR 010800Z 00000KT CAVOK 13/07 Q1018=
2020060109 - SABZ18 SBSR 010900
2020060109 - METAR SBSR 010900Z 00000KT CAVOK 13/07 Q1018=
2020060110 - SABZ18 SBSR 011000
2020060110 - METAR SBSR 011000Z 00000KT CAVOK 13/07 Q1019=
2020060111 - SABZ18 SBSR 011100
2020060111 - METAR SBSR 011100Z 09006KT CAVOK 15/08 Q1020=
2020060112 - SABZ18 SBSR 011200
2020060112 - METAR SBSR 011200Z 04004KT CAVOK 17/08 Q1020=
2020060113 - SABZ18 SBSR 011300
2020060113 - METAR SBSR 011300Z 03006KT CAVOK 21/14 Q1020=
2020060114 - SABZ18 SBSR 011400
2020060114 - METAR SBSR 011400Z 02007KT CAVOK 23/08 Q1020=
2020060115 - SABZ18 SBSR 011500
2020060115 - METAR SBSR 011500Z 02005KT CAVOK 25/06 Q1019=
2020060116 - SABZ18 SBSR 011600
2020060116 - METAR SBSR 011600Z 08007KT CAVOK 26/06 Q1018=
2020060117 - SABZ18 SBSR 011700
2020060117 - METAR SBSR 011700Z 09007KT CAVOK 27/06 Q1016=
2020060118 - SABZ18 SBSR 011800
2020060118 - METAR SBSR 011800Z 06003KT CAVOK 27/06 Q1016=
2020060119 - SABZ18 SBSR 011900
2020060119 - METAR SBSR 011900Z 10004KT CAVOK 27/05 Q1015=
2020060120 - SABZ18 SBSR 012000
2020060120 - METAR SBSR 012000Z 10003KT CAVOK 27/05 Q1015=
2020060121 - SABZ18 SBSR 012100
2020060121 - METAR SBSR 012100Z 00000KT CAVOK 25/06 Q1016=
2020060122 - SABZ18 SBSR 012200
2020060122 - METAR SBSR 012200Z 00000KT CAVOK 23/07 Q1017=
2020060123 - SABZ18 SBSR 012300
2020060123 - METAR SBSR 012300Z 00000KT CAVOK 20/09 Q1017=
2020060200 - SABZ18 SBSR 020000
2020060200 - METAR SBSR 020000Z 06003KT CAVOK 21/08 Q1017=
2020060201 - SABZ18 SBSR 020100
2020060201 - METAR SBSR 020100Z 00000KT CAVOK 19/08 Q1018=
2020060202 - SABZ18 SBSR 020200
2020060202 - METAR SBSR 020200Z 24002KT CAVOK 19/08 Q1018=
2020060203 - SABZ18 SBSR 020300
2020060203 - METAR SBSR 020300Z 00000KT CAVOK 17/08 Q1017=
2020060204 - SABZ18 SBSR 020400
2020060204 - METAR SBSR 020400Z 00000KT CAVOK 17/09 Q1017=
2020060205 - SABZ18 SBSR 020500
2020060205 - METAR SBSR 020500Z 00000KT CAVOK 16/10 Q1017=
2020060206 - SABZ18 SBSR 020600
2020060206 - METAR SBSR 020600Z 00000KT CAVOK 16/09 Q1017=
2020060207 - SABZ18 SBSR 020700
2020060207 - METAR SBSR 020700Z 00000KT CAVOK 16/08 Q1017=
2020060208 - SABZ18 SBSR 020800
2020060208 - METAR SBSR 020800Z 09003KT CAVOK 15/07 Q1017=
2020060209 - SABZ18 SBSR 020900
2020060209 - METAR SBSR 020900Z 06003KT CAVOK 15/07 Q1017=
2020060210 - SABZ18 SBSR 021000
2020060210 - METAR SBSR 021000Z 02002KT CAVOK 15/07 Q1017=
2020060211 - SABZ18 SBSR 021100
2020060211 - METAR SBSR 021100Z 09003KT CAVOK 16/13 Q1018=
2020060212 - SABZ18 SBSR 021200
2020060212 - METAR SBSR 021200Z 30002KT CAVOK 18/09 Q1019=
2020060213 - SABZ18 SBSR 021300
2020060213 - METAR SBSR 021300Z 00000KT CAVOK 22/09 Q1019=
2020060214 - SABZ18 SBSR 021400
2020060214 - METAR SBSR 021400Z 25004KT CAVOK 23/09 Q1019=
2020060215 - SABZ18 SBSR 021500
2020060215 - METAR SBSR 021500Z 13002KT CAVOK 25/09 Q1019=
2020060216 - SABZ18 SBSR 021600
2020060216 - METAR SBSR 021600Z 26006KT 210V360 9999 FEW030 SCT070 25/08 Q1017=
2020060217 - SABZ18 SBSR 021700
2020060217 - METAR SBSR 021700Z 26003KT 200V350 9999 FEW030 SCT070 26/08 Q1016=
2020060218 - SABZ18 SBSR 021800
2020060218 - METAR SBSR 021800Z 24009KT 9999 SCT030 BKN070 25/08 Q1016=
2020060219 - SABZ18 SBSR 021900
2020060219 - METAR SBSR 021900Z 23009KT 9999 SCT035 SCT070 24/09 Q1016=
2020060220 - SABZ18 SBSR 022000
2020060220 - METAR SBSR 022000Z 21008KT 9999 SCT040 BKN070 23/09 Q1017=
2020060221 - SABZ18 SBSR 022100
2020060221 - METAR SBSR 022100Z 22005KT 9999 SCT035 BKN070 22/09 Q1017=
2020060222 - SABZ18 SBSR 022200
2020060222 - METAR SBSR 022200Z 18004KT 9999 SCT035 BKN070 21/09 Q1017=
2020060223 - SABZ18 SBSR 022300
2020060223 - METAR SBSR 022300Z 18005KT 9999 SCT035 BKN070 21/09 Q1018=
2020060300 - SABZ18 SBSR 030000
2020060300 - METAR SBSR 030000Z 15004KT CAVOK 20/09 Q1018=
2020060301 - SABZ18 SBSR 030100
2020060301 - METAR SBSR 030100Z 15004KT CAVOK 20/09 Q1018=
2020060302 - SABZ18 SBSR 030200
2020060302 - METAR SBSR 030200Z 15004KT CAVOK 19/09 Q1018=
2020060303 - SABZ18 SBSR 030300
2020060303 - METAR SBSR 030300Z 00000KT CAVOK 19/09 Q1018=
2020060304 - SABZ18 SBSR 030400
2020060304 - METAR SBSR 030400Z 15002KT CAVOK 19/09 Q1018=
2020060305 - SABZ18 SBSR 030500
2020060305 - METAR SBSR 030500Z 12004KT CAVOK 19/09 Q1018=
2020060306 - SABZ18 SBSR 030600
2020060306 - METAR SBSR 030600Z 00000KT CAVOK 18/09 Q1018=
2020060307 - SABZ18 SBSR 030700
2020060307 - METAR SBSR 030700Z 00000KT CAVOK 18/10 Q1018=
2020060308 - SABZ18 SBSR 030800
2020060308 - METAR SBSR 030800Z 00000KT CAVOK 18/10 Q1018=
2020060309 - SABZ18 SBSR 030900
2020060309 - METAR SBSR 030900Z VRB01KT CAVOK 17/10 Q1018=
2020060310 - SABZ18 SBSR 031000
2020060310 - METAR SBSR 031000Z 00000KT 9999 FEW025 SCT070 17/10 Q1019=
2020060311 - SABZ18 SBSR 031100
2020060311 - METAR SBSR 031100Z 00000KT 9999 FEW025 BKN070 17/12 Q1020=
2020060312 - SABZ18 SBSR 031200
2020060312 - METAR SBSR 031200Z 16003KT 080V250 9999 SCT030 BKN070 19/11 Q1020=
2020060313 - SABZ18 SBSR 031300
2020060313 - METAR SBSR 031300Z 18004KT 110V250 9999 SCT030 BKN070 20/11 Q1021=
2020060314 - SABZ18 SBSR 031400
2020060314 - METAR SBSR 031400Z 20006KT 9999 SCT030 OVC070 21/12 Q1021=
2020060315 - SABZ18 SBSR 031500
2020060315 - METAR SBSR 031500Z 13006KT 9999 SCT028 BKN070 22/11 Q1020=
2020060316 - SABZ18 SBSR 031600
2020060316 - METAR SBSR 031600Z 14006KT 9999 FEW027 BKN070 23/10 Q1019=
2020060317 - SABZ18 SBSR 031700
2020060317 - METAR SBSR 031700Z 18003KT 9999 FEW027 BKN070 23/11 Q1018=
2020060318 - SABZ18 SBSR 031800
2020060318 - METAR SBSR 031800Z 17004KT 9999 FEW030 BKN070 23/11 Q1018=
2020060319 - SABZ18 SBSR 031900
2020060319 - METAR SBSR 031900Z 24003KT 9000 -DZ FEW022 SCT025 OVC070 22/13 Q1018=
2020060320 - SABZ18 SBSR 032000
2020060320 - METAR SBSR 032000Z 20003KT 7000 FEW022 SCT025 OVC070 21/15 Q1019=
2020060321 - SABZ18 SBSR 032100
2020060321 - METAR SBSR 032100Z 16001KT 7000 SCT025 OVC070 21/14 Q1019=
2020060322 - SABZ18 SBSR 032200
2020060322 - METAR SBSR 032200Z 15003KT 9999 SCT025 OVC070 21/14 Q1019=
2020060323 - SABZ18 SBSR 032300
2020060323 - METAR SBSR 032300Z 18003KT 9000 -RA SCT020 OVC070 20/14 Q1020=
2020060400 - SABZ18 SBSR 040000
2020060400 - METAR SBSR 040000Z 00000KT 9000 -DZ SCT010 OVC070 20/14 Q1021=
2020060401 - SABZ18 SBSR 040100
2020060401 - METAR SBSR 040100Z 00000KT CAVOK 19/15 Q1021=
2020060402 - SABZ18 SBSR 040200
2020060402 - METAR SBSR 040200Z 18004KT CAVOK 19/15 Q1021=
2020060403 - SABZ18 SBSR 040300
2020060403 - METAR SBSR 040300Z 18006KT CAVOK 19/14 Q1021=
2020060404 - SABZ18 SBSR 040400
2020060404 - METAR SBSR 040400Z 15003KT CAVOK 19/14 Q1020=
2020060405 - SABZ18 SBSR 040500
2020060405 - METAR SBSR 040500Z 15003KT CAVOK 19/14 Q1020=
2020060406 - SABZ18 SBSR 040600
2020060406 - METAR SBSR 040600Z 12003KT CAVOK 19/14 Q1020=
2020060407 - SABZ18 SBSR 040700
2020060407 - METAR SBSR 040700Z 15002KT CAVOK 18/14 Q1020=
2020060408 - SABZ18 SBSR 040800
2020060408 - METAR SBSR 040800Z 15005KT CAVOK 19/13 Q1020=
2020060409 - SABZ18 SBSR 040900
2020060409 - METAR SBSR 040900Z 12006KT CAVOK 19/13 Q1020=
2020060410 - SABZ18 SBSR 041000
2020060410 - METAR SBSR 041000Z 12004KT CAVOK 18/13 Q1020=
2020060411 - SABZ18 SBSR 041100
2020060411 - METAR SBSR 041100Z 13006KT CAVOK 18/04 Q1021=
2020060412 - SABZ18 SBSR 041200
2020060412 - METAR SBSR 041200Z 13008KT CAVOK 20/14 Q1022=
2020060413 - SABZ18 SBSR 041300
2020060413 - METAR SBSR 041300Z 12005KT CAVOK 23/17 Q1022=
2020060414 - SABZ18 SBSR 041400
2020060414 - METAR SBSR 041400Z 12006KT CAVOK 25/14 Q1022=
2020060415 - SABZ18 SBSR 041500
2020060415 - METAR SBSR 041500Z 12005KT CAVOK 27/14 Q1021=
2020060416 - SABZ18 SBSR 041600
2020060416 - METAR SBSR 041600Z 06005KT CAVOK 27/14 Q1020=
2020060417 - SABZ18 SBSR 041700
2020060417 - METAR SBSR 041700Z 16004KT 9999 FEW035 SCT070 28/14 Q1019=
2020060418 - SABZ18 SBSR 041800
2020060418 - METAR SBSR 041800Z 12003KT 9999 SCT035 SCT070 28/14 Q1019=
2020060419 - SABZ18 SBSR 041900
2020060419 - METAR SBSR 041900Z 25004KT 9999 SCT040 SCT070 28/13 Q1018=
2020060420 - SABZ18 SBSR 042000
2020060420 - METAR SBSR 042000Z 20007KT 9999 SCT040 SCT070 27/15 Q1019=
2020060421 - SABZ18 SBSR 042100
2020060421 - METAR SBSR 042100Z 20007KT 9999 SCT040 SCT070 25/16 Q1019=
2020060422 - SABZ18 SBSR 042200
2020060422 - METAR SBSR 042200Z 19006KT 9999 SCT035 BKN070 24/15 Q1019=
2020060423 - SABZ18 SBSR 042300
2020060423 - METAR SBSR 042300Z 18007KT 9999 SCT030 BKN070 23/15 Q1020=
2020060500 - SABZ18 SBSR 050000
2020060500 - METAR SBSR 050000Z 18009KT 9999 SCT030 BKN070 22/14 Q1020=
2020060501 - SABZ18 SBSR 050100
2020060501 - METAR SBSR 050100Z 19007KT 9999 FEW030 SCT070 21/15 Q1020=
2020060502 - SABZ18 SBSR 050200
2020060502 - METAR SBSR 050200Z 17006KT 9999 FEW030 SCT070 21/15 Q1020=
2020060503 - SABZ18 SBSR 050300
2020060503 - METAR SBSR 050300Z 15004KT 9999 FEW030 SCT070 21/15 Q1020=
2020060504 - SABZ18 SBSR 050400
2020060504 - METAR SBSR 050400Z 15005KT 9999 FEW030 BKN070 20/15 Q1020=
2020060505 - SABZ18 SBSR 050500
2020060505 - METAR SBSR 050500Z 16004KT 9999 FEW030 BKN070 20/15 Q1020=
2020060506 - SABZ18 SBSR 050600
2020060506 - METAR SBSR 050600Z 17006KT 9999 FEW030 BKN070 19/15 Q1019=
2020060507 - SABZ18 SBSR 050700
2020060507 - METAR SBSR 050700Z 15007KT 9999 FEW030 BKN070 19/15 Q1019=
2020060508 - SABZ18 SBSR 050800
2020060508 - METAR SBSR 050800Z 14005KT 9999 FEW030 SCT070 19/15 Q1019=
2020060509 - SABZ18 SBSR 050900
2020060509 - METAR SBSR 050900Z 15005KT 9999 FEW030 SCT070 19/15 Q1020=
2020060510 - SABZ18 SBSR 051000
2020060510 - METAR SBSR 051000Z 18006KT 9000 SCT010 BKN070 19/15 Q1020=
2020060511 - SABZ18 SBSR 051100
2020060511 - METAR SBSR 051100Z 12004KT 9000 SCT010 BKN070 19/15 Q1021=
2020060512 - SABZ18 SBSR 051200
2020060512 - METAR SBSR 051200Z 12007KT CAVOK 21/15 Q1021=
2020060513 - SABZ18 SBSR 051300
2020060513 - METAR SBSR 051300Z 09011KT CAVOK 24/14 Q1022=
2020060514 - SABZ18 SBSR 051400
2020060514 - METAR SBSR 051400Z 06010KT CAVOK 25/14 Q1022=
2020060515 - SABZ18 SBSR 051500
2020060515 - METAR SBSR 051500Z 06012KT CAVOK 27/14 Q1021=
2020060516 - SABZ18 SBSR 051600
2020060516 - METAR SBSR 051600Z 04008KT CAVOK 28/14 Q1020=
2020060517 - SABZ18 SBSR 051700
2020060517 - METAR SBSR 051700Z 36008KT CAVOK 29/13 Q1019=
2020060518 - SABZ18 SBSR 051800
2020060518 - METAR SBSR 051800Z 06008KT 9999 SCT020 BKN070 29/13 Q1018=
2020060519 - SABZ18 SBSR 051900
2020060519 - METAR SBSR 051900Z 06007KT 9999 SCT020 BKN070 29/13 Q1018=
2020060520 - SABZ18 SBSR 052000
2020060520 - METAR SBSR 052000Z 06005KT 9999 FEW025 BKN070 29/13 Q1018=
2020060521 - SABZ18 SBSR 052100
2020060521 - METAR SBSR 052100Z 06004KT 9999 FEW030 BKN070 28/13 Q1018=
2020060522 - SABZ18 SBSR 052200
2020060522 - METAR SBSR 052200Z 00000KT CAVOK 26/14 Q1019=
2020060523 - SABZ18 SBSR 052300
2020060523 - METAR SBSR 052300Z 06002KT 9999 FEW035 26/14 Q1019=
2020060600 - SABZ18 SBSR 060000
2020060600 - METAR SBSR 060000Z 00000KT 9999 FEW035 25/14 Q1019=
2020060601 - SABZ18 SBSR 060100
2020060601 - METAR SBSR 060100Z 07003KT 9999 SCT030 25/14 Q1019=
2020060602 - SABZ18 SBSR 060200
2020060602 - METAR SBSR 060200Z 02003KT 9999 SCT030 24/14 Q1020=
2020060603 - SABZ18 SBSR 060300
2020060603 - METAR SBSR 060300Z 06004KT 9999 SCT035 23/14 Q1019=
2020060604 - SABZ18 SBSR 060400
2020060604 - METAR SBSR 060400Z 05006KT CAVOK 23/14 Q1019=
2020060605 - SABZ18 SBSR 060500
2020060605 - METAR SBSR 060500Z 06004KT CAVOK 22/15 Q1019=
2020060606 - SABZ18 SBSR 060600
2020060606 - METAR SBSR 060600Z 06006KT CAVOK 21/14 Q1018=
2020060607 - SABZ18 SBSR 060700
2020060607 - METAR SBSR 060700Z 08006KT CAVOK 20/16 Q1018=
2020060608 - SABZ18 SBSR 060800
2020060608 - METAR SBSR 060800Z 05004KT CAVOK 20/14 Q1018=
2020060609 - SABZ18 SBSR 060900
2020060609 - METAR SBSR 060900Z 04003KT CAVOK 20/14 Q1018=
2020060610 - SABZ18 SBSR 061000
2020060610 - METAR SBSR 061000Z 27008KT CAVOK 19/14 Q1020=
2020060611 - SABZ18 SBSR 061100
2020060611 - METAR SBSR 061100Z 03002KT CAVOK 20/15 Q1020=
2020060612 - SABZ18 SBSR 061200
2020060612 - METAR SBSR 061200Z 36002KT CAVOK 22/15 Q1021=
2020060613 - SABZ18 SBSR 061300
2020060613 - METAR SBSR 061300Z 03005KT CAVOK 23/14 Q1021=
2020060614 - SABZ18 SBSR 061400
2020060614 - METAR SBSR 061400Z 30005KT CAVOK 26/14 Q1021=
2020060615 - SABZ18 SBSR 061500
2020060615 - METAR SBSR 061500Z 36006KT CAVOK 27/14 Q1020=
2020060616 - SABZ18 SBSR 061600
2020060616 - METAR SBSR 061600Z 33005KT CAVOK 27/15 Q1019=
2020060617 - SABZ18 SBSR 061700
2020060617 - METAR SBSR 061700Z 27006KT 9999 SCT020 SCT080 28/15 Q1018=
2020060618 - SABZ18 SBSR 061800
2020060618 - METAR SBSR 061800Z 27007KT CAVOK 27/16 Q1018=
2020060619 - SABZ18 SBSR 061900
2020060619 - METAR SBSR 061900Z 24007KT CAVOK 27/16 Q1012=
2020060620 - SABZ18 SBSR 062000
2020060620 - METAR SBSR 062000Z 24007KT CAVOK 26/16 Q1018=
2020060621 - SABZ18 SBSR 062100
2020060621 - METAR SBSR 062100Z 24004KT CAVOK 24/16 Q1018=
2020060622 - SABZ18 SBSR 062200
2020060622 - METAR SBSR 062200Z 24006KT 9999 FEW035 SCT080 23/16 Q1019=
2020060623 - SABZ18 SBSR 062300
2020060623 - METAR SBSR 062300Z 24005KT 9999 FEW035 SCT070 22/15 Q1019=
2020060700 - SABZ18 SBSR 070000
2020060700 - METAR SBSR 070000Z 21006KT 9999 FEW035 SCT070 21/15 Q1020=
2020060701 - SABZ18 SBSR 070100
2020060701 - METAR SBSR 070100Z 21004KT 9999 FEW035 SCT070 21/15 Q1020=
2020060702 - SABZ18 SBSR 070200
2020060702 - METAR SBSR 070200Z 23002KT 9999 FEW035 SCT080 19/15 Q1019=
2020060703 - SABZ18 SBSR 070300
2020060703 - METAR SBSR 070300Z 23002KT 9999 FEW035 SCT080 20/15 Q1019=
2020060704 - SABZ18 SBSR 070400
2020060704 - METAR SBSR 070400Z 21005KT 9999 FEW035 SCT090 20/15 Q1020=
2020060705 - SABZ18 SBSR 070500
2020060705 - METAR SBSR 070500Z 25003KT CAVOK 19/15 Q1019=
2020060706 - SABZ18 SBSR 070600
2020060706 - METAR SBSR 070600Z 21006KT CAVOK 19/15 Q1019=
2020060707 - SABZ18 SBSR 070700
2020060707 - METAR SBSR 070700Z 22004KT CAVOK 19/15 Q1019=
2020060708 - SABZ18 SBSR 070800
2020060708 - METAR SBSR 070800Z 18004KT 9999 FEW030 SCT070 19/15 Q1019=
2020060709 - SABZ18 SBSR 070900
2020060709 - METAR SBSR 070900Z 16006KT 9999 FEW030 BKN070 19/15 Q1020=
2020060710 - SABZ18 SBSR 071000
2020060710 - METAR SBSR 071000Z 12004KT 9999 SCT010 BKN070 19/15 Q1020=
2020060711 - SABZ18 SBSR 071100
2020060711 - METAR SBSR 071100Z 15002KT 9999 SCT010 BKN070 19/15 Q1021=
2020060712 - SABZ18 SBSR 071200
2020060712 - METAR SBSR 071200Z 12005KT 9999 SCT015 BKN070 20/15 Q1022=
2020060713 - SABZ18 SBSR 071300
2020060713 - METAR SBSR 071300Z 06006KT 9999 SCT015 BKN070 20/15 Q1023=
2020060714 - SABZ18 SBSR 071400
2020060714 - METAR SBSR 071400Z 12005KT 9999 SCT015 BKN070 21/15 Q1022=
2020060715 - SABZ18 SBSR 071500
2020060715 - METAR SBSR 071500Z 09006KT 9999 SCT025 BKN070 23/15 Q1022=
2020060716 - SABZ18 SBSR 071600
2020060716 - METAR SBSR 071600Z 09003KT 9999 SCT025 BKN070 24/15 Q1021=
2020060717 - SABZ18 SBSR 071700
2020060717 - METAR SBSR 071700Z 06002KT 9999 SCT030 BKN070 25/15 Q1020=
2020060718 - SABZ18 SBSR 071800
2020060718 - METAR SBSR 071800Z 06002KT CAVOK 26/15 Q1020=
2020060719 - SABZ18 SBSR 071900
2020060719 - METAR SBSR 071900Z 12002KT CAVOK 26/15 Q1019=
2020060720 - SABZ18 SBSR 072000
2020060720 - METAR SBSR 072000Z 18004KT CAVOK 26/15 Q1019=
2020060721 - SABZ18 SBSR 072100
2020060721 - METAR SBSR 072100Z 18003KT CAVOK 25/16 Q1019=
2020060722 - SABZ18 SBSR 072200
2020060722 - METAR SBSR 072200Z 18003KT 9999 FEW030 SCT070 24/16 Q1020=
2020060723 - SABZ18 SBSR 072300
2020060723 - METAR SBSR 072300Z 16002KT 9999 FEW030 SCT070 23/16 Q1020=
2020060800 - SABZ18 SBSR 080000
2020060800 - METAR SBSR 080000Z 00000KT 9999 FEW030 SCT070 22/16 Q1020=
2020060801 - SABZ18 SBSR 080100
2020060801 - METAR SBSR 080100Z 00000KT 9999 FEW030 SCT070 22/16 Q1020=
2020060802 - SABZ18 SBSR 080200
2020060802 - METAR SBSR 080200Z 13003KT 9999 FEW035 22/16 Q1020=
2020060803 - SABZ18 SBSR 080300
2020060803 - METAR SBSR 080300Z 13003KT 9999 FEW035 21/15 Q1020=
2020060804 - SABZ18 SBSR 080400
2020060804 - METAR SBSR 080400Z 15005KT 9999 FEW035 21/16 Q1020=
2020060805 - SABZ18 SBSR 080500
2020060805 - METAR SBSR 080500Z 12002KT CAVOK 21/16 Q1020=
2020060806 - SABZ18 SBSR 080600
2020060806 - METAR SBSR 080600Z 08004KT CAVOK 20/16 Q1019=
2020060807 - SABZ18 SBSR 080700
2020060807 - METAR SBSR 080700Z 08002KT CAVOK 20/16 Q1019=
2020060808 - SABZ18 SBSR 080800
2020060808 - METAR SBSR 080800Z 00000KT CAVOK 19/15 Q1019=
2020060809 - SABZ18 SBSR 080900
2020060809 - METAR SBSR 080900Z 12002KT 9999 FEW030 19/15 Q1019=
2020060810 - SABZ18 SBSR 081000
2020060810 - METAR SBSR 081000Z 09003KT 9999 FEW030 19/16 Q1019=
2020060811 - SABZ18 SBSR 081100
2020060811 - METAR SBSR 081100Z 09005KT CAVOK 21/16 Q1020=
2020060812 - SABZ18 SBSR 081200
2020060812 - METAR SBSR 081200Z 09003KT CAVOK 23/16 Q1021=
2020060813 - SABZ18 SBSR 081300
2020060813 - METAR SBSR 081300Z 09006KT CAVOK 23/16 Q1021=
2020060814 - SABZ18 SBSR 081400
2020060814 - METAR SBSR 081400Z 03004KT CAVOK 25/14 Q1021=
2020060815 - SABZ18 SBSR 081500
2020060815 - METAR SBSR 081500Z 03004KT CAVOK 28/15 Q1020=
2020060816 - SABZ18 SBSR 081600
2020060816 - METAR SBSR 081600Z 18003KT 9999 SCT020 29/14 Q1019=
2020060817 - SABZ18 SBSR 081700
2020060817 - METAR SBSR 081700Z 00000KT 9999 SCT025 30/14 Q1018=
2020060818 - SABZ18 SBSR 081800
2020060818 - METAR SBSR 081800Z 36004KT 9999 SCT030 30/13 Q1017=
2020060819 - SABZ18 SBSR 081900
2020060819 - METAR SBSR 081900Z 00000KT 9999 FEW030 30/12 Q1016=
2020060820 - SABZ18 SBSR 082000
2020060820 - METAR SBSR 082000Z 30002KT CAVOK 31/13 Q1016=
2020060821 - SABZ18 SBSR 082100
2020060821 - METAR SBSR 082100Z 27002KT CAVOK 28/13 Q1017=
2020060822 - SABZ18 SBSR 082200
2020060822 - METAR SBSR 082200Z 15002KT CAVOK 27/14 Q1017=
2020060823 - SABZ18 SBSR 082300
2020060823 - METAR SBSR 082300Z 16002KT CAVOK 26/14 Q1018=
2020060900 - SABZ18 SBSR 090000
2020060900 - METAR SBSR 090000Z 00000KT CAVOK 25/15 Q1018=
2020060901 - SABZ18 SBSR 090100
2020060901 - METAR SBSR 090100Z 00000KT CAVOK 24/15 Q1019=
2020060902 - SABZ18 SBSR 090200
2020060902 - METAR SBSR 090200Z 00000KT CAVOK 24/14 Q1019=
2020060903 - SABZ18 SBSR 090300
2020060903 - METAR SBSR 090300Z 00000KT CAVOK 23/14 Q1019=
2020060904 - SABZ18 SBSR 090400
2020060904 - METAR SBSR 090400Z 00000KT CAVOK 22/15 Q1018=
2020060905 - SABZ18 SBSR 090500
2020060905 - METAR SBSR 090500Z 00000KT CAVOK 22/15 Q1018=
2020060906 - SABZ18 SBSR 090600
2020060906 - METAR SBSR 090600Z 00000KT CAVOK 22/15 Q1017=
2020060907 - SABZ18 SBSR 090700
2020060907 - METAR SBSR 090700Z 09003KT CAVOK 21/14 Q1017=
2020060908 - SABZ18 SBSR 090800
2020060908 - METAR SBSR 090800Z 09002KT CAVOK 21/15 Q1017=
2020060909 - SABZ18 SBSR 090900
2020060909 - METAR SBSR 090900Z 08003KT 9999 FEW030 20/14 Q1017=
2020060910 - SABZ18 SBSR 091000
2020060910 - METAR SBSR 091000Z 09003KT CAVOK 20/15 Q1018=
2020060911 - SABZ18 SBSR 091100
2020060911 - METAR SBSR 091100Z 09002KT CAVOK 22/15 Q1019=
2020060912 - SABZ18 SBSR 091200
2020060912 - METAR SBSR 091200Z 06006KT CAVOK 23/14 Q1019=
2020060913 - SABZ18 SBSR 091300
2020060913 - METAR SBSR 091300Z 04007KT CAVOK 25/15 Q1019=
2020060914 - SABZ18 SBSR 091400
2020060914 - METAR SBSR 091400Z 03003KT CAVOK 27/15 Q1019=
2020060915 - SABZ18 SBSR 091500
2020060915 - METAR SBSR 091500Z 03006KT CAVOK 29/13 Q1018=
2020060916 - SABZ18 SBSR 091600
2020060916 - METAR SBSR 091600Z 36005KT 9999 SCT020 BKN070 29/12 Q1017=
2020060917 - SABZ18 SBSR 091700
2020060917 - METAR SBSR 091700Z 33004KT 9999 SCT020 BKN070 29/13 Q1016=
2020060918 - SABZ18 SBSR 091800
2020060918 - METAR SBSR 091800Z 18006KT 9999 SCT020 BKN070 25/17 Q1016=
2020060919 - SABZ18 SBSR 091900
2020060919 - METAR SBSR 091900Z 18004KT 9999 SCT015 25/17 Q1015=
2020060920 - SABZ18 SBSR 092000
2020060920 - METAR SBSR 092000Z 09004KT 9999 SCT030 BKN070 24/17 Q1015=
2020060921 - SABZ18 SBSR 092100
2020060921 - METAR SBSR 092100Z 06008KT 9999 FEW035 BKN070 25/15 Q1016=
2020060922 - SABZ18 SBSR 092200
2020060922 - METAR SBSR 092200Z 03002KT 9999 FEW035 24/15 Q1016=
2020060923 - SABZ18 SBSR 092300
2020060923 - METAR SBSR 092300Z 00000KT 9999 FEW040 23/15 Q1016=
2020061000 - SABZ18 SBSR 100000
2020061000 - METAR SBSR 100000Z 09003KT 9999 FEW040 23/16 Q1016=
2020061001 - SABZ18 SBSR 100100
2020061001 - METAR SBSR 100100Z 08002KT 9999 FEW040 22/15 Q1016=
2020061002 - SABZ18 SBSR 100200
2020061002 - METAR SBSR 100200Z 04002KT CAVOK 23/15 Q1016=
2020061003 - SABZ18 SBSR 100300
2020061003 - METAR SBSR 100300Z 00000KT CAVOK 21/15 Q1016=
2020061004 - SABZ18 SBSR 100400
2020061004 - METAR SBSR 100400Z 00000KT CAVOK 21/15 Q1016=
2020061005 - SABZ18 SBSR 100500
2020061005 - METAR SBSR 100500Z 08002KT CAVOK 20/15 Q1016=
2020061006 - SABZ18 SBSR 100600
2020061006 - METAR SBSR 100600Z 06003KT CAVOK 21/15 Q1015=
2020061007 - SABZ18 SBSR 100700
2020061007 - METAR SBSR 100700Z 12002KT CAVOK 20/15 Q1015=
2020061008 - SABZ18 SBSR 100800
2020061008 - METAR SBSR 100800Z 00000KT CAVOK 19/15 Q1015=
2020061009 - SABZ18 SBSR 100900
2020061009 - METAR SBSR 100900Z 00000KT CAVOK 19/15 Q1016=
2020061010 - SABZ18 SBSR 101000
2020061010 - METAR SBSR 101000Z 06003KT CAVOK 20/15 Q1016=
2020061011 - SABZ18 SBSR 101100
2020061011 - METAR SBSR 101100Z 04002KT CAVOK 20/15 Q1017=
2020061012 - SABZ18 SBSR 101200
2020061012 - METAR SBSR 101200Z 04006KT 9999 FEW035 21/15 Q1018=
2020061013 - SABZ18 SBSR 101300
2020061013 - METAR SBSR 101300Z 04004KT 300V090 9999 FEW035 24/15 Q1018=
2020061014 - SABZ18 SBSR 101400
2020061014 - METAR SBSR 101400Z 36006KT CAVOK 27/13 Q1018=
2020061015 - SABZ18 SBSR 101500
2020061015 - METAR SBSR 101500Z VRB07KT CAVOK 29/12 Q1017=
2020061016 - SABZ18 SBSR 101600
2020061016 - METAR SBSR 101600Z VRB06KT CAVOK 30/11 Q1016=
2020061017 - SABZ18 SBSR 101700
2020061017 - METAR SBSR 101700Z VRB06KT CAVOK 30/11 Q1015=
2020061018 - SABZ18 SBSR 101800
2020061018 - METAR SBSR 101800Z VRB05KT 9999 FEW030 31/09 Q1015=
2020061019 - SABZ18 SBSR 101900
2020061019 - METAR SBSR 101900Z VRB06KT 9999 FEW030 31/09 Q1015=
2020061020 - SABZ18 SBSR 102000
2020061020 - METAR SBSR 102000Z 34004KT 9999 FEW030 30/10 Q1015=
2020061021 - SABZ18 SBSR 102100
2020061021 - METAR SBSR 102100Z 01003KT 9999 FEW030 28/10 Q1015=
2020061022 - SABZ18 SBSR 102200
2020061022 - METAR SBSR 102200Z 03005KT CAVOK 29/13 Q1016=
2020061023 - SABZ18 SBSR 102300
2020061023 - METAR SBSR 102300Z 00000KT CAVOK 24/12 Q1017=
2020061100 - SABZ18 SBSR 110000
2020061100 - METAR SBSR 110000Z 00000KT CAVOK 23/11 Q1017=
2020061101 - SABZ18 SBSR 110100
2020061101 - METAR SBSR 110100Z 06002KT CAVOK 23/12 Q1018=
2020061102 - SABZ18 SBSR 110200
2020061102 - METAR SBSR 110200Z 00000KT CAVOK 21/12 Q1018=
2020061103 - SABZ18 SBSR 110300
2020061103 - METAR SBSR 110300Z 06003KT CAVOK 22/12 Q1017=
2020061104 - SABZ18 SBSR 110400
2020061104 - METAR SBSR 110400Z 00000KT CAVOK 21/12 Q1017=
2020061105 - SABZ18 SBSR 110500
2020061105 - METAR SBSR 110500Z 00000KT CAVOK 20/12 Q1017=
2020061106 - SABZ18 SBSR 110600
2020061106 - METAR SBSR 110600Z 11002KT CAVOK 19/12 Q1017=
2020061107 - SABZ18 SBSR 110700
2020061107 - METAR SBSR 110700Z 04002KT CAVOK 19/12 Q1016=
2020061108 - SABZ18 SBSR 110800
2020061108 - METAR SBSR 110800Z 05004KT CAVOK 19/12 Q1017=
2020061109 - SABZ18 SBSR 110900
2020061109 - METAR SBSR 110900Z 06003KT CAVOK 19/11 Q1017=
2020061110 - SABZ18 SBSR 111000
2020061110 - METAR SBSR 111000Z 04002KT CAVOK 19/11 Q1018=
2020061111 - SABZ18 SBSR 111100
2020061111 - METAR SBSR 111100Z 04003KT CAVOK 19/12 Q1019=
2020061112 - SABZ18 SBSR 111200
2020061112 - METAR SBSR 111200Z 03006KT CAVOK 21/12 Q1020=
2020061113 - SABZ18 SBSR 111300
2020061113 - METAR SBSR 111300Z 06006KT CAVOK 24/12 Q1020=
2020061114 - Mensagem METAR de 'SBSR' para 11/06/2020 as 14(UTC) não localizada na base de dados da REDEMET
2020061115 - Mensagem METAR de 'SBSR' para 11/06/2020 as 15(UTC) não localizada na base de dados da REDEMET
2020061116 - Mensagem METAR de 'SBSR' para 11/06/2020 as 16(UTC) não localizada na base de dados da REDEMET
2020061117 - Mensagem METAR de 'SBSR' para 11/06/2020 as 17(UTC) não localizada na base de dados da REDEMET
2020061118 - Mensagem METAR de 'SBSR' para 11/06/2020 as 18(UTC) não localizada na base de dados da REDEMET
2020061119 - Mensagem METAR de 'SBSR' para 11/06/2020 as 19(UTC) não localizada na base de dados da REDEMET
2020061120 - Mensagem METAR de 'SBSR' para 11/06/2020 as 20(UTC) não localizada na base de dados da REDEMET
2020061121 - Mensagem METAR de 'SBSR' para 11/06/2020 as 21(UTC) não localizada na base de dados da REDEMET
2020061122 - Mensagem METAR de 'SBSR' para 11/06/2020 as 22(UTC) não localizada na base de dados da REDEMET
2020061123 - Mensagem METAR de 'SBSR' para 11/06/2020 as 23(UTC) não localizada na base de dados da REDEMET
2020061200 - Mensagem METAR de 'SBSR' para 12/06/2020 as 00(UTC) não localizada na base de dados da REDEMET
2020061201 - Mensagem METAR de 'SBSR' para 12/06/2020 as 01(UTC) não localizada na base de dados da REDEMET
2020061202 - Mensagem METAR de 'SBSR' para 12/06/2020 as 02(UTC) não localizada na base de dados da REDEMET
2020061203 - Mensagem METAR de 'SBSR' para 12/06/2020 as 03(UTC) não localizada na base de dados da REDEMET
2020061204 - Mensagem METAR de 'SBSR' para 12/06/2020 as 04(UTC) não localizada na base de dados da REDEMET
2020061205 - Mensagem METAR de 'SBSR' para 12/06/2020 as 05(UTC) não localizada na base de dados da REDEMET
2020061206 - Mensagem METAR de 'SBSR' para 12/06/2020 as 06(UTC) não localizada na base de dados da REDEMET
2020061207 - Mensagem METAR de 'SBSR' para 12/06/2020 as 07(UTC) não localizada na base de dados da REDEMET
2020061208 - Mensagem METAR de 'SBSR' para 12/06/2020 as 08(UTC) não localizada na base de dados da REDEMET
2020061209 - Mensagem METAR de 'SBSR' para 12/06/2020 as 09(UTC) não localizada na base de dados da REDEMET
2020061210 - Mensagem METAR de 'SBSR' para 12/06/2020 as 10(UTC) não localizada na base de dados da REDEMET
2020061211 - Mensagem METAR de 'SBSR' para 12/06/2020 as 11(UTC) não localizada na base de dados da REDEMET
2020061212 - Mensagem METAR de 'SBSR' para 12/06/2020 as 12(UTC) não localizada na base de dados da REDEMET
2020061213 - Mensagem METAR de 'SBSR' para 12/06/2020 as 13(UTC) não localizada na base de dados da REDEMET
2020061214 - Mensagem METAR de 'SBSR' para 12/06/2020 as 14(UTC) não localizada na base de dados da REDEMET
2020061215 - Mensagem METAR de 'SBSR' para 12/06/2020 as 15(UTC) não localizada na base de dados da REDEMET
2020061216 - Mensagem METAR de 'SBSR' para 12/06/2020 as 16(UTC) não localizada na base de dados da REDEMET
2020061217 - Mensagem METAR de 'SBSR' para 12/06/2020 as 17(UTC) não localizada na base de dados da REDEMET
2020061218 - Mensagem METAR de 'SBSR' para 12/06/2020 as 18(UTC) não localizada na base de dados da REDEMET
2020061219 - Mensagem METAR de 'SBSR' para 12/06/2020 as 19(UTC) não localizada na base de dados da REDEMET
2020061220 - Mensagem METAR de 'SBSR' para 12/06/2020 as 20(UTC) não localizada na base de dados da REDEMET
2020061221 - Mensagem METAR de 'SBSR' para 12/06/2020 as 21(UTC) não localizada na base de dados da REDEMET
2020061222 - Mensagem METAR de 'SBSR' para 12/06/2020 as 22(UTC) não localizada na base de dados da REDEMET
2020061223 - Mensagem METAR de 'SBSR' para 12/06/2020 as 23(UTC) não localizada na base de dados da REDEMET
2020061300 - Mensagem METAR de 'SBSR' para 13/06/2020 as 00(UTC) não localizada na base de dados da REDEMET
2020061301 - Mensagem METAR de 'SBSR' para 13/06/2020 as 01(UTC) não localizada na base de dados da REDEMET
2020061302 - Mensagem METAR de 'SBSR' para 13/06/2020 as 02(UTC) não localizada na base de dados da REDEMET
2020061303 - Mensagem METAR de 'SBSR' para 13/06/2020 as 03(UTC) não localizada na base de dados da REDEMET
2020061304 - Mensagem METAR de 'SBSR' para 13/06/2020 as 04(UTC) não localizada na base de dados da REDEMET
2020061305 - Mensagem METAR de 'SBSR' para 13/06/2020 as 05(UTC) não localizada na base de dados da REDEMET
2020061306 - Mensagem METAR de 'SBSR' para 13/06/2020 as 06(UTC) não localizada na base de dados da REDEMET
2020061307 - Mensagem METAR de 'SBSR' para 13/06/2020 as 07(UTC) não localizada na base de dados da REDEMET
2020061308 - Mensagem METAR de 'SBSR' para 13/06/2020 as 08(UTC) não localizada na base de dados da REDEMET
2020061309 - Mensagem METAR de 'SBSR' para 13/06/2020 as 09(UTC) não localizada na base de dados da REDEMET
2020061310 - Mensagem METAR de 'SBSR' para 13/06/2020 as 10(UTC) não localizada na base de dados da REDEMET
2020061311 - Mensagem METAR de 'SBSR' para 13/06/2020 as 11(UTC) não localizada na base de dados da REDEMET
2020061312 - Mensagem METAR de 'SBSR' para 13/06/2020 as 12(UTC) não localizada na base de dados da REDEMET
2020061313 - Mensagem METAR de 'SBSR' para 13/06/2020 as 13(UTC) não localizada na base de dados da REDEMET
2020061314 - Mensagem METAR de 'SBSR' para 13/06/2020 as 14(UTC) não localizada na base de dados da REDEMET
2020061315 - Mensagem METAR de 'SBSR' para 13/06/2020 as 15(UTC) não localizada na base de dados da REDEMET
2020061316 - Mensagem METAR de 'SBSR' para 13/06/2020 as 16(UTC) não localizada na base de dados da REDEMET
2020061317 - Mensagem METAR de 'SBSR' para 13/06/2020 as 17(UTC) não localizada na base de dados da REDEMET
2020061318 - Mensagem METAR de 'SBSR' para 13/06/2020 as 18(UTC) não localizada na base de dados da REDEMET
2020061319 - Mensagem METAR de 'SBSR' para 13/06/2020 as 19(UTC) não localizada na base de dados da REDEMET
2020061320 - Mensagem METAR de 'SBSR' para 13/06/2020 as 20(UTC) não localizada na base de dados da REDEMET
2020061321 - Mensagem METAR de 'SBSR' para 13/06/2020 as 21(UTC) não localizada na base de dados da REDEMET
2020061322 - Mensagem METAR de 'SBSR' para 13/06/2020 as 22(UTC) não localizada na base de dados da REDEMET
2020061323 - Mensagem METAR de 'SBSR' para 13/06/2020 as 23(UTC) não localizada na base de dados da REDEMET
2020061400 - Mensagem METAR de 'SBSR' para 14/06/2020 as 00(UTC) não localizada na base de dados da REDEMET
2020061401 - Mensagem METAR de 'SBSR' para 14/06/2020 as 01(UTC) não localizada na base de dados da REDEMET
2020061402 - Mensagem METAR de 'SBSR' para 14/06/2020 as 02(UTC) não localizada na base de dados da REDEMET
2020061403 - Mensagem METAR de 'SBSR' para 14/06/2020 as 03(UTC) não localizada na base de dados da REDEMET
2020061404 - Mensagem METAR de 'SBSR' para 14/06/2020 as 04(UTC) não localizada na base de dados da REDEMET
2020061405 - Mensagem METAR de 'SBSR' para 14/06/2020 as 05(UTC) não localizada na base de dados da REDEMET
2020061406 - Mensagem METAR de 'SBSR' para 14/06/2020 as 06(UTC) não localizada na base de dados da REDEMET
2020061407 - Mensagem METAR de 'SBSR' para 14/06/2020 as 07(UTC) não localizada na base de dados da REDEMET
2020061408 - Mensagem METAR de 'SBSR' para 14/06/2020 as 08(UTC) não localizada na base de dados da REDEMET
2020061409 - Mensagem METAR de 'SBSR' para 14/06/2020 as 09(UTC) não localizada na base de dados da REDEMET
2020061410 - Mensagem METAR de 'SBSR' para 14/06/2020 as 10(UTC) não localizada na base de dados da REDEMET
2020061411 - Mensagem METAR de 'SBSR' para 14/06/2020 as 11(UTC) não localizada na base de dados da REDEMET
2020061412 - Mensagem METAR de 'SBSR' para 14/06/2020 as 12(UTC) não localizada na base de dados da REDEMET
2020061413 - Mensagem METAR de 'SBSR' para 14/06/2020 as 13(UTC) não localizada na base de dados da REDEMET
2020061414 - Mensagem METAR de 'SBSR' para 14/06/2020 as 14(UTC) não localizada na base de dados da REDEMET
2020061415 - Mensagem METAR de 'SBSR' para 14/06/2020 as 15(UTC) não localizada na base de dados da REDEMET
2020061416 - Mensagem METAR de 'SBSR' para 14/06/2020 as 16(UTC) não localizada na base de dados da REDEMET
2020061417 - Mensagem METAR de 'SBSR' para 14/06/2020 as 17(UTC) não localizada na base de dados da REDEMET
2020061418 - Mensagem METAR de 'SBSR' para 14/06/2020 as 18(UTC) não localizada na base de dados da REDEMET
2020061419 - Mensagem METAR de 'SBSR' para 14/06/2020 as 19(UTC) não localizada na base de dados da REDEMET
2020061420 - Mensagem METAR de 'SBSR' para 14/06/2020 as 20(UTC) não localizada na base de dados da REDEMET
2020061421 - Mensagem METAR de 'SBSR' para 14/06/2020 as 21(UTC) não localizada na base de dados da REDEMET
2020061422 - Mensagem METAR de 'SBSR' para 14/06/2020 as 22(UTC) não localizada na base de dados da REDEMET
2020061423 - Mensagem METAR de 'SBSR' para 14/06/2020 as 23(UTC) não localizada na base de dados da REDEMET
2020061500 - Mensagem METAR de 'SBSR' para 15/06/2020 as 00(UTC) não localizada na base de dados da REDEMET
2020061501 - Mensagem METAR de 'SBSR' para 15/06/2020 as 01(UTC) não localizada na base de dados da REDEMET
2020061502 - Mensagem METAR de 'SBSR' para 15/06/2020 as 02(UTC) não localizada na base de dados da REDEMET
2020061503 - Mensagem METAR de 'SBSR' para 15/06/2020 as 03(UTC) não localizada na base de dados da REDEMET
2020061504 - Mensagem METAR de 'SBSR' para 15/06/2020 as 04(UTC) não localizada na base de dados da REDEMET
2020061505 - Mensagem METAR de 'SBSR' para 15/06/2020 as 05(UTC) não localizada na base de dados da REDEMET
2020061506 - Mensagem METAR de 'SBSR' para 15/06/2020 as 06(UTC) não localizada na base de dados da REDEMET
2020061507 - Mensagem METAR de 'SBSR' para 15/06/2020 as 07(UTC) não localizada na base de dados da REDEMET
2020061508 - Mensagem METAR de 'SBSR' para 15/06/2020 as 08(UTC) não localizada na base de dados da REDEMET
2020061509 - Mensagem METAR de 'SBSR' para 15/06/2020 as 09(UTC) não localizada na base de dados da REDEMET
2020061510 - Mensagem METAR de 'SBSR' para 15/06/2020 as 10(UTC) não localizada na base de dados da REDEMET
2020061511 - Mensagem METAR de 'SBSR' para 15/06/2020 as 11(UTC) não localizada na base de dados da REDEMET
2020061512 - Mensagem METAR de 'SBSR' para 15/06/2020 as 12(UTC) não localizada na base de dados da REDEMET
2020061513 - Mensagem METAR de 'SBSR' para 15/06/2020 as 13(UTC) não localizada na base de dados da REDEMET
2020061514 - Mensagem METAR de 'SBSR' para 15/06/2020 as 14(UTC) não localizada na base de dados da REDEMET
2020061515 - Mensagem METAR de 'SBSR' para 15/06/2020 as 15(UTC) não localizada na base de dados da REDEMET
2020061516 - Mensagem METAR de 'SBSR' para 15/06/2020 as 16(UTC) não localizada na base de dados da REDEMET
2020061517 - Mensagem METAR de 'SBSR' para 15/06/2020 as 17(UTC) não localizada na base de dados da REDEMET
2020061518 - Mensagem METAR de 'SBSR' para 15/06/2020 as 18(UTC) não localizada na base de dados da REDEMET
2020061519 - Mensagem METAR de 'SBSR' para 15/06/2020 as 19(UTC) não localizada na base de dados da REDEMET
2020061520 - Mensagem METAR de 'SBSR' para 15/06/2020 as 20(UTC) não localizada na base de dados da REDEMET
2020061521 - Mensagem METAR de 'SBSR' para 15/06/2020 as 21(UTC) não localizada na base de dados da REDEMET
2020061522 - Mensagem METAR de 'SBSR' para 15/06/2020 as 22(UTC) não localizada na base de dados da REDEMET
2020061523 - Mensagem METAR de 'SBSR' para 15/06/2020 as 23(UTC) não localizada na base de dados da REDEMET
2020061600 - Mensagem METAR de 'SBSR' para 16/06/2020 as 00(UTC) não localizada na base de dados da REDEMET
2020061601 - Mensagem METAR de 'SBSR' para 16/06/2020 as 01(UTC) não localizada na base de dados da REDEMET
2020061602 - Mensagem METAR de 'SBSR' para 16/06/2020 as 02(UTC) não localizada na base de dados da REDEMET
2020061603 - Mensagem METAR de 'SBSR' para 16/06/2020 as 03(UTC) não localizada na base de dados da REDEMET
2020061604 - Mensagem METAR de 'SBSR' para 16/06/2020 as 04(UTC) não localizada na base de dados da REDEMET
2020061605 - Mensagem METAR de 'SBSR' para 16/06/2020 as 05(UTC) não localizada na base de dados da REDEMET
2020061606 - Mensagem METAR de 'SBSR' para 16/06/2020 as 06(UTC) não localizada na base de dados da REDEMET
2020061607 - Mensagem METAR de 'SBSR' para 16/06/2020 as 07(UTC) não localizada na base de dados da REDEMET
2020061608 - Mensagem METAR de 'SBSR' para 16/06/2020 as 08(UTC) não localizada na base de dados da REDEMET
2020061609 - Mensagem METAR de 'SBSR' para 16/06/2020 as 09(UTC) não localizada na base de dados da REDEMET
2020061610 - Mensagem METAR de 'SBSR' para 16/06/2020 as 10(UTC) não localizada na base de dados da REDEMET
2020061611 - Mensagem METAR de 'SBSR' para 16/06/2020 as 11(UTC) não localizada na base de dados da REDEMET
2020061612 - Mensagem METAR de 'SBSR' para 16/06/2020 as 12(UTC) não localizada na base de dados da REDEMET
2020061613 - Mensagem METAR de 'SBSR' para 16/06/2020 as 13(UTC) não localizada na base de dados da REDEMET
2020061614 - Mensagem METAR de 'SBSR' para 16/06/2020 as 14(UTC) não localizada na base de dados da REDEMET
2020061615 - Mensagem METAR de 'SBSR' para 16/06/2020 as 15(UTC) não localizada na base de dados da REDEMET
2020061616 - Mensagem METAR de 'SBSR' para 16/06/2020 as 16(UTC) não localizada na base de dados da REDEMET
2020061617 - Mensagem METAR de 'SBSR' para 16/06/2020 as 17(UTC) não localizada na base de dados da REDEMET
2020061618 - Mensagem METAR de 'SBSR' para 16/06/2020 as 18(UTC) não localizada na base de dados da REDEMET
2020061619 - Mensagem METAR de 'SBSR' para 16/06/2020 as 19(UTC) não localizada na base de dados da REDEMET
2020061620 - Mensagem METAR de 'SBSR' para 16/06/2020 as 20(UTC) não localizada na base de dados da REDEMET
2020061621 - Mensagem METAR de 'SBSR' para 16/06/2020 as 21(UTC) não localizada na base de dados da REDEMET
2020061622 - Mensagem METAR de 'SBSR' para 16/06/2020 as 22(UTC) não localizada na base de dados da REDEMET
2020061623 - Mensagem METAR de 'SBSR' para 16/06/2020 as 23(UTC) não localizada na base de dados da REDEMET
2020061700 - Mensagem METAR de 'SBSR' para 17/06/2020 as 00(UTC) não localizada na base de dados da REDEMET
2020061701 - Mensagem METAR de 'SBSR' para 17/06/2020 as 01(UTC) não localizada na base de dados da REDEMET
2020061702 - Mensagem METAR de 'SBSR' para 17/06/2020 as 02(UTC) não localizada na base de dados da REDEMET
2020061703 - Mensagem METAR de 'SBSR' para 17/06/2020 as 03(UTC) não localizada na base de dados da REDEMET
2020061704 - Mensagem METAR de 'SBSR' para 17/06/2020 as 04(UTC) não localizada na base de dados da REDEMET
2020061705 - Mensagem METAR de 'SBSR' para 17/06/2020 as 05(UTC) não localizada na base de dados da REDEMET
2020061706 - Mensagem METAR de 'SBSR' para 17/06/2020 as 06(UTC) não localizada na base de dados da REDEMET
2020061707 - Mensagem METAR de 'SBSR' para 17/06/2020 as 07(UTC) não localizada na base de dados da REDEMET
2020061708 - Mensagem METAR de 'SBSR' para 17/06/2020 as 08(UTC) não localizada na base de dados da REDEMET
2020061709 - Mensagem METAR de 'SBSR' para 17/06/2020 as 09(UTC) não localizada na base de dados da REDEMET
2020061710 - Mensagem METAR de 'SBSR' para 17/06/2020 as 10(UTC) não localizada na base de dados da REDEMET
2020061711 - Mensagem METAR de 'SBSR' para 17/06/2020 as 11(UTC) não localizada na base de dados da REDEMET
2020061712 - Mensagem METAR de 'SBSR' para 17/06/2020 as 12(UTC) não localizada na base de dados da REDEMET
2020061713 - Mensagem METAR de 'SBSR' para 17/06/2020 as 13(UTC) não localizada na base de dados da REDEMET
2020061714 - Mensagem METAR de 'SBSR' para 17/06/2020 as 14(UTC) não localizada na base de dados da REDEMET
2020061715 - Mensagem METAR de 'SBSR' para 17/06/2020 as 15(UTC) não localizada na base de dados da REDEMET
2020061716 - Mensagem METAR de 'SBSR' para 17/06/2020 as 16(UTC) não localizada na base de dados da REDEMET
2020061717 - Mensagem METAR de 'SBSR' para 17/06/2020 as 17(UTC) não localizada na base de dados da REDEMET
2020061718 - Mensagem METAR de 'SBSR' para 17/06/2020 as 18(UTC) não localizada na base de dados da REDEMET
2020061719 - Mensagem METAR de 'SBSR' para 17/06/2020 as 19(UTC) não localizada na base de dados da REDEMET
2020061720 - Mensagem METAR de 'SBSR' para 17/06/2020 as 20(UTC) não localizada na base de dados da REDEMET
2020061721 - Mensagem METAR de 'SBSR' para 17/06/2020 as 21(UTC) não localizada na base de dados da REDEMET
2020061722 - Mensagem METAR de 'SBSR' para 17/06/2020 as 22(UTC) não localizada na base de dados da REDEMET
2020061723 - Mensagem METAR de 'SBSR' para 17/06/2020 as 23(UTC) não localizada na base de dados da REDEMET
2020061800 - Mensagem METAR de 'SBSR' para 18/06/2020 as 00(UTC) não localizada na base de dados da REDEMET
2020061801 - Mensagem METAR de 'SBSR' para 18/06/2020 as 01(UTC) não localizada na base de dados da REDEMET
2020061802 - Mensagem METAR de 'SBSR' para 18/06/2020 as 02(UTC) não localizada na base de dados da REDEMET
2020061803 - Mensagem METAR de 'SBSR' para 18/06/2020 as 03(UTC) não localizada na base de dados da REDEMET
2020061804 - Mensagem METAR de 'SBSR' para 18/06/2020 as 04(UTC) não localizada na base de dados da REDEMET
2020061805 - Mensagem METAR de 'SBSR' para 18/06/2020 as 05(UTC) não localizada na base de dados da REDEMET
2020061806 - Mensagem METAR de 'SBSR' para 18/06/2020 as 06(UTC) não localizada na base de dados da REDEMET
2020061807 - Mensagem METAR de 'SBSR' para 18/06/2020 as 07(UTC) não localizada na base de dados da REDEMET
2020061808 - Mensagem METAR de 'SBSR' para 18/06/2020 as 08(UTC) não localizada na base de dados da REDEMET
2020061809 - Mensagem METAR de 'SBSR' para 18/06/2020 as 09(UTC) não localizada na base de dados da REDEMET
2020061810 - Mensagem METAR de 'SBSR' para 18/06/2020 as 10(UTC) não localizada na base de dados da REDEMET
2020061811 - Mensagem METAR de 'SBSR' para 18/06/2020 as 11(UTC) não localizada na base de dados da REDEMET
2020061812 - Mensagem METAR de 'SBSR' para 18/06/2020 as 12(UTC) não localizada na base de dados da REDEMET
2020061813 - Mensagem METAR de 'SBSR' para 18/06/2020 as 13(UTC) não localizada na base de dados da REDEMET
2020061814 - Mensagem METAR de 'SBSR' para 18/06/2020 as 14(UTC) não localizada na base de dados da REDEMET
2020061815 - Mensagem METAR de 'SBSR' para 18/06/2020 as 15(UTC) não localizada na base de dados da REDEMET
2020061816 - Mensagem METAR de 'SBSR' para 18/06/2020 as 16(UTC) não localizada na base de dados da REDEMET
2020061817 - Mensagem METAR de 'SBSR' para 18/06/2020 as 17(UTC) não localizada na base de dados da REDEMET
2020061818 - Mensagem METAR de 'SBSR' para 18/06/2020 as 18(UTC) não localizada na base de dados da REDEMET
2020061819 - Mensagem METAR de 'SBSR' para 18/06/2020 as 19(UTC) não localizada na base de dados da REDEMET
2020061820 - Mensagem METAR de 'SBSR' para 18/06/2020 as 20(UTC) não localizada na base de dados da REDEMET
2020061821 - Mensagem METAR de 'SBSR' para 18/06/2020 as 21(UTC) não localizada na base de dados da REDEMET
2020061822 - Mensagem METAR de 'SBSR' para 18/06/2020 as 22(UTC) não localizada na base de dados da REDEMET
2020061823 - Mensagem METAR de 'SBSR' para 18/06/2020 as 23(UTC) não localizada na base de dados da REDEMET
2020061900 - Mensagem METAR de 'SBSR' para 19/06/2020 as 00(UTC) não localizada na base de dados da REDEMET
2020061901 - Mensagem METAR de 'SBSR' para 19/06/2020 as 01(UTC) não localizada na base de dados da REDEMET
2020061902 - Mensagem METAR de 'SBSR' para 19/06/2020 as 02(UTC) não localizada na base de dados da REDEMET
2020061903 - Mensagem METAR de 'SBSR' para 19/06/2020 as 03(UTC) não localizada na base de dados da REDEMET
2020061904 - Mensagem METAR de 'SBSR' para 19/06/2020 as 04(UTC) não localizada na base de dados da REDEMET
2020061905 - Mensagem METAR de 'SBSR' para 19/06/2020 as 05(UTC) não localizada na base de dados da REDEMET
2020061906 - Mensagem METAR de 'SBSR' para 19/06/2020 as 06(UTC) não localizada na base de dados da REDEMET
2020061907 - Mensagem METAR de 'SBSR' para 19/06/2020 as 07(UTC) não localizada na base de dados da REDEMET
2020061908 - Mensagem METAR de 'SBSR' para 19/06/2020 as 08(UTC) não localizada na base de dados da REDEMET
2020061909 - Mensagem METAR de 'SBSR' para 19/06/2020 as 09(UTC) não localizada na base de dados da REDEMET
2020061910 - Mensagem METAR de 'SBSR' para 19/06/2020 as 10(UTC) não localizada na base de dados da REDEMET
2020061911 - Mensagem METAR de 'SBSR' para 19/06/2020 as 11(UTC) não localizada na base de dados da REDEMET
2020061912 - Mensagem METAR de 'SBSR' para 19/06/2020 as 12(UTC) não localizada na base de dados da REDEMET
2020061913 - Mensagem METAR de 'SBSR' para 19/06/2020 as 13(UTC) não localizada na base de dados da REDEMET
2020061914 - Mensagem METAR de 'SBSR' para 19/06/2020 as 14(UTC) não localizada na base de dados da REDEMET
2020061915 - Mensagem METAR de 'SBSR' para 19/06/2020 as 15(UTC) não localizada na base de dados da REDEMET
2020061916 - Mensagem METAR de 'SBSR' para 19/06/2020 as 16(UTC) não localizada na base de dados da REDEMET
2020061917 - Mensagem METAR de 'SBSR' para 19/06/2020 as 17(UTC) não localizada na base de dados da REDEMET
2020061918 - Mensagem METAR de 'SBSR' para 19/06/2020 as 18(UTC) não localizada na base de dados da REDEMET
2020061919 - Mensagem METAR de 'SBSR' para 19/06/2020 as 19(UTC) não localizada na base de dados da REDEMET
2020061920 - Mensagem METAR de 'SBSR' para 19/06/2020 as 20(UTC) não localizada na base de dados da REDEMET
2020061921 - Mensagem METAR de 'SBSR' para 19/06/2020 as 21(UTC) não localizada na base de dados da REDEMET
2020061922 - Mensagem METAR de 'SBSR' para 19/06/2020 as 22(UTC) não localizada na base de dados da REDEMET
2020061923 - Mensagem METAR de 'SBSR' para 19/06/2020 as 23(UTC) não localizada na base de dados da REDEMET
2020062000 - Mensagem METAR de 'SBSR' para 20/06/2020 as 00(UTC) não localizada na base de dados da REDEMET
2020062001 - Mensagem METAR de 'SBSR' para 20/06/2020 as 01(UTC) não localizada na base de dados da REDEMET
2020062002 - Mensagem METAR de 'SBSR' para 20/06/2020 as 02(UTC) não localizada na base de dados da REDEMET
2020062003 - Mensagem METAR de 'SBSR' para 20/06/2020 as 03(UTC) não localizada na base de dados da REDEMET
2020062004 - Mensagem METAR de 'SBSR' para 20/06/2020 as 04(UTC) não localizada na base de dados da REDEMET
2020062005 - Mensagem METAR de 'SBSR' para 20/06/2020 as 05(UTC) não localizada na base de dados da REDEMET
2020062006 - Mensagem METAR de 'SBSR' para 20/06/2020 as 06(UTC) não localizada na base de dados da REDEMET
2020062007 - Mensagem METAR de 'SBSR' para 20/06/2020 as 07(UTC) não localizada na base de dados da REDEMET
2020062008 - Mensagem METAR de 'SBSR' para 20/06/2020 as 08(UTC) não localizada na base de dados da REDEMET
2020062009 - Mensagem METAR de 'SBSR' para 20/06/2020 as 09(UTC) não localizada na base de dados da REDEMET
2020062010 - Mensagem METAR de 'SBSR' para 20/06/2020 as 10(UTC) não localizada na base de dados da REDEMET
2020062011 - Mensagem METAR de 'SBSR' para 20/06/2020 as 11(UTC) não localizada na base de dados da REDEMET
2020062012 - Mensagem METAR de 'SBSR' para 20/06/2020 as 12(UTC) não localizada na base de dados da REDEMET
2020062013 - Mensagem METAR de 'SBSR' para 20/06/2020 as 13(UTC) não localizada na base de dados da REDEMET
2020062014 - Mensagem METAR de 'SBSR' para 20/06/2020 as 14(UTC) não localizada na base de dados da REDEMET
2020062015 - Mensagem METAR de 'SBSR' para 20/06/2020 as 15(UTC) não localizada na base de dados da REDEMET
2020062016 - Mensagem METAR de 'SBSR' para 20/06/2020 as 16(UTC) não localizada na base de dados da REDEMET
2020062017 - Mensagem METAR de 'SBSR' para 20/06/2020 as 17(UTC) não localizada na base de dados da REDEMET
2020062018 - Mensagem METAR de 'SBSR' para 20/06/2020 as 18(UTC) não localizada na base de dados da REDEMET
2020062019 - Mensagem METAR de 'SBSR' para 20/06/2020 as 19(UTC) não localizada na base de dados da REDEMET
2020062020 - Mensagem METAR de 'SBSR' para 20/06/2020 as 20(UTC) não localizada na base de dados da REDEMET
2020062021 - Mensagem METAR de 'SBSR' para 20/06/2020 as 21(UTC) não localizada na base de dados da REDEMET
2020062022 - Mensagem METAR de 'SBSR' para 20/06/2020 as 22(UTC) não localizada na base de dados da REDEMET
2020062023 - Mensagem METAR de 'SBSR' para 20/06/2020 as 23(UTC) não localizada na base de dados da REDEMET
2020062100 - Mensagem METAR de 'SBSR' para 21/06/2020 as 00(UTC) não localizada na base de dados da REDEMET
2020062101 - Mensagem METAR de 'SBSR' para 21/06/2020 as 01(UTC) não localizada na base de dados da REDEMET
2020062102 - Mensagem METAR de 'SBSR' para 21/06/2020 as 02(UTC) não localizada na base de dados da REDEMET
2020062103 - Mensagem METAR de 'SBSR' para 21/06/2020 as 03(UTC) não localizada na base de dados da REDEMET
2020062104 - Mensagem METAR de 'SBSR' para 21/06/2020 as 04(UTC) não localizada na base de dados da REDEMET
2020062105 - Mensagem METAR de 'SBSR' para 21/06/2020 as 05(UTC) não localizada na base de dados da REDEMET
2020062106 - Mensagem METAR de 'SBSR' para 21/06/2020 as 06(UTC) não localizada na base de dados da REDEMET
2020062107 - Mensagem METAR de 'SBSR' para 21/06/2020 as 07(UTC) não localizada na base de dados da REDEMET
2020062108 - Mensagem METAR de 'SBSR' para 21/06/2020 as 08(UTC) não localizada na base de dados da REDEMET
2020062109 - Mensagem METAR de 'SBSR' para 21/06/2020 as 09(UTC) não localizada na base de dados da REDEMET
2020062110 - Mensagem METAR de 'SBSR' para 21/06/2020 as 10(UTC) não localizada na base de dados da REDEMET
2020062111 - Mensagem METAR de 'SBSR' para 21/06/2020 as 11(UTC) não localizada na base de dados da REDEMET
2020062112 - Mensagem METAR de 'SBSR' para 21/06/2020 as 12(UTC) não localizada na base de dados da REDEMET
2020062113 - Mensagem METAR de 'SBSR' para 21/06/2020 as 13(UTC) não localizada na base de dados da REDEMET
2020062114 - Mensagem METAR de 'SBSR' para 21/06/2020 as 14(UTC) não localizada na base de dados da REDEMET
2020062115 - Mensagem METAR de 'SBSR' para 21/06/2020 as 15(UTC) não localizada na base de dados da REDEMET
2020062116 - Mensagem METAR de 'SBSR' para 21/06/2020 as 16(UTC) não localizada na base de dados da REDEMET
2020062117 - Mensagem METAR de 'SBSR' para 21/06/2020 as 17(UTC) não localizada na base de dados da REDEMET
2020062118 - Mensagem METAR de 'SBSR' para 21/06/2020 as 18(UTC) não localizada na base de dados da REDEMET
2020062119 - Mensagem METAR de 'SBSR' para 21/06/2020 as 19(UTC) não localizada na base de dados da REDEMET
2020062120 - Mensagem METAR de 'SBSR' para 21/06/2020 as 20(UTC) não localizada na base de dados da REDEMET
2020062121 - Mensagem METAR de 'SBSR' para 21/06/2020 as 21(UTC) não localizada na base de dados da REDEMET
2020062122 - Mensagem METAR de 'SBSR' para 21/06/2020 as 22(UTC) não localizada na base de dados da REDEMET
2020062123 - Mensagem METAR de 'SBSR' para 21/06/2020 as 23(UTC) não localizada na base de dados da REDEMET
2020062200 - Mensagem METAR de 'SBSR' para 22/06/2020 as 00(UTC) não localizada na base de dados da REDEMET
2020062201 - Mensagem METAR de 'SBSR' para 22/06/2020 as 01(UTC) não localizada na base de dados da REDEMET
2020062202 - Mensagem METAR de 'SBSR' para 22/06/2020 as 02(UTC) não localizada na base de dados da REDEMET
2020062203 - Mensagem METAR de 'SBSR' para 22/06/2020 as 03(UTC) não localizada na base de dados da REDEMET
2020062204 - Mensagem METAR de 'SBSR' para 22/06/2020 as 04(UTC) não localizada na base de dados da REDEMET
2020062205 - Mensagem METAR de 'SBSR' para 22/06/2020 as 05(UTC) não localizada na base de dados da REDEMET
2020062206 - Mensagem METAR de 'SBSR' para 22/06/2020 as 06(UTC) não localizada na base de dados da REDEMET
2020062207 - Mensagem METAR de 'SBSR' para 22/06/2020 as 07(UTC) não localizada na base de dados da REDEMET
2020062208 - Mensagem METAR de 'SBSR' para 22/06/2020 as 08(UTC) não localizada na base de dados da REDEMET
2020062209 - Mensagem METAR de 'SBSR' para 22/06/2020 as 09(UTC) não localizada na base de dados da REDEMET
2020062210 - Mensagem METAR de 'SBSR' para 22/06/2020 as 10(UTC) não localizada na base de dados da REDEMET
2020062211 - Mensagem METAR de 'SBSR' para 22/06/2020 as 11(UTC) não localizada na base de dados da REDEMET
2020062212 - Mensagem METAR de 'SBSR' para 22/06/2020 as 12(UTC) não localizada na base de dados da REDEMET
2020062213 - Mensagem METAR de 'SBSR' para 22/06/2020 as 13(UTC) não localizada na base de dados da REDEMET
2020062214 - Mensagem METAR de 'SBSR' para 22/06/2020 as 14(UTC) não localizada na base de dados da REDEMET
2020062215 - Mensagem METAR de 'SBSR' para 22/06/2020 as 15(UTC) não localizada na base de dados da REDEMET
2020062216 - Mensagem METAR de 'SBSR' para 22/06/2020 as 16(UTC) não localizada na base de dados da REDEMET
2020062217 - Mensagem METAR de 'SBSR' para 22/06/2020 as 17(UTC) não localizada na base de dados da REDEMET
2020062218 - Mensagem METAR de 'SBSR' para 22/06/2020 as 18(UTC) não localizada na base de dados da REDEMET
2020062219 - Mensagem METAR de 'SBSR' para 22/06/2020 as 19(UTC) não localizada na base de dados da REDEMET
2020062220 - Mensagem METAR de 'SBSR' para 22/06/2020 as 20(UTC) não localizada na base de dados da REDEMET
2020062221 - Mensagem METAR de 'SBSR' para 22/06/2020 as 21(UTC) não localizada na base de dados da REDEMET
2020062222 - Mensagem METAR de 'SBSR' para 22/06/2020 as 22(UTC) não localizada na base de dados da REDEMET
2020062223 - Mensagem METAR de 'SBSR' para 22/06/2020 as 23(UTC) não localizada na base de dados da REDEMET
2020062300 - Mensagem METAR de 'SBSR' para 23/06/2020 as 00(UTC) não localizada na base de dados da REDEMET
2020062301 - Mensagem METAR de 'SBSR' para 23/06/2020 as 01(UTC) não localizada na base de dados da REDEMET
2020062302 - Mensagem METAR de 'SBSR' para 23/06/2020 as 02(UTC) não localizada na base de dados da REDEMET
2020062303 - Mensagem METAR de 'SBSR' para 23/06/2020 as 03(UTC) não localizada na base de dados da REDEMET
2020062304 - Mensagem METAR de 'SBSR' para 23/06/2020 as 04(UTC) não localizada na base de dados da REDEMET
2020062305 - Mensagem METAR de 'SBSR' para 23/06/2020 as 05(UTC) não localizada na base de dados da REDEMET
2020062306 - Mensagem METAR de 'SBSR' para 23/06/2020 as 06(UTC) não localizada na base de dados da REDEMET
2020062307 - Mensagem METAR de 'SBSR' para 23/06/2020 as 07(UTC) não localizada na base de dados da REDEMET
2020062308 - Mensagem METAR de 'SBSR' para 23/06/2020 as 08(UTC) não localizada na base de dados da REDEMET
2020062309 - Mensagem METAR de 'SBSR' para 23/06/2020 as 09(UTC) não localizada na base de dados da REDEMET
2020062310 - Mensagem METAR de 'SBSR' para 23/06/2020 as 10(UTC) não localizada na base de dados da REDEMET
2020062311 - Mensagem METAR de 'SBSR' para 23/06/2020 as 11(UTC) não localizada na base de dados da REDEMET
2020062312 - Mensagem METAR de 'SBSR' para 23/06/2020 as 12(UTC) não localizada na base de dados da REDEMET
2020062313 - Mensagem METAR de 'SBSR' para 23/06/2020 as 13(UTC) não localizada na base de dados da REDEMET
2020062314 - Mensagem METAR de 'SBSR' para 23/06/2020 as 14(UTC) não localizada na base de dados da REDEMET
2020062315 - Mensagem METAR de 'SBSR' para 23/06/2020 as 15(UTC) não localizada na base de dados da REDEMET
2020062316 - Mensagem METAR de 'SBSR' para 23/06/2020 as 16(UTC) não localizada na base de dados da REDEMET
2020062317 - Mensagem METAR de 'SBSR' para 23/06/2020 as 17(UTC) não localizada na base de dados da REDEMET
2020062318 - Mensagem METAR de 'SBSR' para 23/06/2020 as 18(UTC) não localizada na base de dados da REDEMET
2020062319 - Mensagem METAR de 'SBSR' para 23/06/2020 as 19(UTC) não localizada na base de dados da REDEMET
2020062320 - Mensagem METAR de 'SBSR' para 23/06/2020 as 20(UTC) não localizada na base de dados da REDEMET
2020062321 - Mensagem METAR de 'SBSR' para 23/06/2020 as 21(UTC) não localizada na base de dados da REDEMET
2020062322 - Mensagem METAR de 'SBSR' para 23/06/2020 as 22(UTC) não localizada na base de dados da REDEMET
2020062323 - Mensagem METAR de 'SBSR' para 23/06/2020 as 23(UTC) não localizada na base de dados da REDEMET
2020062400 - Mensagem METAR de 'SBSR' para 24/06/2020 as 00(UTC) não localizada na base de dados da REDEMET
2020062401 - Mensagem METAR de 'SBSR' para 24/06/2020 as 01(UTC) não localizada na base de dados da REDEMET
2020062402 - Mensagem METAR de 'SBSR' para 24/06/2020 as 02(UTC) não localizada na base de dados da REDEMET
2020062403 - Mensagem METAR de 'SBSR' para 24/06/2020 as 03(UTC) não localizada na base de dados da REDEMET
2020062404 - Mensagem METAR de 'SBSR' para 24/06/2020 as 04(UTC) não localizada na base de dados da REDEMET
2020062405 - Mensagem METAR de 'SBSR' para 24/06/2020 as 05(UTC) não localizada na base de dados da REDEMET
2020062406 - Mensagem METAR de 'SBSR' para 24/06/2020 as 06(UTC) não localizada na base de dados da REDEMET
2020062407 - Mensagem METAR de 'SBSR' para 24/06/2020 as 07(UTC) não localizada na base de dados da REDEMET
2020062408 - Mensagem METAR de 'SBSR' para 24/06/2020 as 08(UTC) não localizada na base de dados da REDEMET
2020062409 - Mensagem METAR de 'SBSR' para 24/06/2020 as 09(UTC) não localizada na base de dados da REDEMET
2020062410 - Mensagem METAR de 'SBSR' para 24/06/2020 as 10(UTC) não localizada na base de dados da REDEMET
2020062411 - Mensagem METAR de 'SBSR' para 24/06/2020 as 11(UTC) não localizada na base de dados da REDEMET
2020062412 - Mensagem METAR de 'SBSR' para 24/06/2020 as 12(UTC) não localizada na base de dados da REDEMET
2020062413 - Mensagem METAR de 'SBSR' para 24/06/2020 as 13(UTC) não localizada na base de dados da REDEMET
2020062414 - Mensagem METAR de 'SBSR' para 24/06/2020 as 14(UTC) não localizada na base de dados da REDEMET
2020062415 - Mensagem METAR de 'SBSR' para 24/06/2020 as 15(UTC) não localizada na base de dados da REDEMET
2020062416 - Mensagem METAR de 'SBSR' para 24/06/2020 as 16(UTC) não localizada na base de dados da REDEMET
2020062417 - Mensagem METAR de 'SBSR' para 24/06/2020 as 17(UTC) não localizada na base de dados da REDEMET
2020062418 - Mensagem METAR de 'SBSR' para 24/06/2020 as 18(UTC) não localizada na base de dados da REDEMET
2020062419 - Mensagem METAR de 'SBSR' para 24/06/2020 as 19(UTC) não localizada na base de dados da REDEMET
2020062420 - Mensagem METAR de 'SBSR' para 24/06/2020 as 20(UTC) não localizada na base de dados da REDEMET
2020062421 - Mensagem METAR de 'SBSR' para 24/06/2020 as 21(UTC) não localizada na base de dados da REDEMET
2020062422 - Mensagem METAR de 'SBSR' para 24/06/2020 as 22(UTC) não localizada na base de dados da REDEMET
2020062423 - Mensagem METAR de 'SBSR' para 24/06/2020 as 23(UTC) não localizada na base de dados da REDEMET
2020062500 - Mensagem METAR de 'SBSR' para 25/06/2020 as 00(UTC) não localizada na base de dados da REDEMET
2020062501 - Mensagem METAR de 'SBSR' para 25/06/2020 as 01(UTC) não localizada na base de dados da REDEMET
2020062502 - Mensagem METAR de 'SBSR' para 25/06/2020 as 02(UTC) não localizada na base de dados da REDEMET
2020062503 - Mensagem METAR de 'SBSR' para 25/06/2020 as 03(UTC) não localizada na base de dados da REDEMET
2020062504 - Mensagem METAR de 'SBSR' para 25/06/2020 as 04(UTC) não localizada na base de dados da REDEMET
2020062505 - Mensagem METAR de 'SBSR' para 25/06/2020 as 05(UTC) não localizada na base de dados da REDEMET
2020062506 - Mensagem METAR de 'SBSR' para 25/06/2020 as 06(UTC) não localizada na base de dados da REDEMET
2020062507 - Mensagem METAR de 'SBSR' para 25/06/2020 as 07(UTC) não localizada na base de dados da REDEMET
2020062508 - Mensagem METAR de 'SBSR' para 25/06/2020 as 08(UTC) não localizada na base de dados da REDEMET
2020062509 - Mensagem METAR de 'SBSR' para 25/06/2020 as 09(UTC) não localizada na base de dados da REDEMET
2020062510 - Mensagem METAR de 'SBSR' para 25/06/2020 as 10(UTC) não localizada na base de dados da REDEMET
2020062511 - Mensagem METAR de 'SBSR' para 25/06/2020 as 11(UTC) não localizada na base de dados da REDEMET
2020062512 - Mensagem METAR de 'SBSR' para 25/06/2020 as 12(UTC) não localizada na base de dados da REDEMET
2020062513 - Mensagem METAR de 'SBSR' para 25/06/2020 as 13(UTC) não localizada na base de dados da REDEMET
2020062514 - Mensagem METAR de 'SBSR' para 25/06/2020 as 14(UTC) não localizada na base de dados da REDEMET
2020062515 - Mensagem METAR de 'SBSR' para 25/06/2020 as 15(UTC) não localizada na base de dados da REDEMET
2020062516 - Mensagem METAR de 'SBSR' para 25/06/2020 as 16(UTC) não localizada na base de dados da REDEMET
2020062517 - Mensagem METAR de 'SBSR' para 25/06/2020 as 17(UTC) não localizada na base de dados da REDEMET
2020062518 - Mensagem METAR de 'SBSR' para 25/06/2020 as 18(UTC) não localizada na base de dados da REDEMET
2020062519 - Mensagem METAR de 'SBSR' para 25/06/2020 as 19(UTC) não localizada na base de dados da REDEMET
2020062520 - Mensagem METAR de 'SBSR' para 25/06/2020 as 20(UTC) não localizada na base de dados da REDEMET
2020062521 - Mensagem METAR de 'SBSR' para 25/06/2020 as 21(UTC) não localizada na base de dados da REDEMET
2020062522 - Mensagem METAR de 'SBSR' para 25/06/2020 as 22(UTC) não localizada na base de dados da REDEMET
2020062523 - Mensagem METAR de 'SBSR' para 25/06/2020 as 23(UTC) não localizada na base de dados da REDEMET
2020062600 - Mensagem METAR de 'SBSR' para 26/06/2020 as 00(UTC) não localizada na base de dados da REDEMET
2020062601 - Mensagem METAR de 'SBSR' para 26/06/2020 as 01(UTC) não localizada na base de dados da REDEMET
2020062602 - Mensagem METAR de 'SBSR' para 26/06/2020 as 02(UTC) não localizada na base de dados da REDEMET
2020062603 - Mensagem METAR de 'SBSR' para 26/06/2020 as 03(UTC) não localizada na base de dados da REDEMET
2020062604 - Mensagem METAR de 'SBSR' para 26/06/2020 as 04(UTC) não localizada na base de dados da REDEMET
2020062605 - Mensagem METAR de 'SBSR' para 26/06/2020 as 05(UTC) não localizada na base de dados da REDEMET
2020062606 - Mensagem METAR de 'SBSR' para 26/06/2020 as 06(UTC) não localizada na base de dados da REDEMET
2020062607 - Mensagem METAR de 'SBSR' para 26/06/2020 as 07(UTC) não localizada na base de dados da REDEMET
2020062608 - Mensagem METAR de 'SBSR' para 26/06/2020 as 08(UTC) não localizada na base de dados da REDEMET
2020062609 - Mensagem METAR de 'SBSR' para 26/06/2020 as 09(UTC) não localizada na base de dados da REDEMET
2020062610 - Mensagem METAR de 'SBSR' para 26/06/2020 as 10(UTC) não localizada na base de dados da REDEMET
2020062611 - Mensagem METAR de 'SBSR' para 26/06/2020 as 11(UTC) não localizada na base de dados da REDEMET
2020062612 - Mensagem METAR de 'SBSR' para 26/06/2020 as 12(UTC) não localizada na base de dados da REDEMET
2020062613 - Mensagem METAR de 'SBSR' para 26/06/2020 as 13(UTC) não localizada na base de dados da REDEMET
2020062614 - Mensagem METAR de 'SBSR' para 26/06/2020 as 14(UTC) não localizada na base de dados da REDEMET
2020062615 - Mensagem METAR de 'SBSR' para 26/06/2020 as 15(UTC) não localizada na base de dados da REDEMET
2020062616 - Mensagem METAR de 'SBSR' para 26/06/2020 as 16(UTC) não localizada na base de dados da REDEMET
2020062617 - Mensagem METAR de 'SBSR' para 26/06/2020 as 17(UTC) não localizada na base de dados da REDEMET
2020062618 - Mensagem METAR de 'SBSR' para 26/06/2020 as 18(UTC) não localizada na base de dados da REDEMET
2020062619 - Mensagem METAR de 'SBSR' para 26/06/2020 as 19(UTC) não localizada na base de dados da REDEMET
2020062620 - Mensagem METAR de 'SBSR' para 26/06/2020 as 20(UTC) não localizada na base de dados da REDEMET
2020062621 - Mensagem METAR de 'SBSR' para 26/06/2020 as 21(UTC) não localizada na base de dados da REDEMET
2020062622 - Mensagem METAR de 'SBSR' para 26/06/2020 as 22(UTC) não localizada na base de dados da REDEMET
2020062623 - Mensagem METAR de 'SBSR' para 26/06/2020 as 23(UTC) não localizada na base de dados da REDEMET
2020062700 - Mensagem METAR de 'SBSR' para 27/06/2020 as 00(UTC) não localizada na base de dados da REDEMET
2020062701 - Mensagem METAR de 'SBSR' para 27/06/2020 as 01(UTC) não localizada na base de dados da REDEMET
2020062702 - Mensagem METAR de 'SBSR' para 27/06/2020 as 02(UTC) não localizada na base de dados da REDEMET
2020062703 - Mensagem METAR de 'SBSR' para 27/06/2020 as 03(UTC) não localizada na base de dados da REDEMET
2020062704 - Mensagem METAR de 'SBSR' para 27/06/2020 as 04(UTC) não localizada na base de dados da REDEMET
2020062705 - Mensagem METAR de 'SBSR' para 27/06/2020 as 05(UTC) não localizada na base de dados da REDEMET
2020062706 - Mensagem METAR de 'SBSR' para 27/06/2020 as 06(UTC) não localizada na base de dados da REDEMET
2020062707 - Mensagem METAR de 'SBSR' para 27/06/2020 as 07(UTC) não localizada na base de dados da REDEMET
2020062708 - Mensagem METAR de 'SBSR' para 27/06/2020 as 08(UTC) não localizada na base de dados da REDEMET
2020062709 - Mensagem METAR de 'SBSR' para 27/06/2020 as 09(UTC) não localizada na base de dados da REDEMET
2020062710 - Mensagem METAR de 'SBSR' para 27/06/2020 as 10(UTC) não localizada na base de dados da REDEMET
2020062711 - Mensagem METAR de 'SBSR' para 27/06/2020 as 11(UTC) não localizada na base de dados da REDEMET
2020062712 - Mensagem METAR de 'SBSR' para 27/06/2020 as 12(UTC) não localizada na base de dados da REDEMET
2020062713 - Mensagem METAR de 'SBSR' para 27/06/2020 as 13(UTC) não localizada na base de dados da REDEMET
2020062714 - Mensagem METAR de 'SBSR' para 27/06/2020 as 14(UTC) não localizada na base de dados da REDEMET
2020062715 - Mensagem METAR de 'SBSR' para 27/06/2020 as 15(UTC) não localizada na base de dados da REDEMET
2020062716 - Mensagem METAR de 'SBSR' para 27/06/2020 as 16(UTC) não localizada na base de dados da REDEMET
2020062717 - Mensagem METAR de 'SBSR' para 27/06/2020 as 17(UTC) não localizada na base de dados da REDEMET
2020062718 - Mensagem METAR de 'SBSR' para 27/06/2020 as 18(UTC) não localizada na base de dados da REDEMET
2020062719 - Mensagem METAR de 'SBSR' para 27/06/2020 as 19(UTC) não localizada na base de dados da REDEMET
2020062720 - Mensagem METAR de 'SBSR' para 27/06/2020 as 20(UTC) não localizada na base de dados da REDEMET
2020062721 - Mensagem METAR de 'SBSR' para 27/06/2020 as 21(UTC) não localizada na base de dados da REDEMET
2020062722 - Mensagem METAR de 'SBSR' para 27/06/2020 as 22(UTC) não localizada na base de dados da REDEMET
2020062723 - Mensagem METAR de 'SBSR' para 27/06/2020 as 23(UTC) não localizada na base de dados da REDEMET
2020062800 - Mensagem METAR de 'SBSR' para 28/06/2020 as 00(UTC) não localizada na base de dados da REDEMET
2020062801 - Mensagem METAR de 'SBSR' para 28/06/2020 as 01(UTC) não localizada na base de dados da REDEMET
2020062802 - Mensagem METAR de 'SBSR' para 28/06/2020 as 02(UTC) não localizada na base de dados da REDEMET
2020062803 - Mensagem METAR de 'SBSR' para 28/06/2020 as 03(UTC) não localizada na base de dados da REDEMET
2020062804 - Mensagem METAR de 'SBSR' para 28/06/2020 as 04(UTC) não localizada na base de dados da REDEMET
2020062805 - Mensagem METAR de 'SBSR' para 28/06/2020 as 05(UTC) não localizada na base de dados da REDEMET
2020062806 - Mensagem METAR de 'SBSR' para 28/06/2020 as 06(UTC) não localizada na base de dados da REDEMET
2020062807 - Mensagem METAR de 'SBSR' para 28/06/2020 as 07(UTC) não localizada na base de dados da REDEMET
2020062808 - Mensagem METAR de 'SBSR' para 28/06/2020 as 08(UTC) não localizada na base de dados da REDEMET
2020062809 - Mensagem METAR de 'SBSR' para 28/06/2020 as 09(UTC) não localizada na base de dados da REDEMET
2020062810 - Mensagem METAR de 'SBSR' para 28/06/2020 as 10(UTC) não localizada na base de dados da REDEMET
2020062811 - Mensagem METAR de 'SBSR' para 28/06/2020 as 11(UTC) não localizada na base de dados da REDEMET
2020062812 - Mensagem METAR de 'SBSR' para 28/06/2020 as 12(UTC) não localizada na base de dados da REDEMET
2020062813 - Mensagem METAR de 'SBSR' para 28/06/2020 as 13(UTC) não localizada na base de dados da REDEMET
2020062814 - Mensagem METAR de 'SBSR' para 28/06/2020 as 14(UTC) não localizada na base de dados da REDEMET
2020062815 - Mensagem METAR de 'SBSR' para 28/06/2020 as 15(UTC) não localizada na base de dados da REDEMET
2020062816 - Mensagem METAR de 'SBSR' para 28/06/2020 as 16(UTC) não localizada na base de dados da REDEMET
2020062817 - Mensagem METAR de 'SBSR' para 28/06/2020 as 17(UTC) não localizada na base de dados da REDEMET
2020062818 - Mensagem METAR de 'SBSR' para 28/06/2020 as 18(UTC) não localizada na base de dados da REDEMET
2020062819 - Mensagem METAR de 'SBSR' para 28/06/2020 as 19(UTC) não localizada na base de dados da REDEMET
2020062820 - Mensagem METAR de 'SBSR' para 28/06/2020 as 20(UTC) não localizada na base de dados da REDEMET
2020062821 - Mensagem METAR de 'SBSR' para 28/06/2020 as 21(UTC) não localizada na base de dados da REDEMET
2020062822 - Mensagem METAR de 'SBSR' para 28/06/2020 as 22(UTC) não localizada na base de dados da REDEMET
2020062823 - Mensagem METAR de 'SBSR' para 28/06/2020 as 23(UTC) não localizada na base de dados da REDEMET
2020062900 - Mensagem METAR de 'SBSR' para 29/06/2020 as 00(UTC) não localizada na base de dados da REDEMET
2020062901 - Mensagem METAR de 'SBSR' para 29/06/2020 as 01(UTC) não localizada na base de dados da REDEMET
2020062902 - Mensagem METAR de 'SBSR' para 29/06/2020 as 02(UTC) não localizada na base de dados da REDEMET
2020062903 - Mensagem METAR de 'SBSR' para 29/06/2020 as 03(UTC) não localizada na base de dados da REDEMET
2020062904 - Mensagem METAR de 'SBSR' para 29/06/2020 as 04(UTC) não localizada na base de dados da REDEMET
2020062905 - Mensagem METAR de 'SBSR' para 29/06/2020 as 05(UTC) não localizada na base de dados da REDEMET
2020062906 - Mensagem METAR de 'SBSR' para 29/06/2020 as 06(UTC) não localizada na base de dados da REDEMET
2020062907 - Mensagem METAR de 'SBSR' para 29/06/2020 as 07(UTC) não localizada na base de dados da REDEMET
2020062908 - Mensagem METAR de 'SBSR' para 29/06/2020 as 08(UTC) não localizada na base de dados da REDEMET
2020062909 - Mensagem METAR de 'SBSR' para 29/06/2020 as 09(UTC) não localizada na base de dados da REDEMET
2020062910 - Mensagem METAR de 'SBSR' para 29/06/2020 as 10(UTC) não localizada na base de dados da REDEMET
2020062911 - Mensagem METAR de 'SBSR' para 29/06/2020 as 11(UTC) não localizada na base de dados da REDEMET
2020062912 - Mensagem METAR de 'SBSR' para 29/06/2020 as 12(UTC) não localizada na base de dados da REDEMET
2020062913 - Mensagem METAR de 'SBSR' para 29/06/2020 as 13(UTC) não localizada na base de dados da REDEMET
2020062914 - Mensagem METAR de 'SBSR' para 29/06/2020 as 14(UTC) não localizada na base de dados da REDEMET
2020062915 - Mensagem METAR de 'SBSR' para 29/06/2020 as 15(UTC) não localizada na base de dados da REDEMET
2020062916 - Mensagem METAR de 'SBSR' para 29/06/2020 as 16(UTC) não localizada na base de dados da REDEMET
2020062917 - Mensagem METAR de 'SBSR' para 29/06/2020 as 17(UTC) não localizada na base de dados da REDEMET
2020062918 - Mensagem METAR de 'SBSR' para 29/06/2020 as 18(UTC) não localizada na base de dados da REDEMET
2020062919 - Mensagem METAR de 'SBSR' para 29/06/2020 as 19(UTC) não localizada na base de dados da REDEMET
2020062920 - Mensagem METAR de 'SBSR' para 29/06/2020 as 20(UTC) não localizada na base de dados da REDEMET
2020062921 - Mensagem METAR de 'SBSR' para 29/06/2020 as 21(UTC) não localizada na base de dados da REDEMET
2020062922 - Mensagem METAR de 'SBSR' para 29/06/2020 as 22(UTC) não localizada na base de dados da REDEMET
2020062923 - Mensagem METAR de 'SBSR' para 29/06/2020 as 23(UTC) não localizada na base de dados da REDEMET
2020063000 - Mensagem METAR de 'SBSR' para 30/06/2020 as 00(UTC) não localizada na base de dados da REDEMET
2020063001 - Mensagem METAR de 'SBSR' para 30/06/2020 as 01(UTC) não localizada na base de dados da REDEMET
2020063002 - Mensagem METAR de 'SBSR' para 30/06/2020 as 02(UTC) não localizada na base de dados da REDEMET
2020063003 - Mensagem METAR de 'SBSR' para 30/06/2020 as 03(UTC) não localizada na base de dados da REDEMET
2020063004 - Mensagem METAR de 'SBSR' para 30/06/2020 as 04(UTC) não localizada na base de dados da REDEMET
2020063005 - Mensagem METAR de 'SBSR' para 30/06/2020 as 05(UTC) não localizada na base de dados da REDEMET
2020063006 - Mensagem METAR de 'SBSR' para 30/06/2020 as 06(UTC) não localizada na base de dados da REDEMET
2020063007 - Mensagem METAR de 'SBSR' para 30/06/2020 as 07(UTC) não localizada na base de dados da REDEMET
2020063008 - Mensagem METAR de 'SBSR' para 30/06/2020 as 08(UTC) não localizada na base de dados da REDEMET
2020063009 - Mensagem METAR de 'SBSR' para 30/06/2020 as 09(UTC) não localizada na base de dados da REDEMET
2020063010 - Mensagem METAR de 'SBSR' para 30/06/2020 as 10(UTC) não localizada na base de dados da REDEMET
2020063011 - Mensagem METAR de 'SBSR' para 30/06/2020 as 11(UTC) não localizada na base de dados da REDEMET
2020063012 - Mensagem METAR de 'SBSR' para 30/06/2020 as 12(UTC) não localizada na base de dados da REDEMET
2020063013 - Mensagem METAR de 'SBSR' para 30/06/2020 as 13(UTC) não localizada na base de dados da REDEMET
2020063014 - Mensagem METAR de 'SBSR' para 30/06/2020 as 14(UTC) não localizada na base de dados da REDEMET
2020063015 - Mensagem METAR de 'SBSR' para 30/06/2020 as 15(UTC) não localizada na base de dados da REDEMET
2020063016 - Mensagem METAR de 'SBSR' para 30/06/2020 as 16(UTC) não localizada na base de dados da REDEMET
2020063017 - Mensagem METAR de 'SBSR' para 30/06/2020 as 17(UTC) não localizada na base de dados da REDEMET
2020063018 - Mensagem METAR de 'SBSR' para 30/06/2020 as 18(UTC) não localizada na base de dados da REDEMET
2020063019 - Mensagem METAR de 'SBSR' para 30/06/2020 as 19(UTC) não localizada na base de dados da REDEMET
2020063020 - Mensagem METAR de 'SBSR' para 30/06/2020 as 20(UTC) não localizada na base de dados da REDEMET
2020063021 - Mensagem METAR de 'SBSR' para 30/06/2020 as 21(UTC) não localizada na base de dados da REDEMET
2020063022 - Mensagem METAR de 'SBSR' para 30/06/2020 as 22(UTC) não localizada na base de dados da REDEMET
2020063023 - Mensagem METAR de 'SBSR' para 30/06/2020 as 23(UTC) não localizada na base de dados da REDEMET
2020070100 - Mensagem METAR de 'SBSR' para 01/07/2020 as 00(UTC) não localizada na base de dados da REDEMET
2020070101 - Mensagem METAR de 'SBSR' para 01/07/2020 as 01(UTC) não localizada na base de dados da REDEMET
2020070102 - Mensagem METAR de 'SBSR' para 01/07/2020 as 02(UTC) não localizada na base de dados da REDEMET
2020070103 - Mensagem METAR de 'SBSR' para 01/07/2020 as 03(UTC) não localizada na base de dados da REDEMET
2020070104 - Mensagem METAR de 'SBSR' para 01/07/2020 as 04(UTC) não localizada na base de dados da REDEMET
2020070105 - Mensagem METAR de 'SBSR' para 01/07/2020 as 05(UTC) não localizada na base de dados da REDEMET
2020070106 - Mensagem METAR de 'SBSR' para 01/07/2020 as 06(UTC) não localizada na base de dados da REDEMET
2020070107 - Mensagem METAR de 'SBSR' para 01/07/2020 as 07(UTC) não localizada na base de dados da REDEMET
2020070108 - Mensagem METAR de 'SBSR' para 01/07/2020 as 08(UTC) não localizada na base de dados da REDEMET
2020070109 - Mensagem METAR de 'SBSR' para 01/07/2020 as 09(UTC) não localizada na base de dados da REDEMET
2020070110 - Mensagem METAR de 'SBSR' para 01/07/2020 as 10(UTC) não localizada na base de dados da REDEMET
2020070111 - Mensagem METAR de 'SBSR' para 01/07/2020 as 11(UTC) não localizada na base de dados da REDEMET
2020070112 - Mensagem METAR de 'SBSR' para 01/07/2020 as 12(UTC) não localizada na base de dados da REDEMET
2020070113 - Mensagem METAR de 'SBSR' para 01/07/2020 as 13(UTC) não localizada na base de dados da REDEMET
2020070114 - Mensagem METAR de 'SBSR' para 01/07/2020 as 14(UTC) não localizada na base de dados da REDEMET
2020070115 - Mensagem METAR de 'SBSR' para 01/07/2020 as 15(UTC) não localizada na base de dados da REDEMET
2020070116 - Mensagem METAR de 'SBSR' para 01/07/2020 as 16(UTC) não localizada na base de dados da REDEMET
2020070117 - Mensagem METAR de 'SBSR' para 01/07/2020 as 17(UTC) não localizada na base de dados da REDEMET
2020070118 - Mensagem METAR de 'SBSR' para 01/07/2020 as 18(UTC) não localizada na base de dados da REDEMET
2020070119 - Mensagem METAR de 'SBSR' para 01/07/2020 as 19(UTC) não localizada na base de dados da REDEMET
2020070120 - Mensagem METAR de 'SBSR' para 01/07/2020 as 20(UTC) não localizada na base de dados da REDEMET
2020070121 - Mensagem METAR de 'SBSR' para 01/07/2020 as 21(UTC) não localizada na base de dados da REDEMET
2020070122 - Mensagem METAR de 'SBSR' para 01/07/2020 as 22(UTC) não localizada na base de dados da REDEMET
2020070123 - Mensagem METAR de 'SBSR' para 01/07/2020 as 23(UTC) não localizada na base de dados da REDEMET
