
2020040100 - SABZ18 SBSR 010000
2020040100 - METAR SBSR 010000Z 21002KT CAVOK 27/18 Q1014=
2020040101 - SABZ18 SBSR 010100
2020040101 - METAR SBSR 010100Z 00000KT CAVOK 26/18 Q1015=
2020040102 - SABZ18 SBSR 010200
2020040102 - METAR SBSR 010200Z 00000KT CAVOK 25/19 Q1015=
2020040103 - SABZ18 SBSR 010300
2020040103 - METAR SBSR 010300Z 00000KT CAVOK 25/18 Q1015=
2020040104 - SABZ18 SBSR 010400
2020040104 - METAR SBSR 010400Z 00000KT CAVOK 25/18 Q1014=
2020040105 - SABZ18 SBSR 010500
2020040105 - METAR SBSR 010500Z 00000KT CAVOK 24/18 Q1014=
2020040106 - SABZ18 SBSR 010600
2020040106 - METAR SBSR 010600Z 12003KT CAVOK 24/18 Q1014=
2020040107 - SABZ18 SBSR 010700
2020040107 - METAR SBSR 010700Z 12002KT CAVOK 23/18 Q1013=
2020040108 - SABZ18 SBSR 010800
2020040108 - METAR SBSR 010800Z 18002KT CAVOK 23/18 Q1014=
2020040109 - SABZ18 SBSR 010900
2020040109 - METAR SBSR 010900Z 15002KT CAVOK 22/18 Q1014=
2020040110 - SABZ18 SBSR 011000
2020040110 - METAR SBSR 011000Z 00000KT CAVOK 22/18 Q1015=
2020040111 - SABZ18 SBSR 011100
2020040111 - METAR SBSR 011100Z 18004KT CAVOK 24/19 Q1015=
2020040112 - SABZ18 SBSR 011200
2020040112 - METAR SBSR 011200Z 12005KT CAVOK 25/19 Q1016=
2020040113 - SABZ18 SBSR 011300
2020040113 - METAR SBSR 011300Z 12004KT CAVOK 27/20 Q1016=
2020040114 - SABZ18 SBSR 011400
2020040114 - METAR SBSR 011400Z 11005KT CAVOK 29/20 Q1016=
2020040115 - SABZ18 SBSR 011500
2020040115 - METAR SBSR 011500Z 12007KT 9999 FEW030 31/18 Q1015=
2020040116 - SABZ18 SBSR 011600
2020040116 - METAR SBSR 011600Z 10004KT 9999 FEW030 31/18 Q1015=
2020040117 - SABZ18 SBSR 011700
2020040117 - METAR SBSR 011700Z 00000KT 9999 SCT030 33/17 Q1014=
2020040118 - SABZ18 SBSR 011800
2020040118 - METAR SBSR 011800Z 00000KT 9999 FEW030 32/17 Q1013=
2020040119 - SABZ18 SBSR 011900
2020040119 - METAR SBSR 011900Z 15005KT 9999 FEW030 32/16 Q1013=
2020040120 - SABZ18 SBSR 012000
2020040120 - METAR SBSR 012000Z 22005KT 9999 FEW030 32/17 Q1013=
2020040121 - SABZ18 SBSR 012100
2020040121 - METAR SBSR 012100Z 18005KT 9999 FEW030 31/17 Q1013=
2020040122 - SABZ18 SBSR 012200
2020040122 - METAR SBSR 012200Z 20003KT CAVOK 30/17 Q1014=
2020040123 - SABZ18 SBSR 012300
2020040123 - METAR SBSR 012300Z 21003KT CAVOK 29/17 Q1014=
2020040200 - SABZ18 SBSR 020000
2020040200 - METAR SBSR 020000Z 18002KT CAVOK 28/19 Q1015=
2020040201 - SABZ18 SBSR 020100
2020040201 - METAR SBSR 020100Z 16003KT CAVOK 27/19 Q1015=
2020040202 - SABZ18 SBSR 020200
2020040202 - METAR SBSR 020200Z 17004KT CAVOK 27/19 Q1015=
2020040203 - SABZ18 SBSR 020300
2020040203 - METAR SBSR 020300Z 17004KT CAVOK 26/19 Q1015=
2020040204 - SABZ18 SBSR 020400
2020040204 - METAR SBSR 020400Z 15002KT CAVOK 26/19 Q1015=
2020040205 - SABZ18 SBSR 020500
2020040205 - METAR SBSR 020500Z 10002KT CAVOK 25/19 Q1015=
2020040206 - SABZ18 SBSR 020600
2020040206 - METAR SBSR 020600Z 00000KT CAVOK 24/18 Q1014=
2020040207 - SABZ18 SBSR 020700
2020040207 - METAR SBSR 020700Z 05001KT CAVOK 24/19 Q1014=
2020040208 - SABZ18 SBSR 020800 RRA
2020040208 - METAR SBSR 020800Z 06002KT CAVOK 24/18 Q1014=
2020040209 - SABZ18 SBSR 020900
2020040209 - METAR SBSR 020900Z 10002KT CAVOK 23/19 Q1015=
2020040210 - SABZ18 SBSR 021000
2020040210 - METAR SBSR 021000Z 00000KT CAVOK 23/19 Q1016=
2020040211 - SABZ18 SBSR 021100
2020040211 - METAR SBSR 021100Z 00000KT 9999 FEW030 24/19 Q1016=
2020040212 - SABZ18 SBSR 021200
2020040212 - METAR SBSR 021200Z 08006KT CAVOK 25/20 Q1017=
2020040213 - SABZ18 SBSR 021300
2020040213 - METAR SBSR 021300Z 03005KT CAVOK 28/20 Q1017=
2020040214 - SABZ18 SBSR 021400
2020040214 - METAR SBSR 021400Z 02004KT CAVOK 30/20 Q1016=
2020040215 - SABZ18 SBSR 021500
2020040215 - METAR SBSR 021500Z 35004KT 9999 FEW030 31/20 Q1016=
2020040216 - SABZ18 SBSR 021600
2020040216 - METAR SBSR 021600Z 30003KT 9999 BKN025 31/20 Q1015=
2020040217 - SABZ18 SBSR 021700
2020040217 - METAR SBSR 021700Z 33004KT 9999 VCSH SCT025 FEW030TCU 32/19 Q1014=
2020040218 - SABZ18 SBSR 021800
2020040218 - METAR SBSR 021800Z 24007KT 9999 VCSH SCT025 FEW030TCU 32/19 Q1013=
2020040218 - SPECI SBSR 021835Z 30011G22KT 9999 -TSRA BKN020 FEW025CB 25/19 Q1014=
2020040219 - SABZ18 SBSR 021900
2020040219 - METAR SBSR 021900Z 28010KT 9999 -TSRA BKN020 FEW025CB 25/19 Q1014=
2020040220 - SABZ18 SBSR 022000
2020040220 - METAR SBSR 022000Z 04004KT 9999 VCSH BKN020 FEW025TCU 24/21 Q1013=
2020040221 - SABZ18 SBSR 022100
2020040221 - METAR SBSR 022100Z 04003KT 9999 VCSH BKN020 FEW025TCU BKN070 25/20 Q1013=
2020040222 - SABZ18 SBSR 022200
2020040222 - METAR SBSR 022200Z 00000KT CAVOK 25/21 Q1013=
2020040223 - SABZ18 SBSR 022300
2020040223 - METAR SBSR 022300Z 30002KT 9999 SCT040 SCT070 25/21 Q1014=
2020040300 - SABZ18 SBSR 030000
2020040300 - METAR SBSR 030000Z 00000KT 9999 SCT040 25/20 Q1014=
2020040301 - SABZ18 SBSR 030100
2020040301 - METAR SBSR 030100Z 30002KT 9999 FEW035 25/21 Q1014=
2020040302 - SABZ18 SBSR 030200
2020040302 - METAR SBSR 030200Z 00000KT 9999 FEW035 25/21 Q1014=
2020040303 - SABZ18 SBSR 030300
2020040303 - METAR SBSR 030300Z 00000KT 9999 FEW040 25/20 Q1013=
2020040304 - SABZ18 SBSR 030400
2020040304 - METAR SBSR 030400Z 00000KT CAVOK 25/20 Q1012=
2020040305 - SABZ18 SBSR 030500
2020040305 - METAR SBSR 030500Z 00000KT CAVOK 24/19 Q1012=
2020040306 - SABZ18 SBSR 030600
2020040306 - METAR SBSR 030600Z 00000KT CAVOK 23/19 Q1011=
2020040307 - SABZ18 SBSR 030700
2020040307 - METAR SBSR 030700Z 00000KT CAVOK 23/19 Q1011=
2020040308 - SABZ18 SBSR 030800
2020040308 - METAR SBSR 030800Z 36002KT CAVOK 23/19 Q1011=
2020040309 - SABZ18 SBSR 030900
2020040309 - METAR SBSR 030900Z 00000KT CAVOK 22/20 Q1011=
2020040310 - SABZ18 SBSR 031000
2020040310 - METAR SBSR 031000Z 27002KT CAVOK 22/19 Q1012=
2020040311 - SABZ18 SBSR 031100
2020040311 - METAR SBSR 031100Z 30003KT CAVOK 24/20 Q1012=
2020040312 - SABZ18 SBSR 031200
2020040312 - METAR SBSR 031200Z 27007KT CAVOK 26/21 Q1013=
2020040313 - SABZ18 SBSR 031300
2020040313 - METAR SBSR 031300Z 27006KT CAVOK 27/21 Q1013=
2020040314 - SABZ18 SBSR 031400
2020040314 - METAR SBSR 031400Z 27007KT CAVOK 29/20 Q1013=
2020040315 - SABZ18 SBSR 031500
2020040315 - METAR SBSR 031500Z 27007KT 9999 FEW020 30/20 Q1013=
2020040316 - SABZ18 SBSR 031600
2020040316 - METAR SBSR 031600Z 27007KT 9999 SCT025 30/19 Q1012=
2020040317 - SABZ18 SBSR 031700
2020040317 - METAR SBSR 031700Z 27007KT 9999 SCT025 32/20 Q1011=
2020040318 - SABZ18 SBSR 031800
2020040318 - METAR SBSR 031800Z 27010KT CAVOK 31/19 Q1010=
2020040319 - SABZ18 SBSR 031900
2020040319 - METAR SBSR 031900Z 26011KT 9999 SCT030 30/19 Q1010=
2020040320 - SABZ18 SBSR 032000
2020040320 - METAR SBSR 032000Z 27008KT 9999 SCT030 SCT070 30/20 Q1010=
2020040321 - SABZ18 SBSR 032100
2020040321 - METAR SBSR 032100Z 27006KT 9999 FEW030 SCT070 29/19 Q1010=
2020040322 - SABZ18 SBSR 032200
2020040322 - METAR SBSR 032200Z 27005KT CAVOK 27/20 Q1010=
2020040323 - SABZ18 SBSR 032300
2020040323 - METAR SBSR 032300Z 24007KT CAVOK 26/20 Q1011=
2020040400 - SABZ18 SBSR 040000
2020040400 - METAR SBSR 040000Z 25005KT CAVOK 25/20 Q1012=
2020040401 - SABZ18 SBSR 040100
2020040401 - METAR SBSR 040100Z 25006KT CAVOK 24/19 Q1012=
2020040402 - SABZ18 SBSR 040200
2020040402 - METAR SBSR 040200Z 24005KT CAVOK 23/19 Q1012=
2020040403 - SABZ18 SBSR 040300
2020040403 - METAR SBSR 040300Z 25007KT CAVOK 22/19 Q1012=
2020040404 - SABZ18 SBSR 040400
2020040404 - METAR SBSR 040400Z 25006KT CAVOK 21/15 Q1011=
2020040405 - SABZ18 SBSR 040500
2020040405 - METAR SBSR 040500Z 24004KT CAVOK 20/17 Q1011=
2020040406 - SABZ18 SBSR 040600
2020040406 - METAR SBSR 040600Z 00000KT CAVOK 20/17 Q1011=
2020040407 - SABZ18 SBSR 040700
2020040407 - METAR SBSR 040700Z 00000KT CAVOK 19/16 Q1011=
2020040408 - SABZ18 SBSR 040800
2020040408 - METAR SBSR 040800Z 00000KT CAVOK 19/15 Q1012=
2020040409 - SABZ18 SBSR 040900
2020040409 - METAR SBSR 040900Z 00000KT CAVOK 19/14 Q1012=
2020040410 - SABZ18 SBSR 041000
2020040410 - METAR SBSR 041000Z 00000KT CAVOK 19/15 Q1013=
2020040411 - SABZ18 SBSR 041100
2020040411 - METAR SBSR 041100Z 24002KT CAVOK 21/14 Q1014=
2020040412 - SABZ18 SBSR 041200
2020040412 - METAR SBSR 041200Z 24002KT CAVOK 23/13 Q1015=
2020040413 - SABZ18 SBSR 041300
2020040413 - METAR SBSR 041300Z 33002KT CAVOK 25/11 Q1015=
2020040414 - SABZ18 SBSR 041400
2020040414 - METAR SBSR 041400Z 36003KT CAVOK 27/12 Q1015=
2020040415 - SABZ18 SBSR 041500
2020040415 - METAR SBSR 041500Z 27006KT CAVOK 28/13 Q1014=
2020040416 - SABZ18 SBSR 041600
2020040416 - METAR SBSR 041600Z 27007KT CAVOK 28/14 Q1014=
2020040417 - SABZ18 SBSR 041700
2020040417 - METAR SBSR 041700Z 27008KT CAVOK 29/15 Q1013=
2020040418 - SABZ18 SBSR 041800
2020040418 - METAR SBSR 041800Z 30006KT CAVOK 29/15 Q1013=
2020040419 - SABZ18 SBSR 041900
2020040419 - METAR SBSR 041900Z 27008KT CAVOK 30/15 Q1012=
2020040420 - SABZ18 SBSR 042000
2020040420 - METAR SBSR 042000Z 27007KT CAVOK 29/15 Q1012=
2020040421 - SABZ18 SBSR 042100
2020040421 - METAR SBSR 042100Z 27006KT CAVOK 28/15 Q1012=
2020040422 - SABZ18 SBSR 042200
2020040422 - METAR SBSR 042200Z 24005KT CAVOK 26/16 Q1013=
2020040423 - SABZ18 SBSR 042300
2020040423 - METAR SBSR 042300Z 25003KT CAVOK 25/14 Q1014=
2020040500 - SABZ18 SBSR 050000
2020040500 - METAR SBSR 050000Z 25004KT CAVOK 24/13 Q1015=
2020040501 - SABZ18 SBSR 050100
2020040501 - METAR SBSR 050100Z 00000KT CAVOK 24/13 Q1015=
2020040502 - SABZ18 SBSR 050200
2020040502 - METAR SBSR 050200Z 00000KT CAVOK 23/14 Q1015=
2020040503 - SABZ18 SBSR 050300
2020040503 - METAR SBSR 050300Z 00000KT CAVOK 23/14 Q1014=
2020040504 - SABZ18 SBSR 050400
2020040504 - METAR SBSR 050400Z 00000KT CAVOK 22/13 Q1014=
2020040505 - SABZ18 SBSR 050500
2020040505 - METAR SBSR 050500Z 00000KT CAVOK 21/11 Q1014=
2020040506 - SABZ18 SBSR 050600
2020040506 - METAR SBSR 050600Z 00000KT CAVOK 22/14 Q1014=
2020040507 - SABZ18 SBSR 050700
2020040507 - METAR SBSR 050700Z 00000KT CAVOK 21/15 Q1014=
2020040508 - SABZ18 SBSR 050800
2020040508 - METAR SBSR 050800Z 00000KT CAVOK 20/15 Q1014=
2020040509 - SABZ18 SBSR 050900
2020040509 - METAR SBSR 050900Z 03002KT CAVOK 20/15 Q1015=
2020040510 - SABZ18 SBSR 051000
2020040510 - METAR SBSR 051000Z 00000KT CAVOK 20/15 Q1016=
2020040511 - SABZ18 SBSR 051100
2020040511 - METAR SBSR 051100Z 00000KT CAVOK 23/14 Q1016=
2020040512 - SABZ18 SBSR 051200
2020040512 - METAR SBSR 051200Z 00000KT CAVOK 25/13 Q1017=
2020040513 - SABZ18 SBSR 051300
2020040513 - METAR SBSR 051300Z 15002KT CAVOK 28/11 Q1018=
2020040514 - SABZ18 SBSR 051400
2020040514 - METAR SBSR 051400Z 00000KT CAVOK 29/12 Q1017=
2020040515 - SABZ18 SBSR 051500
2020040515 - METAR SBSR 051500Z 30003KT CAVOK 30/15 Q1017=
2020040516 - SABZ18 SBSR 051600
2020040516 - METAR SBSR 051600Z 27003KT CAVOK 31/16 Q1015=
2020040517 - SABZ18 SBSR 051700
2020040517 - METAR SBSR 051700Z 27005KT CAVOK 31/16 Q1015=
2020040518 - SABZ18 SBSR 051800
2020040518 - METAR SBSR 051800Z 33003KT CAVOK 31/16 Q1014=
2020040519 - SABZ18 SBSR 051900
2020040519 - METAR SBSR 051900Z 27004KT CAVOK 31/17 Q1014=
2020040520 - SABZ18 SBSR 052000
2020040520 - METAR SBSR 052000Z 27005KT CAVOK 31/16 Q1014=
2020040521 - SABZ18 SBSR 052100
2020040521 - METAR SBSR 052100Z 24005KT CAVOK 30/16 Q1014=
2020040522 - SABZ18 SBSR 052200
2020040522 - METAR SBSR 052200Z 20004KT CAVOK 29/16 Q1014=
2020040523 - SABZ18 SBSR 052300
2020040523 - METAR SBSR 052300Z 17006KT CAVOK 27/16 Q1015=
2020040600 - SABZ18 SBSR 060000
2020040600 - METAR SBSR 060000Z 17005KT CAVOK 27/15 Q1015=
2020040601 - SABZ18 SBSR 060100
2020040601 - METAR SBSR 060100Z 00000KT CAVOK 26/15 Q1016=
2020040602 - SABZ18 SBSR 060200
2020040602 - METAR SBSR 060200Z 17001KT CAVOK 26/15 Q1016=
2020040603 - SABZ18 SBSR 060300
2020040603 - METAR SBSR 060300Z 00000KT CAVOK 26/15 Q1016=
2020040604 - SABZ18 SBSR 060400
2020040604 - METAR SBSR 060400Z 00000KT CAVOK 24/17 Q1016=
2020040605 - SABZ18 SBSR 060500
2020040605 - METAR SBSR 060500Z 00000KT CAVOK 24/15 Q1016=
2020040606 - SABZ18 SBSR 060600
2020040606 - METAR SBSR 060600Z 15001KT CAVOK 24/15 Q1016=
2020040607 - SABZ18 SBSR 060700
2020040607 - METAR SBSR 060700Z 00000KT CAVOK 24/15 Q1016=
2020040608 - SABZ18 SBSR 060800
2020040608 - METAR SBSR 060800Z 11002KT CAVOK 23/14 Q1016=
2020040609 - SABZ18 SBSR 060900
2020040609 - METAR SBSR 060900Z 00000KT CAVOK 23/15 Q1016=
2020040610 - SABZ18 SBSR 061000
2020040610 - METAR SBSR 061000Z 10003KT CAVOK 23/15 Q1016=
2020040611 - SABZ18 SBSR 061100
2020040611 - METAR SBSR 061100Z 00000KT CAVOK 24/15 Q1017=
2020040612 - SABZ18 SBSR 061200
2020040612 - METAR SBSR 061200Z 06003KT CAVOK 26/16 Q1017=
2020040613 - SABZ18 SBSR 061300
2020040613 - METAR SBSR 061300Z 03004KT CAVOK 28/17 Q1018=
2020040614 - SABZ18 SBSR 061400
2020040614 - METAR SBSR 061400Z 02003KT CAVOK 31/17 Q1017=
2020040615 - SABZ18 SBSR 061500
2020040615 - METAR SBSR 061500Z 30005KT CAVOK 32/17 Q1017=
2020040616 - SABZ18 SBSR 061600
2020040616 - METAR SBSR 061600Z 00000KT CAVOK 33/17 Q1016=
2020040617 - SABZ18 SBSR 061700
2020040617 - METAR SBSR 061700Z 27008KT CAVOK 33/16 Q1015=
2020040618 - SABZ18 SBSR 061800
2020040618 - METAR SBSR 061800Z 25004KT 9999 FEW025 33/15 Q1014=
2020040619 - SABZ18 SBSR 061900
2020040619 - METAR SBSR 061900Z 22003KT CAVOK 33/16 Q1013=
2020040620 - SABZ18 SBSR 062000
2020040620 - METAR SBSR 062000Z 00000KT CAVOK 33/17 Q1013=
2020040621 - SABZ18 SBSR 062100
2020040621 - METAR SBSR 062100Z 24004KT CAVOK 31/17 Q1012=
2020040622 - SABZ18 SBSR 062200
2020040622 - METAR SBSR 062200Z 22003KT CAVOK 30/17 Q1012=
2020040623 - SABZ18 SBSR 062300
2020040623 - METAR SBSR 062300Z 19002KT CAVOK 30/18 Q1013=
2020040700 - SABZ18 SBSR 070000
2020040700 - METAR SBSR 070000Z 00000KT CAVOK 29/18 Q1013=
2020040701 - SABZ18 SBSR 070100
2020040701 - METAR SBSR 070100Z 00000KT CAVOK 27/20 Q1014=
2020040702 - SABZ18 SBSR 070200
2020040702 - METAR SBSR 070200Z 00000KT CAVOK 26/20 Q1014=
2020040703 - SABZ18 SBSR 070300
2020040703 - METAR SBSR 070300Z 00000KT CAVOK 26/19 Q1014=
2020040704 - SABZ18 SBSR 070400
2020040704 - METAR SBSR 070400Z 00000KT CAVOK 26/20 Q1014=
2020040705 - SABZ18 SBSR 070500
2020040705 - METAR SBSR 070500Z 23011KT CAVOK 23/19 Q1015=
2020040706 - SABZ18 SBSR 070600
2020040706 - METAR SBSR 070600Z 21009KT 9999 FEW030 SCT070 23/18 Q1015=
2020040707 - SABZ18 SBSR 070700
2020040707 - METAR SBSR 070700Z 20007KT 9999 FEW030 22/18 Q1015=
2020040708 - SABZ18 SBSR 070800
2020040708 - METAR SBSR 070800Z 17005KT CAVOK 22/18 Q1015=
2020040709 - SABZ18 SBSR 070900
2020040709 - METAR SBSR 070900Z 13005KT 080V190 9999 -RA SCT030 BKN070 22/18 Q1015=
2020040710 - SABZ18 SBSR 071000
2020040710 - METAR SBSR 071000Z 24010KT 9999 -RA SCT020 BKN070 21/19 Q1017=
2020040711 - SABZ18 SBSR 071100
2020040711 - METAR SBSR 071100Z 21005KT 9999 -RA FEW015 SCT020 BKN070 21/19 Q1018=
2020040712 - SABZ18 SBSR 071200
2020040712 - METAR SBSR 071200Z 20005KT 9999 FEW025 SCT070 21/19 Q1018=
2020040713 - SABZ18 SBSR 071300
2020040713 - METAR SBSR 071300Z 24005KT 9000 -RA FEW017TCU SCT018 BKN070 22/19 Q1019=
2020040713 - SPECI SBSR 071318Z 21003KT 1000 RA BR BKN013 BKN070 21/19 Q1019=
2020040714 - SABZ18 SBSR 071400
2020040714 - METAR SBSR 071400Z 09006KT 9999 FEW013 SCT018 BKN070 22/20 Q1018 RERA=
2020040715 - SABZ18 SBSR 071500
2020040715 - METAR SBSR 071500Z 07006KT 9999 FEW025 SCT070 26/20 Q1016=
2020040716 - SABZ18 SBSR 071600
2020040716 - METAR SBSR 071600Z 06007KT 9999 SCT025 SCT070 28/19 Q1015=
2020040717 - SABZ18 SBSR 071700
2020040717 - METAR SBSR 071700Z 36003KT 9999 SCT025 BKN070 29/18 Q1014=
2020040718 - SABZ18 SBSR 071800
2020040718 - METAR SBSR 071800Z 26004KT 240V320 9999 BKN025 BKN070 29/19 Q1014=
2020040719 - SABZ18 SBSR 071900 CCA
2020040719 - METAR COR SBSR 071900Z 21015KT 170V240 9999 FEW018TCU SCT020 BKN070 26/20 Q1014=
2020040720 - SABZ18 SBSR 072000
2020040720 - METAR SBSR 072000Z 21008KT 180V250 9999 SCT020 BKN070 25/20 Q1015=
2020040721 - SABZ18 SBSR 072100
2020040721 - METAR SBSR 072100Z 23008KT 190V250 9999 SCT020 BKN070 25/19 Q1015=
2020040722 - SABZ18 SBSR 072200
2020040722 - METAR SBSR 072200Z 17006KT 9999 SCT025 SCT070 24/19 Q1015=
2020040723 - SABZ18 SBSR 072300
2020040723 - METAR SBSR 072300Z 16004KT 9999 SCT025 BKN070 24/19 Q1016=
2020040800 - SABZ18 SBSR 080000
2020040800 - METAR SBSR 080000Z 15003KT 9999 FEW030 SCT070 24/19 Q1016=
2020040801 - SABZ18 SBSR 080100
2020040801 - METAR SBSR 080100Z 16003KT 9999 FEW030 SCT070 24/19 Q1017=
2020040802 - SABZ18 SBSR 080200
2020040802 - METAR SBSR 080200Z 21001KT 9999 FEW030 BKN070 23/19 Q1017=
2020040803 - SABZ18 SBSR 080300
2020040803 - METAR SBSR 080300Z 24003KT 9999 SCT030 BKN070 23/19 Q1017=
2020040804 - SABZ18 SBSR 080400
2020040804 - METAR SBSR 080400Z 22002KT 9999 SCT030 BKN070 23/19 Q1016=
2020040805 - SABZ18 SBSR 080500
2020040805 - METAR SBSR 080500Z 25003KT 9999 FEW030 SCT070 22/19 Q1016=
2020040806 - SABZ18 SBSR 080600
2020040806 - METAR SBSR 080600Z 20004KT 9999 FEW025 SCT070 22/19 Q1016=
2020040807 - SABZ18 SBSR 080700
2020040807 - METAR SBSR 080700Z 19004KT CAVOK 21/19 Q1015=
2020040808 - SABZ18 SBSR 080800
2020040808 - METAR SBSR 080800Z 18005KT 9999 FEW025 BKN070 21/19 Q1016=
2020040809 - SABZ18 SBSR 080900
2020040809 - METAR SBSR 080900Z 18004KT 9999 FEW030 SCT070 20/18 Q1016=
2020040810 - SABZ18 SBSR 081000
2020040810 - METAR SBSR 081000Z 16005KT 140V200 CAVOK 20/17 Q1016=
2020040811 - SABZ18 SBSR 081100
2020040811 - METAR SBSR 081100Z 17005KT 150V210 CAVOK 21/18 Q1017=
2020040812 - SABZ18 SBSR 081200
2020040812 - METAR SBSR 081200Z 18007KT 130V190 CAVOK 22/18 Q1017=
2020040813 - SABZ18 SBSR 081300
2020040813 - METAR SBSR 081300Z 16006KT CAVOK 24/18 Q1017=
2020040814 - SABZ18 SBSR 081400
2020040814 - METAR SBSR 081400Z 09002KT CAVOK 26/18 Q1017=
2020040815 - SABZ18 SBSR 081500
2020040815 - METAR SBSR 081500Z 06002KT 9999 FEW025 27/18 Q1016=
2020040816 - SABZ18 SBSR 081600
2020040816 - METAR SBSR 081600Z 27004KT 9999 FEW025 28/18 Q1015=
2020040817 - SABZ18 SBSR 081700
2020040817 - METAR SBSR 081700Z 18003KT 9999 SCT025 28/17 Q1014=
2020040818 - SABZ18 SBSR 081800
2020040818 - METAR SBSR 081800Z 24004KT 9999 SCT025 29/17 Q1014=
2020040819 - SABZ18 SBSR 081900
2020040819 - METAR SBSR 081900Z 21009KT 9999 SCT030 29/17 Q1013=
2020040820 - SABZ18 SBSR 082000
2020040820 - METAR SBSR 082000Z 23010KT 9999 FEW030 28/17 Q1013=
2020040821 - SABZ18 SBSR 082100
2020040821 - METAR SBSR 082100Z 21006KT CAVOK 27/16 Q1013=
2020040822 - SABZ18 SBSR 082200
2020040822 - METAR SBSR 082200Z 21005KT CAVOK 26/17 Q1013=
2020040823 - SABZ18 SBSR 082300
2020040823 - METAR SBSR 082300Z 21006KT CAVOK 25/18 Q1013=
2020040900 - SABZ18 SBSR 090000
2020040900 - METAR SBSR 090000Z 19005KT CAVOK 25/17 Q1015=
2020040901 - SABZ18 SBSR 090100
2020040901 - METAR SBSR 090100Z 19007KT CAVOK 24/17 Q1015=
2020040902 - SABZ18 SBSR 090200
2020040902 - METAR SBSR 090200Z 16008KT CAVOK 22/17 Q1016=
2020040903 - SABZ18 SBSR 090300
2020040903 - METAR SBSR 090300Z 16007KT CAVOK 21/17 Q1016=
2020040904 - SABZ18 SBSR 090400
2020040904 - METAR SBSR 090400Z 14004KT CAVOK 20/16 Q1015=
2020040905 - SABZ18 SBSR 090500
2020040905 - METAR SBSR 090500Z 15004KT CAVOK 20/16 Q1015=
2020040906 - SABZ18 SBSR 090600
2020040906 - METAR SBSR 090600Z 14006KT CAVOK 19/16 Q1015=
2020040907 - SABZ18 SBGR 090700 RRA
2020040907 - METAR SBSR 090700Z 15005KT CAVOK 18/15 Q1015=
2020040908 - SABZ18 SBSR 090800
2020040908 - METAR SBSR 090800Z 16004KT CAVOK 18/15 Q1015=
2020040909 - SABZ18 SBSR 090900
2020040909 - METAR SBSR 090900Z 16005KT CAVOK 17/15 Q1015=
2020040910 - SABZ18 SBSR 091000
2020040910 - METAR SBSR 091000Z 15007KT CAVOK 17/14 Q1015=
2020040911 - SABZ18 SBSR 091100
2020040911 - METAR SBSR 091100Z 14005KT CAVOK 18/14 Q1016=
2020040912 - SABZ18 SBSR 091200
2020040912 - METAR SBSR 091200Z 13005KT CAVOK 20/14 Q1016=
2020040913 - SABZ18 SBSR 091300
2020040913 - METAR SBSR 091300Z 16004KT CAVOK 22/14 Q1017=
2020040914 - SABZ18 SBSR 091400
2020040914 - METAR SBSR 091400Z 17004KT CAVOK 24/14 Q1017=
2020040915 - SABZ18 SBSR 091500
2020040915 - METAR SBSR 091500Z 17005KT CAVOK 26/14 Q1017=
2020040916 - SABZ18 SBSR 091600
2020040916 - METAR SBSR 091600Z 15005KT 110V250 CAVOK 26/14 Q1016=
2020040917 - SABZ18 SBSR 091700
2020040917 - METAR SBSR 091700Z 18005KT CAVOK 27/12 Q1015=
2020040918 - SABZ18 SBSR 091800
2020040918 - METAR SBSR 091800Z 21005KT CAVOK 28/12 Q1014=
2020040919 - SABZ18 SBSR 091900
2020040919 - METAR SBSR 091900Z 24005KT CAVOK 28/11 Q1014=
2020040920 - SABZ18 SBSR 092000
2020040920 - METAR SBSR 092000Z 22005KT 170V290 CAVOK 27/12 Q1014=
2020040921 - SABZ18 SBSR 092100
2020040921 - METAR SBSR 092100Z 23005KT CAVOK 26/12 Q1014=
2020040922 - SABZ18 SBSR 092200
2020040922 - METAR SBSR 092200Z 22005KT CAVOK 24/13 Q1014=
2020040923 - SABZ18 SBSR 092300
2020040923 - METAR SBSR 092300Z 21004KT CAVOK 23/13 Q1015=
2020041000 - SABZ18 SBSR 100000
2020041000 - METAR SBSR 100000Z 21003KT CAVOK 23/13 Q1015=
2020041001 - SABZ18 SBSR 100100
2020041001 - METAR SBSR 100100Z 00000KT CAVOK 22/14 Q1015=
2020041002 - SABZ18 SBSR 100200
2020041002 - METAR SBSR 100200Z 00000KT CAVOK 22/14 Q1016=
2020041003 - SABZ18 SBSR 100300
2020041003 - METAR SBSR 100300Z 00000KT CAVOK 20/15 Q1016=
2020041004 - SABZ18 SBSR 100400
2020041004 - METAR SBSR 100400Z 00000KT CAVOK 19/15 Q1015=
2020041005 - SABZ18 SBSR 100500
2020041005 - METAR SBSR 100500Z 00000KT CAVOK 19/14 Q1015=
2020041006 - SABZ18 SBSR 100600
2020041006 - METAR SBSR 100600Z 00000KT CAVOK 20/12 Q1015=
2020041007 - SABZ18 SBSR 100700
2020041007 - METAR SBSR 100700Z 00000KT CAVOK 19/12 Q1014=
2020041008 - SABZ18 SBSR 100800
2020041008 - METAR SBSR 100800Z 16004KT CAVOK 18/12 Q1015=
2020041009 - SABZ18 SBSR 100900
2020041009 - METAR SBSR 100900Z 00000KT CAVOK 18/16 Q1015=
2020041010 - SABZ18 SBSR 101000
2020041010 - METAR SBSR 101000Z 00000KT CAVOK 18/12 Q1015=
2020041011 - SABZ18 SBSR 101100
2020041011 - METAR SBSR 101100Z 13005KT CAVOK 20/12 Q1016=
2020041012 - SABZ18 SBSR 101200
2020041012 - METAR SBSR 101200Z 09006KT CAVOK 22/13 Q1016=
2020041013 - SABZ18 SBSR 101300
2020041013 - METAR SBSR 101300Z 10005KT CAVOK 24/13 Q1016=
2020041014 - SABZ18 SBSR 101400
2020041014 - METAR SBSR 101400Z 14004KT CAVOK 25/12 Q1016=
2020041015 - SABZ18 SBSR 101500
2020041015 - METAR SBSR 101500Z 19003KT CAVOK 26/14 Q1016=
2020041016 - SABZ18 SBSR 101600
2020041016 - METAR SBSR 101600Z 22004KT CAVOK 28/13 Q1015=
2020041017 - SABZ18 SBSR 101700
2020041017 - METAR SBSR 101700Z 21004KT CAVOK 28/12 Q1014=
2020041018 - SABZ18 SBSR 101800
2020041018 - METAR SBSR 101800Z 28002KT CAVOK 28/12 Q1014=
2020041019 - SABZ18 SBSR 101900
2020041019 - METAR SBSR 101900Z 22005KT CAVOK 28/14 Q1013=
2020041020 - SABZ18 SBSR 102000
2020041020 - METAR SBSR 102000Z 18004KT CAVOK 28/11 Q1014=
2020041021 - SABZ18 SBSR 102100
2020041021 - METAR SBSR 102100Z 22004KT CAVOK 27/11 Q1014=
2020041022 - SABZ18 SBSR 102200
2020041022 - METAR SBSR 102200Z 00000KT CAVOK 25/12 Q1014=
2020041023 - SABZ18 SBSR 102300
2020041023 - METAR SBSR 102300Z 00000KT CAVOK 24/11 Q1014=
2020041100 - SABZ18 SBSR 110000
2020041100 - METAR SBSR 110000Z 00000KT CAVOK 23/14 Q1015=
2020041101 - SABZ18 SBSR 110100
2020041101 - METAR SBSR 110100Z 00000KT CAVOK 21/14 Q1015=
2020041102 - SABZ18 SBSR 110200
2020041102 - METAR SBSR 110200Z 00000KT CAVOK 21/14 Q1015=
2020041103 - SABZ18 SBSR 110300
2020041103 - METAR SBSR 110300Z 00000KT CAVOK 20/14 Q1015=
2020041104 - SABZ18 SBSR 110400
2020041104 - METAR SBSR 110400Z 00000KT CAVOK 19/14 Q1015=
2020041105 - SABZ18 SBSR 110500
2020041105 - METAR SBSR 110500Z 00000KT CAVOK 19/14 Q1014=
2020041106 - SABZ18 SBSR 110600
2020041106 - METAR SBSR 110600Z 00000KT CAVOK 18/13 Q1014=
2020041107 - SABZ18 SBSR 110700
2020041107 - METAR SBSR 110700Z 00000KT CAVOK 19/14 Q1013=
2020041108 - SABZ18 SBSR 110800
2020041108 - METAR SBSR 110800Z 00000KT CAVOK 17/13 Q1014=
2020041109 - SABZ18 SBSR 110900
2020041109 - METAR SBSR 110900Z 00000KT CAVOK 18/12 Q1014=
2020041110 - SABZ18 SBSR 111000
2020041110 - METAR SBSR 111000Z 00000KT CAVOK 19/12 Q1015=
2020041111 - SABZ18 SBSR 111100
2020041111 - METAR SBSR 111100Z 12004KT CAVOK 20/12 Q1015=
2020041112 - SABZ18 SBSR 111200
2020041112 - METAR SBSR 111200Z 09007KT CAVOK 22/12 Q1016=
2020041113 - SABZ18 SBSR 111300
2020041113 - METAR SBSR 111300Z 10003KT CAVOK 25/13 Q1016=
2020041114 - SABZ18 SBSR 111400
2020041114 - METAR SBSR 111400Z 25002KT CAVOK 27/12 Q1016=
2020041115 - SABZ18 SBSR 111500
2020041115 - METAR SBSR 111500Z 07002KT CAVOK 28/11 Q1016=
2020041116 - SABZ18 SBSR 111600
2020041116 - METAR SBSR 111600Z 29002KT CAVOK 29/12 Q1015=
2020041117 - SABZ18 SBSR 111700
2020041117 - METAR SBSR 111700Z 25007KT CAVOK 29/12 Q1014=
2020041118 - SABZ18 SBSR 111800
2020041118 - METAR SBSR 111800Z 29003KT 9999 FEW040 BKN070 29/12 Q1014=
2020041119 - SABZ18 SBSR 111900
2020041119 - METAR SBSR 111900Z 23005KT 9999 SCT040 BKN070 28/13 Q1014=
2020041120 - SABZ18 SBSR 112000
2020041120 - METAR SBSR 112000Z 20007KT 9999 SCT045 BKN070 28/13 Q1014=
2020041121 - SABZ18 SBSR 112100
2020041121 - METAR SBSR 112100Z 20006KT 9999 SCT045 BKN070 27/14 Q1014=
2020041122 - SABZ18 SBSR 112200
2020041122 - METAR SBSR 112200Z 20002KT 9999 BKN030 SCT070 26/13 Q1015=
2020041123 - SABZ18 SBSR 112300
2020041123 - METAR SBSR 112300Z 19004KT 9999 SCT030 25/14 Q1015=
2020041200 - SABZ18 SBSR 120000
2020041200 - METAR SBSR 120000Z 18005KT 9999 SCT030 25/13 Q1016=
2020041201 - SABZ18 SBSR 120100
2020041201 - METAR SBSR 120100Z 18002KT 9999 BKN030 25/13 Q1016=
2020041202 - SABZ18 SBSR 120200
2020041202 - METAR SBSR 120200Z 17004KT 9999 BKN030 24/13 Q1016=
2020041203 - SABZ18 SBSR 120300
2020041203 - METAR SBSR 120300Z 17003KT 9999 SCT030 24/13 Q1016=
2020041204 - SABZ18 SBSR 120400
2020041204 - METAR SBSR 120400Z 16006KT 9999 FEW030 22/13 Q1016=
2020041205 - SABZ18 SBSR 120500
2020041205 - METAR SBSR 120500Z 14007KT CAVOK 21/14 Q1015=
2020041206 - SABZ18 SBSR 120600
2020041206 - METAR SBSR 120600Z 13005KT CAVOK 20/14 Q1015=
2020041207 - SABZ18 SBSR 120700
2020041207 - METAR SBSR 120700Z 13007KT CAVOK 20/14 Q1015=
2020041208 - SABZ18 SBSR 120800
2020041208 - METAR SBSR 120800Z 15003KT 9999 FEW025 19/14 Q1016=
2020041209 - SABZ18 SBSR 120900
2020041209 - METAR SBSR 120900Z 11005KT 9999 FEW025 19/14 Q1016=
2020041210 - SABZ18 SBSR 121000
2020041210 - METAR SBSR 121000Z 15004KT 9999 FEW030 19/14 Q1017=
2020041211 - SABZ18 SBSR 121100
2020041211 - METAR SBSR 121100Z 15004KT 9999 FEW030 20/14 Q1017=
2020041212 - SABZ18 SBSR 121200
2020041212 - METAR SBSR 121200Z 12008KT 9999 FEW030 SCT070 22/15 Q1018=
2020041213 - SABZ18 SBSR 121300
2020041213 - METAR SBSR 121300Z 15005KT 9999 FEW030 SCT070 24/15 Q1018=
2020041214 - SABZ18 SBSR 121400
2020041214 - METAR SBSR 121400Z 16006KT 9999 SCT035 26/16 Q1018=
2020041215 - SABZ18 SBSR 121500
2020041215 - METAR SBSR 121500Z 15005KT 9999 SCT035 27/15 Q1017=
2020041216 - SABZ18 SBSR 121600
2020041216 - METAR SBSR 121600Z 09002KT 9999 SCT035 29/14 Q1017=
2020041217 - SABZ18 SBSR 121700
2020041217 - METAR SBSR 121700Z 18002KT 9999 FEW035 30/14 Q1016=
2020041218 - SABZ18 SBSR 121800
2020041218 - METAR SBSR 121800Z 21002KT 9999 FEW035 31/15 Q1015=
2020041219 - SABZ18 SBSR 121900
2020041219 - METAR SBSR 121900Z 18005KT 9999 FEW035 30/15 Q1015=
2020041220 - SABZ18 SBSR 122000
2020041220 - METAR SBSR 122000Z 18008KT 9999 FEW035 30/15 Q1015=
2020041221 - SABZ18 SBSR 122100
2020041221 - METAR SBSR 122100Z 19007KT 9999 FEW035 29/15 Q1015=
2020041222 - SABZ18 SBSR 122200
2020041222 - METAR SBSR 122200Z 19006KT 9999 FEW040 27/16 Q1015=
2020041223 - SABZ18 SBSR 122300
2020041223 - METAR SBSR 122300Z 18007KT CAVOK 26/15 Q1015=
2020041300 - SABZ18 SBSR 130000
2020041300 - METAR SBSR 130000Z 18008KT 9999 SCT040 25/14 Q1016=
2020041301 - SABZ18 SBSR 130100
2020041301 - METAR SBSR 130100Z 18007KT CAVOK 24/14 Q1016=
2020041302 - SABZ18 SBSR 130200
2020041302 - METAR SBSR 130200Z 16007KT CAVOK 24/14 Q1016=
2020041303 - SABZ18 SBSR 130300
2020041303 - METAR SBSR 130300Z 12005KT CAVOK 23/14 Q1016=
2020041304 - SABZ18 SBSR 130400
2020041304 - METAR SBSR 130400Z 15007KT CAVOK 23/14 Q1016=
2020041305 - SABZ18 SBSR 130500
2020041305 - METAR SBSR 130500Z 14007KT CAVOK 22/14 Q1015=
2020041306 - SABZ18 SBSR 130600
2020041306 - METAR SBSR 130600Z 14006KT CAVOK 21/13 Q1015=
2020041307 - SABZ18 SBSR 130700
2020041307 - METAR SBSR 130700Z 16003KT CAVOK 21/14 Q1015=
2020041308 - SABZ18 SBSR 130800
2020041308 - METAR SBSR 130800Z 14004KT CAVOK 20/14 Q1016=
2020041309 - SABZ18 SBSR 130900
2020041309 - METAR SBSR 130900Z 15003KT CAVOK 19/14 Q1016=
2020041310 - SABZ18 SBSR 131000
2020041310 - METAR SBSR 131000Z 15004KT CAVOK 19/14 Q1017=
2020041311 - SABZ18 SBSR 131100
2020041311 - METAR SBSR 131100Z 15005KT CAVOK 21/14 Q1017=
2020041312 - SABZ18 SBSR 131200
2020041312 - METAR SBSR 131200Z 15006KT CAVOK 23/14 Q1018=
2020041313 - SABZ18 SBSR 131300
2020041313 - METAR SBSR 131300Z 12005KT CAVOK 25/15 Q1018=
2020041314 - SABZ18 SBSR 131400
2020041314 - METAR SBSR 131400Z 10007KT CAVOK 28/16 Q1017=
2020041315 - SABZ18 SBSR 131500
2020041315 - METAR SBSR 131500Z 13002KT CAVOK 29/17 Q1016=
2020041316 - SABZ18 SBSR 131600
2020041316 - METAR SBSR 131600Z 09005KT 9999 SCT025 31/16 Q1015=
2020041317 - SABZ18 SBSR 131700
2020041317 - METAR SBSR 131700Z 12007KT 9999 SCT025 31/16 Q1014=
2020041318 - SABZ18 SBSR 131800
2020041318 - METAR SBSR 131800Z 24005KT 9999 SCT025 31/16 Q1013=
2020041319 - SABZ18 SBSR 131900
2020041319 - METAR SBSR 131900Z 12003KT 9999 SCT030 31/15 Q1013=
2020041320 - SABZ18 SBSR 132000
2020041320 - METAR SBSR 132000Z 21007KT 9999 FEW035 31/15 Q1013=
2020041321 - SABZ18 SBSR 132100
2020041321 - METAR SBSR 132100Z 18006KT 9999 FEW035 30/15 Q1013=
2020041322 - SABZ18 SBSR 132200
2020041322 - METAR SBSR 132200Z 18004KT CAVOK 28/16 Q1013=
2020041323 - SABZ18 SBSR 132300
2020041323 - METAR SBSR 132300Z 18003KT CAVOK 27/17 Q1013=
2020041400 - SABZ18 SBSR 140000
2020041400 - METAR SBSR 140000Z 18004KT CAVOK 26/17 Q1014=
2020041401 - SABZ18 SBSR 140100
2020041401 - METAR SBSR 140100Z 16003KT CAVOK 25/17 Q1014=
2020041402 - SABZ18 SBSR 140200
2020041402 - METAR SBSR 140200Z 10004KT CAVOK 24/17 Q1014=
2020041403 - SABZ18 SBSR 140300
2020041403 - METAR SBSR 140300Z 11002KT 9999 FEW030 23/17 Q1014=
2020041404 - SABZ18 SBSR 140400
2020041404 - METAR SBSR 140400Z 09004KT 9999 FEW025 23/18 Q1013=
2020041405 - SABZ18 SBSR 140500
2020041405 - METAR SBSR 140500Z 08004KT 9999 FEW025 23/18 Q1012=
2020041406 - SABZ18 SBSR 140600
2020041406 - METAR SBSR 140600Z 07006KT 9999 FEW025 23/18 Q1012=
2020041407 - SABZ18 SBSR 140700
2020041407 - METAR SBSR 140700Z 07007KT 9999 FEW025 22/18 Q1011=
2020041408 - SABZ18 SBSR 140800
2020041408 - METAR SBSR 140800Z 06004KT 9999 SCT025 21/18 Q1011=
2020041409 - SABZ18 SBSR 140900
2020041409 - METAR SBSR 140900Z 06006KT 9999 BKN025 BKN070 21/17 Q1012=
2020041410 - SABZ18 SBSR 141000
2020041410 - METAR SBSR 141000Z 03006KT 9999 BKN020 BKN070 21/17 Q1013=
2020041411 - SABZ18 SBSR 141100
2020041411 - METAR SBSR 141100Z 24012KT 3000 -TSRA BR BKN007 FEW040CB OVC070 19/16 Q1015=
2020041412 - SABZ18 SBSR 141200
2020041412 - METAR SBSR 141200Z 24012KT 4000 -TSRA BR BKN007 FEW040CB OVC070 18/17 Q1016=
2020041413 - SABZ18 SBSR 141300
2020041413 - METAR SBSR 141300Z 21007KT 5000 -RA BR SCT006 OVC007 18/16 Q1016 RETS=
2020041414 - SABZ18 SBSR 141400
2020041414 - METAR SBSR 141400Z 21002KT 8000 -RA SCT007 OVC010 18/17 Q1016=
2020041415 - SABZ18 SBSR 141500
2020041415 - METAR SBSR 141500Z 10010KT 030V120 9000 SCT012 OVC015 19/17 Q1013=
2020041416 - SABZ18 SBSR 141600
2020041416 - METAR SBSR 141600Z 27012KT 9999 SCT012 OVC015 20/17 Q1014=
2020041417 - SABZ18 SBSR 141700
2020041417 - METAR SBSR 141700Z 15003KT 9999 SCT025 23/17 Q1013=
2020041418 - SABZ18 SBSR 141800
2020041418 - METAR SBSR 141800Z 24004KT 9999 SCT035 24/16 Q1012=
2020041419 - SABZ18 SBSR 141900
2020041419 - METAR SBSR 141900Z 21003KT 9999 FEW035 SCT070 24/16 Q1012=
2020041420 - SABZ18 SBSR 142000
2020041420 - METAR SBSR 142000Z 24004KT CAVOK 23/16 Q1012=
2020041421 - SABZ18 SBSR 142100
2020041421 - METAR SBSR 142100Z 27002KT CAVOK 22/17 Q1012=
2020041422 - SABZ18 SBSR 142200
2020041422 - METAR SBSR 142200Z 00000KT 9999 FEW030 SCT070 21/16 Q1013=
2020041423 - SABZ18 SBSR 142300
2020041423 - METAR SBSR 142300Z 00000KT 9999 FEW030 SCT070 21/16 Q1014=
2020041500 - SABZ18 SBSR 150000
2020041500 - METAR SBSR 150000Z 03003KT 9999 FEW025 SCT070 21/18 Q1014=
2020041501 - SABZ18 SBSR 150100
2020041501 - METAR SBSR 150100Z 03003KT 9999 FEW030 SCT070 20/17 Q1014=
2020041502 - SABZ18 SBSR 150200
2020041502 - METAR SBSR 150200Z 03002KT 9999 SCT025 SCT070 19/17 Q1014=
2020041503 - SABZ18 SBSR 150300
2020041503 - METAR SBSR 150300Z 03002KT 9999 FEW030 SCT070 19/17 Q1014=
2020041504 - SABZ18 SBSR 150400
2020041504 - METAR SBSR 150400Z 00000KT 9999 FEW030 19/17 Q1014=
2020041505 - SABZ18 SBSR 150500
2020041505 - METAR SBSR 150500Z 00000KT 9999 FEW030 19/17 Q1014=
2020041506 - SABZ18 SBSR 150600
2020041506 - METAR SBSR 150600Z 00000KT CAVOK 19/17 Q1013=
2020041507 - SABZ18 SBSR 150700
2020041507 - METAR SBSR 150700Z 00000KT CAVOK 18/17 Q1013=
2020041508 - SABZ18 SBSR 150800
2020041508 - METAR SBSR 150800Z 03002KT CAVOK 18/17 Q1014=
2020041509 - SABZ18 SBSR 150900
2020041509 - METAR SBSR 150900Z 04003KT 9999 FEW030 SCT070 18/16 Q1015=
2020041510 - SABZ18 SBSR 151000
2020041510 - METAR SBSR 151000Z 00000KT 9999 SCT020 BKN070 18/17 Q1016=
2020041511 - SABZ18 SBSR 151100
2020041511 - METAR SBSR 151100Z 00000KT 9999 BKN020 BKN070 19/17 Q1017=
2020041512 - SABZ18 SBSR 151200
2020041512 - METAR SBSR 151200Z 00000KT 9000 BKN010 OVC070 20/18 Q1017=
2020041513 - SABZ18 SBSR 151300
2020041513 - METAR SBSR 151300Z 00000KT 9999 SCT011 BKN020 OVC070 22/18 Q1018=
2020041514 - SABZ18 SBSR 151400
2020041514 - METAR SBSR 151400Z 00000KT 9999 BKN015 OVC070 22/18 Q1018=
2020041515 - SABZ18 SBSR 151500
2020041515 - METAR SBSR 151500Z 27006KT 9999 BKN017 OVC070 23/18 Q1018=
2020041516 - SABZ18 SBSR 151600
2020041516 - METAR SBSR 151600Z 27004KT 9999 BKN020 OVC070 24/18 Q1017=
2020041517 - SABZ18 SBSR 151700
2020041517 - METAR SBSR 151700Z 23005KT 9999 SCT020 BKN070 25/18 Q1016=
2020041518 - SABZ18 SBSR 151800
2020041518 - METAR SBSR 151800Z 22005KT 9999 BKN020 BKN070 25/18 Q1016=
2020041519 - SABZ18 SBSR 151900
2020041519 - METAR SBSR 151900Z 27005KT 9999 SCT020 BKN070 25/17 Q1016=
2020041520 - SABZ18 SBSR 152000
2020041520 - METAR SBSR 152000Z 23006KT 9999 SCT020 BKN070 25/18 Q1016=
2020041521 - SABZ18 SBSR 152100
2020041521 - METAR SBSR 152100Z 23004KT 9999 FEW020 BKN070 23/17 Q1016=
2020041522 - SABZ18 SBSR 152200
2020041522 - METAR SBSR 152200Z 24003KT 9999 FEW020 BKN070 21/17 Q1017=
2020041523 - SABZ18 SBSR 152300
2020041523 - METAR SBSR 152300Z 23003KT 9999 FEW020 BKN070 21/16 Q1017=
2020041600 - SABZ18 SBSR 160000
2020041600 - METAR SBSR 160000Z 24004KT 9999 FEW020 BKN070 20/16 Q1018=
2020041601 - SABZ18 SBSR 160100
2020041601 - METAR SBSR 160100Z 24002KT 9999 FEW020 BKN070 19/16 Q1018=
2020041602 - SABZ18 SBSR 160200
2020041602 - METAR SBSR 160200Z 25002KT 9999 FEW020 BKN070 19/16 Q1018=
2020041603 - SABZ18 SBSR 160300
2020041603 - METAR SBSR 160300Z 24003KT 9999 FEW025 SCT070 18/16 Q1018=
2020041604 - SABZ18 SBSR 160400
2020041604 - METAR SBSR 160400Z 00000KT 9999 FEW025 SCT070 18/15 Q1018=
2020041605 - SABZ18 SBSR 160500
2020041605 - METAR SBSR 160500Z 00000KT 9999 FEW025 SCT070 17/16 Q1018=
2020041606 - SABZ18 SBSR 160600
2020041606 - METAR SBSR 160600Z 23004KT 9999 FEW025 17/14 Q1018=
2020041607 - SABZ18 SBSR 160700
2020041607 - METAR SBSR 160700Z 00000KT 9999 FEW025 16/15 Q1018=
2020041608 - SABZ18 SBSR 160800
2020041608 - METAR SBSR 160800Z 00000KT 9999 FEW035 16/14 Q1018=
2020041609 - SABZ18 SBSR 160900
2020041609 - METAR SBSR 160900Z 00000KT 9999 FEW035 17/12 Q1018=
2020041610 - SABZ18 SBSR 161000
2020041610 - METAR SBSR 161000Z 00000KT 9999 FEW035 17/11 Q1019=
2020041611 - SABZ18 SBSR 161100
2020041611 - METAR SBSR 161100Z 18004KT CAVOK 19/10 Q1020=
2020041612 - SABZ18 SBSR 161200
2020041612 - METAR SBSR 161200Z 18003KT 9999 SCT030 20/11 Q1021=
2020041613 - SABZ18 SBSR 161300
2020041613 - METAR SBSR 161300Z 15003KT CAVOK 23/11 Q1022=
2020041614 - SABZ18 SBSR 161400
2020041614 - METAR SBSR 161400Z 21004KT CAVOK 24/11 Q1022=
2020041615 - SABZ18 SBSR 161500
2020041615 - METAR SBSR 161500Z VRB02KT CAVOK 25/13 Q1021=
2020041616 - SABZ18 SBSR 161600
2020041616 - METAR SBSR 161600Z 17003KT 090V250 CAVOK 26/14 Q1020=
2020041617 - SABZ18 SBSR 161700
2020041617 - METAR SBSR 161700Z 33003KT CAVOK 27/16 Q1020=
2020041618 - SABZ18 SBSR 161800
2020041618 - METAR SBSR 161800Z 28004KT CAVOK 27/16 Q1019=
2020041619 - SABZ18 SBSR 161900
2020041619 - METAR SBSR 161900Z 26006KT 9999 FEW025 27/16 Q1019=
2020041620 - SABZ18 SBSR 162000
2020041620 - METAR SBSR 162000Z 25006KT CAVOK 26/17 Q1019=
2020041621 - SABZ18 SBSR 162100
2020041621 - METAR SBSR 162100Z 23005KT CAVOK 26/17 Q1019=
2020041622 - SABZ18 SBSR 162200
2020041622 - METAR SBSR 162200Z 22005KT CAVOK 24/18 Q1019=
2020041623 - SABZ18 SBSR 162300
2020041623 - METAR SBSR 162300Z 21005KT CAVOK 23/17 Q1020=
2020041700 - SABZ18 SBSR 170000
2020041700 - METAR SBSR 170000Z 21004KT CAVOK 23/17 Q1020=
2020041701 - SABZ18 SBSR 170100
2020041701 - METAR SBSR 170100Z 22003KT CAVOK 22/17 Q1021=
2020041702 - SABZ18 SBSR 170200
2020041702 - METAR SBSR 170200Z 22004KT CAVOK 22/17 Q1021=
2020041703 - SABZ18 SBSR 170300
2020041703 - METAR SBSR 170300Z 21005KT CAVOK 21/16 Q1021=
2020041704 - SABZ18 SBSR 170400
2020041704 - METAR SBSR 170400Z 21004KT CAVOK 21/15 Q1020=
2020041705 - SABZ18 SBSR 170500
2020041705 - METAR SBSR 170500Z 20003KT CAVOK 21/15 Q1020=
2020041706 - SABZ18 SBSR 170600
2020041706 - METAR SBSR 170600Z 20004KT CAVOK 20/15 Q1020=
2020041707 - SABZ18 SBSR 170700
2020041707 - METAR SBSR 170700Z 00000KT CAVOK 20/16 Q1020=
2020041708 - SABZ18 SBSR 170800
2020041708 - METAR SBSR 170800Z 18004KT CAVOK 19/16 Q1020=
2020041709 - SABZ18 SBSR 170900
2020041709 - METAR SBSR 170900Z 17003KT CAVOK 19/15 Q1020=
2020041710 - SABZ18 SBSR 171000
2020041710 - METAR SBSR 171000Z 00000KT CAVOK 19/16 Q1020=
2020041711 - SABZ18 SBSR 171100
2020041711 - METAR SBSR 171100Z 13005KT CAVOK 21/16 Q1021=
2020041712 - SABZ18 SBSR 171200
2020041712 - METAR SBSR 171200Z 13004KT CAVOK 24/16 Q1021=
2020041713 - SABZ18 SBSR 171300
2020041713 - METAR SBSR 171300Z 13004KT CAVOK 25/17 Q1022=
2020041714 - SABZ18 SBSR 171400
2020041714 - METAR SBSR 171400Z 15005KT CAVOK 27/17 Q1021=
2020041715 - SABZ18 SBSR 171500
2020041715 - METAR SBSR 171500Z 10004KT 090V230 CAVOK 28/18 Q1021=
2020041716 - SABZ18 SBSR 171600
2020041716 - METAR SBSR 171600Z 12004KT CAVOK 28/18 Q1020=
2020041717 - SABZ18 SBSR 171700
2020041717 - METAR SBSR 171700Z 17003KT 9999 FEW020 SCT070 29/19 Q1019=
2020041718 - SABZ18 SBSR 171800
2020041718 - METAR SBSR 171800Z 21004KT 9999 FEW020 SCT070 29/19 Q1018=
2020041719 - SABZ18 SBSR 171900
2020041719 - METAR SBSR 171900Z 20006KT 9999 FEW020 SCT070 28/19 Q1018=
2020041720 - SABZ18 SBSR 172000
2020041720 - METAR SBSR 172000Z 19006KT 9999 FEW020 SCT070 29/19 Q1018=
2020041721 - SABZ18 SBSR 172100
2020041721 - METAR SBSR 172100Z 22006KT CAVOK 28/19 Q1018=
2020041722 - SABZ18 SBSR 172200
2020041722 - METAR SBSR 172200Z 22007KT CAVOK 26/19 Q1018=
2020041723 - SABZ18 SBSR 172300
2020041723 - METAR SBSR 172300Z 21006KT CAVOK 26/18 Q1019=
2020041800 - SABZ18 SBSR 180000
2020041800 - METAR SBSR 180000Z 19004KT CAVOK 25/18 Q1019=
2020041801 - SABZ18 SBSR 180100
2020041801 - METAR SBSR 180100Z 17005KT CAVOK 24/18 Q1019=
2020041802 - SABZ18 SBSR 180200
2020041802 - METAR SBSR 180200Z 18006KT CAVOK 23/18 Q1020=
2020041803 - SABZ18 SBSR 180300
2020041803 - METAR SBSR 180300Z 16007KT CAVOK 22/17 Q1020=
2020041804 - SABZ18 SBSR 180400
2020041804 - METAR SBSR 180400Z 17008KT CAVOK 20/17 Q1020=
2020041805 - SABZ18 SBSR 180500
2020041805 - METAR SBSR 180500Z 17006KT CAVOK 19/16 Q1019=
2020041806 - SABZ18 SBSR 180600
2020041806 - METAR SBSR 180600Z 18005KT CAVOK 19/16 Q1019=
2020041807 - SABZ18 SBSR 180700
2020041807 - METAR SBSR 180700Z 17007KT CAVOK 17/16 Q1019=
2020041808 - SABZ18 SBSR 180800
2020041808 - METAR SBSR 180800Z 17003KT CAVOK 17/17 Q1019=
2020041809 - SABZ18 SBSR 180900
2020041809 - METAR SBSR 180900Z 17004KT CAVOK 17/16 Q1020=
2020041810 - SABZ18 SBSR 181000
2020041810 - METAR SBSR 181000Z 17004KT 8000 NSC 17/16 Q1020=
2020041811 - SABZ18 SBSR 181100
2020041811 - METAR SBSR 181100Z 17006KT 8000 FEW025 17/17 Q1021=
2020041812 - SABZ18 SBSR 181200
2020041812 - METAR SBSR 181200Z 18007KT 9999 FEW025 19/17 Q1021=
2020041813 - SABZ18 SBSR 181300
2020041813 - METAR SBSR 181300Z 15006KT 9999 FEW025 22/17 Q1022=
2020041814 - SABZ18 SBSR 181400
2020041814 - METAR SBSR 181400Z 11003KT 9999 FEW025 25/18 Q1021=
2020041815 - SABZ18 SBSR 181500
2020041815 - METAR SBSR 181500Z 12006KT 9999 FEW025 27/19 Q1020=
2020041816 - SABZ18 SBSR 181600
2020041816 - METAR SBSR 181600Z 14003KT 9999 SCT025 28/20 Q1020=
2020041817 - SABZ18 SBSR 181700
2020041817 - METAR SBSR 181700Z 19004KT 9999 SCT025 30/20 Q1019=
2020041818 - SABZ18 SBSR 181800
2020041818 - METAR SBSR 181800Z 19005KT 9999 SCT025 30/20 Q1018=
2020041819 - SABZ18 SBSR 181900
2020041819 - METAR SBSR 181900Z 16004KT 9999 SCT025 29/20 Q1018=
2020041820 - SABZ18 SBSR 182000
2020041820 - METAR SBSR 182000Z 21007KT 9999 FEW025 29/20 Q1018=
2020041821 - SABZ18 SBSR 182100
2020041821 - METAR SBSR 182100Z 19007KT CAVOK 28/20 Q1018=
2020041822 - SABZ18 SBSR 182200
2020041822 - METAR SBSR 182200Z 19006KT CAVOK 26/20 Q1018=
2020041823 - SABZ18 SBSR 182300
2020041823 - METAR SBSR 182300Z 18007KT CAVOK 25/19 Q1019=
2020041900 - SABZ18 SBSR 190000
2020041900 - METAR SBSR 190000Z 16007KT CAVOK 24/19 Q1019=
2020041901 - SABZ18 SBSR 190100
2020041901 - METAR SBSR 190100Z 16007KT CAVOK 23/18 Q1020=
2020041902 - SABZ18 SBSR 190200
2020041902 - METAR SBSR 190200Z 15005KT CAVOK 23/18 Q1020=
2020041903 - SABZ18 SBSR 190300
2020041903 - METAR SBSR 190300Z 15007KT CAVOK 23/17 Q1020=
2020041904 - SABZ18 SBSR 190400
2020041904 - METAR SBSR 190400Z 18005KT 9999 FEW030 21/18 Q1020=
2020041905 - SABZ18 SBSR 190500
2020041905 - METAR SBSR 190500Z 16005KT 9999 FEW030 20/18 Q1020=
2020041906 - SABZ18 SBSR 190600
2020041906 - METAR SBSR 190600Z 18006KT CAVOK 19/18 Q1019=
2020041907 - SABZ18 SBSR 190700
2020041907 - METAR SBSR 190700Z 18005KT CAVOK 19/19 Q1019=
2020041908 - SABZ18 SBSR 190800
2020041908 - METAR SBSR 190800Z 17007KT CAVOK 18/18 Q1019=
2020041909 - SABZ18 SBSR 190900
2020041909 - METAR SBSR 190900Z 17004KT 9999 FEW040 18/18 Q1019=
2020041910 - SABZ18 SBSR 191000
2020041910 - METAR SBSR 191000Z 16003KT 8000 SCT040 18/18 Q1020=
2020041911 - SABZ18 SBSR 191100
2020041911 - METAR SBSR 191100Z 15005KT 8000 BKN040 18/18 Q1020=
2020041912 - SABZ18 SBSR 191200
2020041912 - METAR SBSR 191200Z 17006KT 9999 BKN040 20/18 Q1021=
2020041913 - SABZ18 SBSR 191300
2020041913 - METAR SBSR 191300Z 09005KT 9999 SCT040 22/18 Q1021=
2020041914 - SABZ18 SBSR 191400
2020041914 - METAR SBSR 191400Z 14006KT 9999 FEW025 25/19 Q1021=
2020041915 - SABZ18 SBSR 191500
2020041915 - METAR SBSR 191500Z 08005KT 9999 FEW030 27/20 Q1020=
2020041916 - SABZ18 SBSR 191600
2020041916 - METAR SBSR 191600Z 04006KT 9999 BKN030 28/20 Q1019=
2020041917 - SABZ18 SBSR 191700
2020041917 - METAR SBSR 191700Z 04008KT 9999 BKN030 28/20 Q1018=
2020041918 - SABZ18 SBSR 191800
2020041918 - METAR SBSR 191800Z 04007KT 9999 BKN030 28/20 Q1018=
2020041919 - SABZ18 SBSR 191900
2020041919 - METAR SBSR 191900Z 08005KT 9999 BKN030 FEW035TCU 28/19 Q1017=
2020041920 - SABZ18 SBSR 192000
2020041920 - METAR SBSR 192000Z 13003KT 9999 VCSH BKN030 FEW035TCU 28/20 Q1017=
2020041921 - SABZ18 SBSR 192100
2020041921 - METAR SBSR 192100Z 17006KT 9999 VCSH SCT025 FEW030TCU 27/21 Q1018=
2020041922 - SABZ18 SBSR 192200
2020041922 - METAR SBSR 192200Z 11004KT 9999 VCSH SCT030 FEW040TCU 25/19 Q1018=
2020041923 - SABZ18 SBSR 192300
2020041923 - METAR SBSR 192300Z 17002KT 9999 FEW035 24/18 Q1019=
2020042000 - SABZ18 SBSR 200000
2020042000 - METAR SBSR 200000Z 11006KT 9999 FEW030 23/20 Q1019=
2020042001 - SABZ18 SBSR 200100
2020042001 - METAR SBSR 200100Z 00000KT CAVOK 23/20 Q1019=
2020042002 - SABZ18 SBSR 200200
2020042002 - METAR SBSR 200200Z 08007KT CAVOK 23/20 Q1019=
2020042003 - SABZ18 SBSR 200300
2020042003 - METAR SBSR 200300Z 16003KT CAVOK 22/19 Q1019=
2020042004 - SABZ18 SBSR 200400
2020042004 - METAR SBSR 200400Z 16004KT CAVOK 22/19 Q1019=
2020042005 - SABZ18 SBSR 200500
2020042005 - METAR SBSR 200500Z 14002KT CAVOK 22/21 Q1019=
2020042006 - SABZ18 SBSR 200600
2020042006 - METAR SBSR 200600Z 14007KT CAVOK 22/21 Q1018=
2020042007 - SABZ18 SBSR 200700
2020042007 - METAR SBSR 200700Z 14002KT CAVOK 21/20 Q1018=
2020042008 - SABZ18 SBSR 200800
2020042008 - METAR SBSR 200800Z 14003KT 9999 FEW025 21/20 Q1018=
2020042009 - SABZ18 SBSR 200900
2020042009 - METAR SBSR 200900Z 16003KT CAVOK 20/19 Q1018=
2020042010 - SABZ18 SBSR 201000
2020042010 - METAR SBSR 201000Z 14004KT CAVOK 20/19 Q1019=
2020042011 - SABZ18 SBSR 201100
2020042011 - METAR SBSR 201100Z 14004KT CAVOK 21/20 Q1020=
2020042012 - SABZ18 SBSR 201200
2020042012 - METAR SBSR 201200Z 12005KT CAVOK 22/18 Q1020=
2020042013 - SABZ18 SBSR 201300
2020042013 - METAR SBSR 201300Z 11006KT CAVOK 24/18 Q1020=
2020042014 - SABZ18 SBSR 201400
2020042014 - METAR SBSR 201400Z 10006KT CAVOK 26/15 Q1020=
2020042015 - SABZ18 SBSR 201500
2020042015 - METAR SBSR 201500Z 07006KT 9999 FEW025 27/13 Q1020=
2020042016 - SABZ18 SBSR 201600
2020042016 - METAR SBSR 201600Z 07005KT 9999 SCT025 28/14 Q1019=
2020042017 - SABZ18 SBSR 201700
2020042017 - METAR SBSR 201700Z 12003KT 9999 BKN025 28/14 Q1018=
2020042018 - SABZ18 SBSR 201800
2020042018 - METAR SBSR 201800Z 11003KT 9999 BKN025 28/13 Q1017=
2020042019 - SABZ18 SBSR 201900
2020042019 - METAR SBSR 201900Z 12007KT 9999 SCT025 28/14 Q1017=
2020042020 - SABZ18 SBSR 202000
2020042020 - METAR SBSR 202000Z 16003KT 9999 FEW025 28/13 Q1016=
2020042021 - SABZ18 SBSR 202100
2020042021 - METAR SBSR 202100Z 18005KT CAVOK 27/14 Q1016=
2020042022 - SABZ18 SBSR 202200
2020042022 - METAR SBSR 202200Z 15002KT CAVOK 26/14 Q1017=
2020042023 - SABZ18 SBSR 202300
2020042023 - METAR SBSR 202300Z 15003KT CAVOK 25/14 Q1017=
2020042100 - SABZ18 SBSR 210000
2020042100 - METAR SBSR 210000Z 18004KT CAVOK 25/14 Q1018=
2020042101 - SABZ18 SBSR 210100
2020042101 - METAR SBSR 210100Z 18003KT CAVOK 24/14 Q1018=
2020042102 - SABZ18 SBSR 210200
2020042102 - METAR SBSR 210200Z 15002KT CAVOK 23/13 Q1018=
2020042103 - SABZ18 SBSR 210300
2020042103 - METAR SBSR 210300Z 18004KT CAVOK 23/13 Q1018=
2020042104 - SABZ18 SBSR 210400
2020042104 - METAR SBSR 210400Z 15005KT CAVOK 23/13 Q1018=
2020042105 - SABZ18 SBSR 210500
2020042105 - METAR SBSR 210500Z 12004KT CAVOK 22/13 Q1018=
2020042106 - SABZ18 SBSR 210600
2020042106 - METAR SBSR 210600Z 16004KT CAVOK 21/13 Q1018=
2020042107 - SABZ18 SBSR 210700
2020042107 - METAR SBSR 210700Z 12003KT CAVOK 21/13 Q1017=
2020042108 - SABZ18 SBSR 210800
2020042108 - METAR SBSR 210800Z 12006KT CAVOK 21/12 Q1017=
2020042109 - SABZ18 SBSR 210900
2020042109 - METAR SBSR 210900Z 15004KT CAVOK 20/12 Q1017=
2020042110 - SABZ18 SBSR 211000
2020042110 - METAR SBSR 211000Z 17005KT CAVOK 19/12 Q1018=
2020042111 - SABZ18 SBSR 211100
2020042111 - METAR SBSR 211100Z 16005KT CAVOK 21/12 Q1018=
2020042112 - SABZ18 SBSR 211200
2020042112 - METAR SBSR 211200Z 13004KT CAVOK 23/13 Q1019=
2020042113 - SABZ18 SBSR 211300
2020042113 - METAR SBSR 211300Z 13005KT CAVOK 25/14 Q1019=
2020042114 - SABZ18 SBSR 211400
2020042114 - METAR SBSR 211400Z 06004KT CAVOK 27/15 Q1019=
2020042115 - SABZ18 SBSR 211500
2020042115 - METAR SBSR 211500Z 00000KT CAVOK 28/14 Q1018=
2020042116 - SABZ18 SBSR 211600
2020042116 - METAR SBSR 211600Z 24003KT 9999 BKN025 29/12 Q1017=
2020042117 - SABZ18 SBSR 211700
2020042117 - METAR SBSR 211700Z 18003KT 9999 SCT025 29/12 Q1016=
2020042118 - SABZ18 SBSR 211800
2020042118 - METAR SBSR 211800Z 24003KT 9999 SCT025 30/11 Q1015=
2020042119 - SABZ18 SBSR 211900
2020042119 - METAR SBSR 211900Z 24006KT 9999 FEW025 30/11 Q1015=
2020042120 - SABZ18 SBSR 212000
2020042120 - METAR SBSR 212000Z 23007KT 9999 FEW025 29/11 Q1015=
2020042121 - SABZ18 SBSR 212100
2020042121 - METAR SBSR 212100Z 21008KT CAVOK 28/12 Q1015=
2020042122 - SABZ18 SBSR 212200
2020042122 - METAR SBSR 212200Z 21006KT CAVOK 26/12 Q1015=
2020042123 - SABZ18 SBSR 212300
2020042123 - METAR SBSR 212300Z 18003KT CAVOK 25/11 Q1016=
2020042200 - SABZ18 SBSR 220000
2020042200 - METAR SBSR 220000Z 21004KT CAVOK 25/11 Q1017=
2020042201 - SABZ18 SBSR 220100
2020042201 - METAR SBSR 220100Z 00000KT CAVOK 24/11 Q1017=
2020042202 - SABZ18 SBSR 220200
2020042202 - METAR SBSR 220200Z 15004KT CAVOK 23/10 Q1017=
2020042203 - SABZ18 SBSR 220300
2020042203 - METAR SBSR 220300Z 16004KT CAVOK 23/11 Q1017=
2020042204 - SABZ18 SBSR 220400
2020042204 - METAR SBSR 220400Z 18005KT CAVOK 22/11 Q1017=
2020042205 - SABZ18 SBSR 220500
2020042205 - METAR SBSR 220500Z 15006KT CAVOK 22/10 Q1017=
2020042206 - SABZ18 SBSR 220600
2020042206 - METAR SBSR 220600Z 15004KT CAVOK 21/10 Q1016=
2020042207 - SABZ18 SBSR 220700
2020042207 - METAR SBSR 220700Z 15004KT CAVOK 20/11 Q1016=
2020042208 - SABZ18 SBSR 220800
2020042208 - METAR SBSR 220800Z 15005KT CAVOK 20/11 Q1016=
2020042209 - SABZ18 SBSR 220900
2020042209 - METAR SBSR 220900Z 12004KT CAVOK 19/11 Q1016=
2020042210 - SABZ18 SBSR 221000
2020042210 - METAR SBSR 221000Z 12007KT CAVOK 19/11 Q1017=
2020042211 - SABZ18 SBSR 221100
2020042211 - METAR SBSR 221100Z 13006KT CAVOK 21/11 Q1017=
2020042212 - SABZ18 SBSR 221200
2020042212 - METAR SBSR 221200Z 12009KT CAVOK 23/10 Q1018=
2020042213 - SABZ18 SBSR 221300
2020042213 - METAR SBSR 221300Z 12007KT CAVOK 26/11 Q1018=
2020042214 - SABZ18 SBSR 221400
2020042214 - METAR SBSR 221400Z 12007KT CAVOK 27/09 Q1018=
2020042215 - SABZ18 SBSR 221500
2020042215 - METAR SBSR 221500Z 12007KT CAVOK 28/09 Q1017=
2020042216 - SABZ18 SBSR 221600
2020042216 - METAR SBSR 221600Z 15003KT 9999 FEW025 29/10 Q1016=
2020042217 - SABZ18 SBSR 221700
2020042217 - METAR SBSR 221700Z 24003KT 9999 SCT025 30/10 Q1016=
2020042218 - SABZ18 SBSR 221800
2020042218 - METAR SBSR 221800Z 21005KT 9999 FEW025 30/10 Q1015=
2020042219 - SABZ18 SBSR 221900
2020042219 - METAR SBSR 221900Z 27002KT 9999 FEW025 29/10 Q1014=
2020042220 - SABZ18 SBSR 222000
2020042220 - METAR SBSR 222000Z 24008KT CAVOK 29/09 Q1014=
2020042221 - SABZ18 SBSR 222100
2020042221 - METAR SBSR 222100Z 25006KT CAVOK 27/09 Q1014=
2020042222 - SABZ18 SBSR 222200
2020042222 - METAR SBSR 222200Z 21008KT CAVOK 26/08 Q1015=
2020042223 - SABZ18 SBSR 222300
2020042223 - METAR SBSR 222300Z 21006KT CAVOK 25/08 Q1015=
2020042300 - SABZ18 SBSR 230000
2020042300 - METAR SBSR 230000Z 18003KT CAVOK 24/08 Q1016=
2020042301 - SABZ18 SBSR 230100
2020042301 - METAR SBSR 230100Z 00000KT CAVOK 23/09 Q1016=
2020042302 - SABZ18 SBSR 230200
2020042302 - METAR SBSR 230200Z 15004KT CAVOK 23/09 Q1016=
2020042303 - SABZ18 SBSR 230300
2020042303 - METAR SBSR 230300Z 18009KT CAVOK 22/09 Q1016=
2020042304 - SABZ18 SBSR 230400
2020042304 - METAR SBSR 230400Z 18007KT CAVOK 21/09 Q1016=
2020042305 - SABZ18 SBSR 230500
2020042305 - METAR SBSR 230500Z 15004KT CAVOK 20/08 Q1016=
2020042306 - SABZ18 SBSR 230600
2020042306 - METAR SBSR 230600Z 16004KT CAVOK 19/08 Q1016=
2020042307 - SABZ18 SBSR 230700
2020042307 - METAR SBSR 230700Z 15005KT CAVOK 19/09 Q1016=
2020042308 - SABZ18 SBSR 230800
2020042308 - METAR SBSR 230800Z 15004KT CAVOK 18/09 Q1016=
2020042309 - SABZ18 SBSR 230900
2020042309 - METAR SBSR 230900Z 18003KT CAVOK 18/09 Q1016=
2020042310 - SABZ18 SBSR 231000
2020042310 - METAR SBSR 231000Z 21002KT CAVOK 17/09 Q1017=
2020042311 - SABZ18 SBSR 231100
2020042311 - METAR SBSR 231100Z 18003KT CAVOK 19/09 Q1018=
2020042312 - SABZ18 SBSR 231200
2020042312 - METAR SBSR 231200Z 12004KT CAVOK 22/09 Q1018=
2020042313 - SABZ18 SBSR 231300
2020042313 - METAR SBSR 231300Z 12007KT CAVOK 24/09 Q1018=
2020042314 - SABZ18 SBSR 231400
2020042314 - METAR SBSR 231400Z 16005KT CAVOK 26/08 Q1018=
2020042315 - SABZ18 SBSR 231500
2020042315 - METAR SBSR 231500Z 15003KT CAVOK 28/08 Q1017=
2020042316 - SABZ18 SBSR 231600
2020042316 - METAR SBSR 231600Z 21007KT CAVOK 28/09 Q1016=
2020042317 - SABZ18 SBSR 231700
2020042317 - METAR SBSR 231700Z 27003KT CAVOK 29/09 Q1016=
2020042318 - SABZ18 SBSR 231800
2020042318 - METAR SBSR 231800Z 19006KT CAVOK 29/08 Q1015=
2020042319 - SABZ18 SBSR 231900
2020042319 - METAR SBSR 231900Z 21004KT CAVOK 29/08 Q1015=
2020042320 - SABZ18 SBSR 232000
2020042320 - METAR SBSR 232000Z 23007KT CAVOK 28/09 Q1015=
2020042321 - SABZ18 SBSR 232100
2020042321 - METAR SBSR 232100Z 21007KT CAVOK 27/08 Q1015=
2020042322 - SABZ18 SBSR 232200
2020042322 - METAR SBSR 232200Z 19006KT CAVOK 25/08 Q1015=
2020042323 - SABZ18 SBSR 232300
2020042323 - METAR SBSR 232300Z 20003KT CAVOK 24/09 Q1016=
2020042400 - SABZ18 SBSR 240000
2020042400 - METAR SBSR 240000Z 22003KT CAVOK 24/07 Q1016=
2020042401 - SABZ18 SBSR 240100
2020042401 - METAR SBSR 240100Z 00000KT CAVOK 23/06 Q1016=
2020042402 - SABZ18 SBSR 240200
2020042402 - METAR SBSR 240200Z 00000KT CAVOK 22/07 Q1016=
2020042403 - SABZ18 SBSR 240300
2020042403 - METAR SBSR 240300Z 00000KT CAVOK 22/08 Q1016=
2020042404 - SABZ18 SBSR 240400
2020042404 - METAR SBSR 240400Z 15003KT CAVOK 21/07 Q1016=
2020042405 - SABZ18 SBSR 240500
2020042405 - METAR SBSR 240500Z 00000KT CAVOK 21/07 Q1016=
2020042406 - SABZ18 SBSR 240600
2020042406 - METAR SBSR 240600Z 00000KT CAVOK 20/08 Q1016=
2020042407 - SABZ18 SBSR 240700 RRA
2020042407 - METAR SBSR 240700Z 00000KT CAVOK 19/09 Q1016=
2020042408 - SABZ18 SBSR 240800
2020042408 - METAR SBSR 240800Z 00000KT CAVOK 19/09 Q1016=
2020042409 - SABZ18 SBSR 240900
2020042409 - METAR SBSR 240900Z 00000KT CAVOK 19/09 Q1016=
2020042410 - SABZ18 SBSR 241000
2020042410 - METAR SBSR 241000Z 13005KT CAVOK 18/10 Q1017=
2020042411 - SABZ18 SBSR 241100
2020042411 - METAR SBSR 241100Z 13006KT CAVOK 20/10 Q1018=
2020042412 - SABZ18 SBSR 241200
2020042412 - METAR SBSR 241200Z 12004KT CAVOK 22/12 Q1019=
2020042413 - SABZ18 SBSR 241300
2020042413 - METAR SBSR 241300Z 07002KT CAVOK 25/14 Q1019=
2020042414 - SABZ18 SBSR 241400
2020042414 - METAR SBSR 241400Z 02006KT CAVOK 27/15 Q1019=
2020042415 - SABZ18 SBSR 241500
2020042415 - METAR SBSR 241500Z 06008KT 9999 FEW030 28/15 Q1018=
2020042416 - SABZ18 SBSR 241600
2020042416 - METAR SBSR 241600Z 04007KT 9999 SCT030 29/14 Q1017=
2020042417 - SABZ18 SBSR 241700
2020042417 - METAR SBSR 241700Z 07007KT 9999 SCT035 30/14 Q1016=
2020042418 - SABZ18 SBSR 241800
2020042418 - METAR SBSR 241800Z 03004KT 9999 SCT030 31/13 Q1016=
2020042419 - SABZ18 SBSR 241900
2020042419 - METAR SBSR 241900Z 08004KT 9999 SCT030 30/13 Q1016=
2020042420 - SABZ18 SBSR 242000
2020042420 - METAR SBSR 242000Z 07007KT 9999 FEW030 30/12 Q1016=
2020042421 - SABZ18 SBSR 242100
2020042421 - METAR SBSR 242100Z 09006KT CAVOK 29/13 Q1016=
2020042422 - SABZ18 SBSR 242200
2020042422 - METAR SBSR 242200Z 10003KT CAVOK 28/13 Q1016=
2020042423 - SABZ18 SBSR 242300
2020042423 - METAR SBSR 242300Z 13005KT CAVOK 27/14 Q1017=
2020042500 - SABZ18 SBSR 250000
2020042500 - METAR SBSR 250000Z 08003KT CAVOK 26/15 Q1017=
2020042501 - SABZ18 SBSR 250100
2020042501 - METAR SBSR 250100Z 12004KT CAVOK 26/14 Q1018=
2020042502 - SABZ18 SBSR 250200
2020042502 - METAR SBSR 250200Z 00000KT CAVOK 25/15 Q1018=
2020042503 - SABZ18 SBSR 250300
2020042503 - METAR SBSR 250300Z 10008KT 9999 SCT020 25/14 Q1018=
2020042504 - SABZ18 SBSR 250400
2020042504 - METAR SBSR 250400Z 10004KT CAVOK 24/15 Q1018=
2020042505 - SABZ18 SBSR 250500
2020042505 - METAR SBSR 250500Z 09004KT CAVOK 23/15 Q1018=
2020042506 - SABZ18 SBSR 250600
2020042506 - METAR SBSR 250600Z 05005KT CAVOK 23/15 Q1018=
2020042507 - SABZ18 SBSR 250700
2020042507 - METAR SBSR 250700Z 06005KT CAVOK 21/15 Q1018=
2020042508 - SABZ18 SBSR 250800
2020042508 - METAR SBSR 250800Z 08005KT CAVOK 21/25 Q1018=
2020042509 - SABZ18 SBSR 250900
2020042509 - METAR SBSR 250900Z 08005KT CAVOK 21/15 Q1019=
2020042510 - SABZ18 SBSR 251000
2020042510 - METAR SBSR 251000Z 09007KT CAVOK 21/15 Q1020=
2020042511 - SABZ18 SBSR 251100
2020042511 - METAR SBSR 251100Z 09005KT CAVOK 22/15 Q1020=
2020042512 - SABZ18 SBSR 251200
2020042512 - METAR SBSR 251200Z 07011KT CAVOK 24/14 Q1021=
2020042513 - SABZ18 SBSR 251300
2020042513 - METAR SBSR 251300Z 06012KT CAVOK 25/14 Q1021=
2020042514 - SABZ18 SBSR 251400
2020042514 - METAR SBSR 251400Z 06010KT CAVOK 27/14 Q1021=
2020042515 - SABZ18 SBSR 251500
2020042515 - METAR SBSR 251500Z 04009KT CAVOK 28/12 Q1020=
2020042516 - SABZ18 SBSR 251600
2020042516 - METAR SBSR 251600Z 07006KT 9999 FEW025 29/13 Q1019=
2020042517 - SABZ18 SBSR 251700
2020042517 - METAR SBSR 251700Z 05004KT 9999 SCT030 30/12 Q1018=
2020042518 - SABZ18 SBSR 251800
2020042518 - METAR SBSR 251800Z 11005KT 9999 SCT030 30/11 Q1018=
2020042519 - SABZ18 SBSR 251900
2020042519 - METAR SBSR 251900Z 17002KT 9999 SCT030 31/10 Q1017=
2020042520 - SABZ18 SBSR 252000
2020042520 - METAR SBSR 252000Z 15004KT 9999 FEW030 30/11 Q1018=
2020042521 - SABZ18 SBSR 252100
2020042521 - METAR SBSR 252100Z 17003KT 9999 FEW035 29/10 Q1018=
2020042522 - SABZ18 SBSR 252200
2020042522 - METAR SBSR 252200Z 00000KT CAVOK 28/11 Q1019=
2020042523 - SABZ18 SBSR 252300
2020042523 - METAR SBSR 252300Z 00000KT CAVOK 27/11 Q1019=
2020042600 - SABZ18 SBSR 260000
2020042600 - METAR SBSR 260000Z 00000KT CAVOK 26/12 Q1020=
2020042601 - SABZ18 SBSR 260100
2020042601 - METAR SBSR 260100Z 00000KT 9999 SCT030 26/12 Q1020=
2020042602 - SABZ18 SBSR 260200
2020042602 - METAR SBSR 260200Z 00000KT 9999 FEW030 25/12 Q1020=
2020042603 - SABZ18 SBSR 260300
2020042603 - METAR SBSR 260300Z 11005KT CAVOK 24/12 Q1020=
2020042604 - SABZ18 SBSR 260400
2020042604 - METAR SBSR 260400Z 10008KT CAVOK 24/12 Q1020=
2020042605 - SABZ18 SBSR 260500
2020042605 - METAR SBSR 260500Z 09004KT CAVOK 22/11 Q1020=
2020042606 - SABZ18 SBSR 260600
2020042606 - METAR SBSR 260600Z 08005KT CAVOK 22/12 Q1019=
2020042607 - SABZ18 SBSR 260700
2020042607 - METAR SBSR 260700Z 00000KT CAVOK 21/12 Q1019=
2020042608 - SABZ18 SBSR 260800
2020042608 - METAR SBSR 260800Z 00000KT CAVOK 20/12 Q1020=
2020042609 - SABZ18 SBSR 260900
2020042609 - METAR SBSR 260900Z 00000KT CAVOK 20/12 Q1020=
2020042610 - SABZ18 SBSR 261000
2020042610 - METAR SBSR 261000Z 05002KT CAVOK 20/12 Q1021=
2020042611 - SABZ18 SBSR 261100
2020042611 - METAR SBSR 261100Z 06004KT CAVOK 22/12 Q1022=
2020042612 - SABZ18 SBSR 261200
2020042612 - METAR SBSR 261200Z 09005KT CAVOK 23/12 Q1022=
2020042613 - SABZ18 SBSR 261300
2020042613 - METAR SBSR 261300Z 08004KT CAVOK 26/12 Q1023=
2020042614 - SABZ18 SBSR 261400
2020042614 - METAR SBSR 261400Z 07006KT CAVOK 27/10 Q1023=
2020042615 - SABZ18 SBSR 261500
2020042615 - METAR SBSR 261500Z 14008KT 9999 FEW035 28/10 Q1022=
2020042616 - SABZ18 SBSR 261600
2020042616 - METAR SBSR 261600Z 15005KT 9999 FEW035 29/09 Q1021=
2020042617 - SABZ18 SBSR 261700
2020042617 - METAR SBSR 261700Z 16009KT CAVOK 29/09 Q1020=
2020042618 - SABZ18 SBSR 261800
2020042618 - METAR SBSR 261800Z 13008KT CAVOK 30/08 Q1019=
2020042619 - SABZ18 SBSR 261900
2020042619 - METAR SBSR 261900Z 12007KT CAVOK 30/08 Q1019=
2020042620 - SABZ18 SBSR 262000
2020042620 - METAR SBSR 262000Z 09006KT CAVOK 29/08 Q1019=
2020042621 - SABZ18 SBSR 262100
2020042621 - METAR SBSR 262100Z 13006KT CAVOK 28/08 Q1019=
2020042622 - SABZ18 SBSR 262200
2020042622 - METAR SBSR 262200Z 16003KT CAVOK 26/09 Q1019=
2020042623 - SABZ18 SBSR 262300
2020042623 - METAR SBSR 262300Z 21002KT CAVOK 26/09 Q1019=
2020042700 - SABZ18 SBSR 270000
2020042700 - METAR SBSR 270000Z 14003KT CAVOK 25/10 Q1020=
2020042701 - SABZ18 SBSR 270100
2020042701 - METAR SBSR 270100Z 21002KT CAVOK 24/10 Q1020=
2020042702 - SABZ18 SBSR 270200
2020042702 - METAR SBSR 270200Z 17004KT CAVOK 24/09 Q1020=
2020042703 - SABZ18 SBSR 270300
2020042703 - METAR SBSR 270300Z 17006KT CAVOK 23/09 Q1021=
2020042704 - SABZ18 SBSR 270400
2020042704 - METAR SBSR 270400Z 15003KT CAVOK 23/10 Q1020=
2020042705 - SABZ18 SBSR 270500
2020042705 - METAR SBSR 270500Z 14004KT CAVOK 23/10 Q1020=
2020042706 - SABZ18 SBSR 270600
2020042706 - METAR SBSR 270600Z 13004KT CAVOK 22/20 Q1020=
2020042707 - SABZ18 SBSR 270700
2020042707 - METAR SBSR 270700Z 17007KT CAVOK 21/10 Q1020=
2020042708 - SABZ18 SBSR 270800
2020042708 - METAR SBSR 270800Z 16007KT CAVOK 19/11 Q1020=
2020042709 - SABZ18 SBSR 270900
2020042709 - METAR SBSR 270900Z 15005KT CAVOK 18/11 Q1021=
2020042710 - SABZ18 SBSR 271000
2020042710 - METAR SBSR 271000Z 15005KT CAVOK 18/11 Q1022=
2020042711 - SABZ18 SBSR 271100
2020042711 - METAR SBSR 271100Z 12008KT CAVOK 19/11 Q1022=
2020042712 - SABZ18 SBSR 271200
2020042712 - METAR SBSR 271200Z 15008KT CAVOK 21/12 Q1023=
2020042713 - SABZ18 SBSR 271300
2020042713 - METAR SBSR 271300Z 12007KT CAVOK 23/12 Q1023=
2020042714 - SABZ18 SBSR 271400
2020042714 - METAR SBSR 271400Z 12009KT CAVOK 26/11 Q1023=
2020042715 - SABZ18 SBSR 271500
2020042715 - METAR SBSR 271500Z 07007KT CAVOK 27/11 Q1022=
2020042716 - SABZ18 SBSR 271600
2020042716 - METAR SBSR 271600Z 10004KT 9999 SCT030 28/10 Q1021=
2020042717 - SABZ18 SBSR 271700
2020042717 - METAR SBSR 271700Z 09008KT 9999 SCT030 30/09 Q1020=
2020042718 - SABZ18 SBSR 271800
2020042718 - METAR SBSR 271800Z 09007KT 9999 SCT030 29/08 Q1019=
2020042719 - SABZ18 SBSR 271900
2020042719 - METAR SBSR 271900Z 12008KT CAVOK 29/08 Q1018=
2020042720 - SABZ18 SBSR 272000
2020042720 - METAR SBSR 272000Z 09008KT 9999 SCT030 29/09 Q1018=
2020042721 - SABZ18 SBSR 272100
2020042721 - METAR SBSR 272100Z 15004KT 9999 SCT030 28/10 Q1019=
2020042722 - SABZ18 SBSR 272200
2020042722 - METAR SBSR 272200Z 16004KT 9999 SCT030 27/09 Q1019=
2020042723 - SABZ18 SBSR 272300
2020042723 - METAR SBSR 272300Z 14008KT 9999 FEW030 26/09 Q1019=
2020042800 - SABZ18 SBSR 280000
2020042800 - METAR SBSR 280000Z 13007KT 9999 FEW030 25/09 Q1020=
2020042801 - SABZ18 SBSR 280100
2020042801 - METAR SBSR 280100Z 14008KT CAVOK 24/10 Q1020=
2020042802 - SABZ18 SBSR 280200
2020042802 - METAR SBSR 280200Z 13007KT CAVOK 23/11 Q1020=
2020042803 - SABZ18 SBSR 280300
2020042803 - METAR SBSR 280300Z 14006KT CAVOK 22/11 Q1020=
2020042804 - SABZ18 SBSR 280400
2020042804 - METAR SBSR 280400Z 13008KT CAVOK 22/09 Q1020=
2020042805 - SABZ18 SBSR 280500
2020042805 - METAR SBSR 280500Z 12006KT CAVOK 20/10 Q1020=
2020042806 - SABZ18 SBSR 280600
2020042806 - METAR SBSR 280600Z 13003KT CAVOK 20/10 Q1019=
2020042807 - SABZ18 SBSR 280700
2020042807 - METAR SBSR 280700Z 14004KT CAVOK 19/10 Q1020=
2020042808 - SABZ18 SBSR 280800
2020042808 - METAR SBSR 280800Z 16003KT CAVOK 18/11 Q1020=
2020042809 - SABZ18 SBSR 280900
2020042809 - METAR SBSR 280900Z 11005KT CAVOK 17/11 Q1020=
2020042810 - SABZ18 SBSR 281000
2020042810 - METAR SBSR 281000Z 12006KT CAVOK 17/10 Q1021=
2020042811 - SABZ18 SBSR 281100
2020042811 - METAR SBSR 281100Z 09006KT CAVOK 19/10 Q1022=
2020042812 - SABZ18 SBSR 281200
2020042812 - METAR SBSR 281200Z 09010KT CAVOK 21/10 Q1023=
2020042813 - SABZ18 SBSR 281300
2020042813 - METAR SBSR 281300Z 09012KT CAVOK 23/10 Q1023=
2020042814 - SABZ18 SBSR 281400
2020042814 - METAR SBSR 281400Z 06013KT CAVOK 25/09 Q1023=
2020042815 - SABZ18 SBSR 281500
2020042815 - METAR SBSR 281500Z 09011KT 9999 FEW025 26/09 Q1022=
2020042816 - SABZ18 SBSR 281600
2020042816 - METAR SBSR 281600Z 04007KT 9999 FEW025 27/08 Q1020=
2020042817 - SABZ18 SBSR 281700
2020042817 - METAR SBSR 281700Z 09010KT CAVOK 27/08 Q1019=
2020042818 - SABZ18 SBSR 281800
2020042818 - METAR SBSR 281800Z 09004KT CAVOK 28/08 Q1019=
2020042819 - SABZ18 SBSR 281900
2020042819 - METAR SBSR 281900Z 09005KT CAVOK 28/08 Q1018=
2020042820 - SABZ18 SBSR 282000
2020042820 - METAR SBSR 282000Z 09007KT CAVOK 28/08 Q1018=
2020042821 - SABZ18 SBSR 282100
2020042821 - METAR SBSR 282100Z 09007KT CAVOK 27/08 Q1019=
2020042822 - SABZ18 SBSR 282200
2020042822 - METAR SBSR 282200Z 09004KT CAVOK 25/08 Q1019=
2020042823 - SABZ18 SBSR 282300
2020042823 - METAR SBSR 282300Z 10005KT CAVOK 24/09 Q1020=
2020042900 - SABZ18 SBSR 290000
2020042900 - METAR SBSR 290000Z 13004KT CAVOK 23/09 Q1020=
2020042901 - SABZ18 SBSR 290100
2020042901 - METAR SBSR 290100Z 12007KT CAVOK 23/10 Q1021=
2020042902 - SABZ18 SBSR 290200
2020042902 - METAR SBSR 290200Z 11006KT CAVOK 22/10 Q1021=
2020042903 - SABZ18 SBSR 290300
2020042903 - METAR SBSR 290300Z 11006KT CAVOK 21/10 Q1020=
2020042904 - SABZ18 SBSR 290400
2020042904 - METAR SBSR 290400Z 10006KT CAVOK 21/10 Q1020=
2020042905 - SABZ18 SBSR 290500
2020042905 - METAR SBSR 290500Z 08007KT CAVOK 20/10 Q1020=
2020042906 - SABZ18 SBSR 290600
2020042906 - METAR SBSR 290600Z 08004KT CAVOK 20/10 Q1020=
2020042907 - SABZ18 SBSR 290700
2020042907 - METAR SBSR 290700Z 08005KT CAVOK 19/10 Q1020=
2020042908 - SABZ18 SBSR 290800
2020042908 - METAR SBSR 290800Z 08002KT CAVOK 19/10 Q1020=
2020042909 - SABZ18 SBSR 290900
2020042909 - METAR SBSR 290900Z 09003KT CAVOK 18/11 Q1020=
2020042910 - SABZ18 SBSR 291000
2020042910 - METAR SBSR 291000Z 09003KT CAVOK 18/10 Q1021=
2020042911 - SABZ18 SBSR 291100
2020042911 - METAR SBSR 291100Z 09005KT CAVOK 20/11 Q1022=
2020042912 - SABZ18 SBSR 291200
2020042912 - METAR SBSR 291200Z 09006KT CAVOK 22/11 Q1022=
2020042913 - SABZ18 SBSR 291300
2020042913 - METAR SBSR 291300Z 06004KT CAVOK 24/10 Q1023=
2020042914 - SABZ18 SBSR 291400
2020042914 - METAR SBSR 291400Z 03003KT CAVOK 25/11 Q1022=
2020042915 - SABZ18 SBSR 291500
2020042915 - METAR SBSR 291500Z 23004KT 9999 FEW025 28/09 Q1021=
2020042916 - SABZ18 SBSR 291600
2020042916 - METAR SBSR 291600Z VRB02KT CAVOK 28/09 Q1020=
2020042917 - SABZ18 SBSR 291700
2020042917 - METAR SBSR 291700Z 18003KT CAVOK 28/08 Q1019=
2020042918 - SABZ18 SBSR 291800
2020042918 - METAR SBSR 291800Z 27004KT CAVOK 28/08 Q1018=
2020042919 - SABZ18 SBSR 291900
2020042919 - METAR SBSR 291900Z VRB04KT CAVOK 29/08 Q1018=
2020042920 - SABZ18 SBSR 292000
2020042920 - METAR SBSR 292000Z 27003KT CAVOK 28/08 Q1018=
2020042921 - SABZ18 SBSR 292100
2020042921 - METAR SBSR 292100Z 18005KT CAVOK 27/07 Q1018=
2020042922 - SABZ18 SBSR 292200
2020042922 - METAR SBSR 292200Z 18002KT CAVOK 26/08 Q1018=
2020042923 - SABZ18 SBSR 292300
2020042923 - METAR SBSR 292300Z 00000KT CAVOK 24/09 Q1019=
2020043000 - SABZ18 SBSR 300000
2020043000 - METAR SBSR 300000Z 00000KT CAVOK 22/12 Q1019=
2020043001 - SABZ18 SBSR 300100
2020043001 - METAR SBSR 300100Z 00000KT CAVOK 21/10 Q1019=
2020043002 - SABZ18 SBSR 300200
2020043002 - METAR SBSR 300200Z 00000KT CAVOK 21/11 Q1019=
2020043003 - SABZ18 SBSR 300300
2020043003 - METAR SBSR 300300Z 00000KT CAVOK 20/11 Q1019=
2020043004 - SABZ18 SBSR 300400
2020043004 - METAR SBSR 300400Z 00000KT CAVOK 19/11 Q1018=
2020043005 - SABZ18 SBSR 300500
2020043005 - METAR SBSR 300500Z 00000KT CAVOK 19/12 Q1018=
2020043006 - SABZ18 SBSR 300600
2020043006 - METAR SBSR 300600Z 00000KT CAVOK 18/11 Q1018=
2020043007 - SABZ18 SBSR 300700
2020043007 - METAR SBSR 300700Z 00000KT CAVOK 18/11 Q1018=
2020043008 - SABZ18 SBSR 300800
2020043008 - METAR SBSR 300800Z 00000KT CAVOK 18/11 Q1018=
2020043009 - SABZ18 SBSR 300900 RRA
2020043009 - METAR SBSR 300900Z 00000KT 9999 FEW025 BKN070 17/11 Q1019=
2020043010 - SABZ18 SBSR 301000
2020043010 - METAR SBSR 301000Z 09002KT CAVOK 17/11 Q1020=
2020043011 - SABZ18 SBSR 301100
2020043011 - METAR SBSR 301100Z 07004KT CAVOK 20/10 Q1021=
2020043012 - SABZ18 SBSR 301200
2020043012 - METAR SBSR 301200Z 04005KT CAVOK 22/11 Q1021=
2020043013 - SABZ18 SBSR 301300
2020043013 - METAR SBSR 301300Z 04005KT CAVOK 25/12 Q1021=
2020043014 - SABZ18 SBSR 301400
2020043014 - METAR SBSR 301400Z 06005KT CAVOK 26/09 Q1021=
2020043015 - SABZ18 SBSR 301500
2020043015 - METAR SBSR 301500Z VRB03KT CAVOK 28/09 Q1020=
2020043016 - SABZ18 SBSR 301600
2020043016 - METAR SBSR 301600Z VRB05KT CAVOK 28/09 Q1019=
2020043017 - SABZ18 SBSR 301700
2020043017 - METAR SBSR 301700Z 01004KT CAVOK 29/08 Q1019=
2020043018 - SABZ18 SBSR 301800
2020043018 - METAR SBSR 301800Z 34003KT 9999 FEW025 30/08 Q1018=
2020043019 - SABZ18 SBSR 301900
2020043019 - METAR SBSR 301900Z 00000KT CAVOK 29/08 Q1017=
2020043020 - SABZ18 SBSR 302000
2020043020 - METAR SBSR 302000Z 27003KT CAVOK 29/08 Q1017=
2020043021 - SABZ18 SBSR 302100
2020043021 - METAR SBSR 302100Z 00000KT CAVOK 27/09 Q1018=
2020043022 - SABZ18 SBSR 302200
2020043022 - METAR SBSR 302200Z 00000KT CAVOK 26/09 Q1018=
2020043023 - SABZ18 SBSR 302300
2020043023 - METAR SBSR 302300Z 00000KT CAVOK 25/10 Q1019=
2020050100 - SABZ18 SBSR 010000
2020050100 - METAR SBSR 010000Z 00000KT CAVOK 23/11 Q1019=
2020050101 - SABZ18 SBSR 010100
2020050101 - METAR SBSR 010100Z 00000KT CAVOK 22/13 Q1020=
2020050102 - SABZ18 SBSR 010200
2020050102 - METAR SBSR 010200Z 00000KT CAVOK 21/13 Q1020=
2020050103 - SABZ18 SBSR 010300
2020050103 - METAR SBSR 010300Z 00000KT CAVOK 21/11 Q1020=
2020050104 - SABZ18 SBSR 010400
2020050104 - METAR SBSR 010400Z 00000KT CAVOK 19/12 Q1019=
2020050105 - SABZ18 SBSR 010500
2020050105 - METAR SBSR 010500Z 00000KT CAVOK 19/12 Q1019=
2020050106 - SABZ18 SBSR 010600
2020050106 - METAR SBSR 010600Z 00000KT CAVOK 18/12 Q1019=
2020050107 - SABZ18 SBSR 010700
2020050107 - METAR SBSR 010700Z 00000KT CAVOK 18/12 Q1019=
2020050108 - SABZ18 SBSR 010800
2020050108 - METAR SBSR 010800Z 00000KT CAVOK 17/11 Q1019=
2020050109 - SABZ18 SBSR 010900
2020050109 - METAR SBSR 010900Z 00000KT CAVOK 17/11 Q1019=
2020050110 - SABZ18 SBSR 011000
2020050110 - METAR SBSR 011000Z 00000KT CAVOK 17/11 Q1020=
2020050111 - SABZ18 SBSR 011100
2020050111 - METAR SBSR 011100Z 00000KT CAVOK 19/11 Q1021=
2020050112 - SABZ18 SBSR 011200
2020050112 - METAR SBSR 011200Z 05005KT CAVOK 22/12 Q1022=
2020050113 - SABZ18 SBSR 011300
2020050113 - METAR SBSR 011300Z 07003KT CAVOK 25/12 Q1022=
2020050114 - SABZ18 SBSR 011400
2020050114 - METAR SBSR 011400Z 03004KT CAVOK 27/10 Q1022=
2020050115 - SABZ18 SBSR 011500
2020050115 - METAR SBSR 011500Z 00000KT CAVOK 29/08 Q1021=
2020050116 - SABZ18 SBSR 011600
2020050116 - METAR SBSR 011600Z 19004KT CAVOK 29/08 Q1020=
2020050117 - SABZ18 SBSR 011700
2020050117 - METAR SBSR 011700Z 02005KT CAVOK 30/08 Q1019=
2020050118 - SABZ18 SBSR 011800
2020050118 - METAR SBSR 011800Z 27004KT 9999 FEW025 30/08 Q1018=
2020050119 - SABZ18 SBSR 011900
2020050119 - METAR SBSR 011900Z 31003KT 9999 FEW025 30/09 Q1018=
2020050120 - SABZ18 SBSR 012000
2020050120 - METAR SBSR 012000Z 22005KT 9999 FEW025 30/09 Q1018=
2020050121 - SABZ18 SBSR 012100
2020050121 - METAR SBSR 012100Z 24004KT CAVOK 28/08 Q1018=
2020050122 - SABZ18 SBSR 012200
2020050122 - METAR SBSR 012200Z 00000KT CAVOK 27/09 Q1018=
2020050123 - SABZ18 SBSR 012300
2020050123 - METAR SBSR 012300Z 21003KT CAVOK 25/10 Q1019=
