
2020050100 - SABZ18 SBSR 010000
2020050100 - METAR SBSR 010000Z 00000KT CAVOK 23/11 Q1019=
2020050101 - SABZ18 SBSR 010100
2020050101 - METAR SBSR 010100Z 00000KT CAVOK 22/13 Q1020=
2020050102 - SABZ18 SBSR 010200
2020050102 - METAR SBSR 010200Z 00000KT CAVOK 21/13 Q1020=
2020050103 - SABZ18 SBSR 010300
2020050103 - METAR SBSR 010300Z 00000KT CAVOK 21/11 Q1020=
2020050104 - SABZ18 SBSR 010400
2020050104 - METAR SBSR 010400Z 00000KT CAVOK 19/12 Q1019=
2020050105 - SABZ18 SBSR 010500
2020050105 - METAR SBSR 010500Z 00000KT CAVOK 19/12 Q1019=
2020050106 - SABZ18 SBSR 010600
2020050106 - METAR SBSR 010600Z 00000KT CAVOK 18/12 Q1019=
2020050107 - SABZ18 SBSR 010700
2020050107 - METAR SBSR 010700Z 00000KT CAVOK 18/12 Q1019=
2020050108 - SABZ18 SBSR 010800
2020050108 - METAR SBSR 010800Z 00000KT CAVOK 17/11 Q1019=
2020050109 - SABZ18 SBSR 010900
2020050109 - METAR SBSR 010900Z 00000KT CAVOK 17/11 Q1019=
2020050110 - SABZ18 SBSR 011000
2020050110 - METAR SBSR 011000Z 00000KT CAVOK 17/11 Q1020=
2020050111 - SABZ18 SBSR 011100
2020050111 - METAR SBSR 011100Z 00000KT CAVOK 19/11 Q1021=
2020050112 - SABZ18 SBSR 011200
2020050112 - METAR SBSR 011200Z 05005KT CAVOK 22/12 Q1022=
2020050113 - SABZ18 SBSR 011300
2020050113 - METAR SBSR 011300Z 07003KT CAVOK 25/12 Q1022=
2020050114 - SABZ18 SBSR 011400
2020050114 - METAR SBSR 011400Z 03004KT CAVOK 27/10 Q1022=
2020050115 - SABZ18 SBSR 011500
2020050115 - METAR SBSR 011500Z 00000KT CAVOK 29/08 Q1021=
2020050116 - SABZ18 SBSR 011600
2020050116 - METAR SBSR 011600Z 19004KT CAVOK 29/08 Q1020=
2020050117 - SABZ18 SBSR 011700
2020050117 - METAR SBSR 011700Z 02005KT CAVOK 30/08 Q1019=
2020050118 - SABZ18 SBSR 011800
2020050118 - METAR SBSR 011800Z 27004KT 9999 FEW025 30/08 Q1018=
2020050119 - SABZ18 SBSR 011900
2020050119 - METAR SBSR 011900Z 31003KT 9999 FEW025 30/09 Q1018=
2020050120 - SABZ18 SBSR 012000
2020050120 - METAR SBSR 012000Z 22005KT 9999 FEW025 30/09 Q1018=
2020050121 - SABZ18 SBSR 012100
2020050121 - METAR SBSR 012100Z 24004KT CAVOK 28/08 Q1018=
2020050122 - SABZ18 SBSR 012200
2020050122 - METAR SBSR 012200Z 00000KT CAVOK 27/09 Q1018=
2020050123 - SABZ18 SBSR 012300
2020050123 - METAR SBSR 012300Z 21003KT CAVOK 25/10 Q1019=
2020050200 - SABZ18 SBSR 020000
2020050200 - METAR SBSR 020000Z 00000KT CAVOK 24/12 Q1020=
2020050201 - SABZ18 SBSR 020100
2020050201 - METAR SBSR 020100Z 00000KT CAVOK 22/11 Q1019=
2020050202 - SABZ18 SBSR 020200
2020050202 - METAR SBSR 020200Z 00000KT CAVOK 22/11 Q1019=
2020050203 - SABZ18 SBSR 020300
2020050203 - METAR SBSR 020300Z 00000KT CAVOK 21/12 Q1019=
2020050204 - SABZ18 SBSR 020400
2020050204 - METAR SBSR 020400Z 00000KT CAVOK 20/13 Q1019=
2020050205 - SABZ18 SBSR 020500
2020050205 - METAR SBSR 020500Z 00000KT CAVOK 20/12 Q1018=
2020050206 - SABZ18 SBSR 020600
2020050206 - METAR SBSR 020600Z 00000KT CAVOK 18/12 Q1017=
2020050207 - SABZ18 SBSR 020700
2020050207 - METAR SBSR 020700Z 00000KT CAVOK 18/12 Q1018=
2020050208 - SABZ18 SBSR 020800
2020050208 - METAR SBSR 020800Z 00000KT CAVOK 18/12 Q1018=
2020050209 - SABZ18 SBSR 020900
2020050209 - METAR SBSR 020900Z 24004KT CAVOK 18/11 Q1018=
2020050210 - SABZ18 SBSR 021000
2020050210 - METAR SBSR 021000Z 00000KT CAVOK 17/11 Q1019=
2020050211 - SABZ18 SBSR 021100
2020050211 - METAR SBSR 021100Z 00000KT CAVOK 20/11 Q1019=
2020050212 - SABZ18 SBSR 021200
2020050212 - METAR SBSR 021200Z 00000KT CAVOK 23/12 Q1020=
2020050213 - SABZ18 SBSR 021300
2020050213 - METAR SBSR 021300Z 00000KT CAVOK 26/12 Q1020=
2020050214 - SABZ18 SBSR 021400
2020050214 - METAR SBSR 021400Z 36003KT CAVOK 28/11 Q1020=
2020050215 - SABZ18 SBSR 021500
2020050215 - METAR SBSR 021500Z 33005KT 9999 FEW025 29/09 Q1019=
2020050216 - SABZ18 SBSR 021600
2020050216 - METAR SBSR 021600Z 29004KT 9999 FEW025 30/09 Q1018=
2020050217 - SABZ18 SBSR 021700
2020050217 - METAR SBSR 021700Z 28003KT 9999 FEW025 30/08 Q1017=
2020050218 - SABZ18 SBSR 021800
2020050218 - METAR SBSR 021800Z 26008KT CAVOK 29/08 Q1016=
2020050219 - SABZ18 SBSR 021900
2020050219 - METAR SBSR 021900Z 24007KT 9999 FEW025 30/08 Q1016=
2020050220 - SABZ18 SBSR 022000
2020050220 - METAR SBSR 022000Z 24006KT CAVOK 29/07 Q1016=
2020050221 - SABZ18 SBSR 022100
2020050221 - METAR SBSR 022100Z 24004KT CAVOK 27/09 Q1016=
2020050222 - SABZ18 SBSR 022200
2020050222 - METAR SBSR 022200Z 23003KT CAVOK 25/10 Q1016=
2020050223 - SABZ18 SBSR 022300
2020050223 - METAR SBSR 022300Z 25003KT CAVOK 24/10 Q1017=
2020050300 - SABZ18 SBSR 030000
2020050300 - METAR SBSR 030000Z 25002KT CAVOK 23/09 Q1017=
2020050301 - SABZ18 SBSR 030100
2020050301 - METAR SBSR 030100Z 00000KT CAVOK 22/10 Q1017=
2020050302 - SABZ18 SBSR 030200
2020050302 - METAR SBSR 030200Z 25004KT CAVOK 23/10 Q1017=
2020050303 - SABZ18 SBSR 030300
2020050303 - METAR SBSR 030300Z 26003KT CAVOK 22/10 Q1017=
2020050304 - SABZ18 SBSR 030400
2020050304 - METAR SBSR 030400Z 25003KT CAVOK 21/10 Q1016=
2020050305 - SABZ18 SBSR 030500
2020050305 - METAR SBSR 030500Z 00000KT CAVOK 20/10 Q1016=
2020050306 - SABZ18 SBSR 030600
2020050306 - METAR SBSR 030600Z 00000KT CAVOK 20/11 Q1016=
2020050307 - SABZ18 SBSR 030700
2020050307 - METAR SBSR 030700Z 17006KT CAVOK 21/12 Q1016=
2020050308 - SABZ18 SBSR 030800
2020050308 - METAR SBSR 030800Z 18005KT CAVOK 19/12 Q1016=
2020050309 - SABZ18 SBSR 030900
2020050309 - METAR SBSR 030900Z 18006KT 100V190 CAVOK 18/13 Q1017=
2020050310 - SABZ18 SBSR 031000
2020050310 - METAR SBSR 031000Z 16006KT CAVOK 18/13 Q1018=
2020050311 - SABZ18 SBSR 031100
2020050311 - METAR SBSR 031100Z 14007KT CAVOK 19/14 Q1019=
2020050312 - SABZ18 SBSR 031200
2020050312 - METAR SBSR 031200Z 16006KT CAVOK 20/14 Q1019=
2020050313 - SABZ18 SBSR 031300
2020050313 - METAR SBSR 031300Z 12007KT CAVOK 22/14 Q1019=
2020050314 - SABZ18 SBSR 031400
2020050314 - METAR SBSR 031400Z 15004KT CAVOK 24/14 Q1019=
2020050315 - SABZ18 SBSR 031500
2020050315 - METAR SBSR 031500Z 18006KT CAVOK 25/14 Q1018=
2020050316 - SABZ18 SBSR 031600
2020050316 - METAR SBSR 031600Z 00000KT CAVOK 27/13 Q1017=
2020050317 - SABZ18 SBSR 031700
2020050317 - METAR SBSR 031700Z 21008KT 9999 FEW025 28/12 Q1016=
2020050318 - SABZ18 SBSR 031800
2020050318 - METAR SBSR 031800Z 27005KT 9999 SCT025 28/12 Q1016=
2020050319 - SABZ18 SBSR 031900
2020050319 - METAR SBSR 031900Z 23009KT 9999 SCT025 28/12 Q1016=
2020050320 - SABZ18 SBSR 032000
2020050320 - METAR SBSR 032000Z 24007KT 9999 FEW025 27/12 Q1016=
2020050321 - SABZ18 SBSR 032100
2020050321 - METAR SBSR 032100Z 21006KT CAVOK 26/12 Q1016=
2020050322 - SABZ18 SBSR 032200
2020050322 - METAR SBSR 032200Z 17005KT CAVOK 25/12 Q1016=
2020050323 - SABZ18 SBSR 032300
2020050323 - METAR SBSR 032300Z 18007KT CAVOK 24/11 Q1017=
2020050400 - SABZ18 SBSR 040000
2020050400 - METAR SBSR 040000Z 16004KT CAVOK 23/11 Q1017=
2020050401 - SABZ18 SBSR 040100
2020050401 - METAR SBSR 040100Z 16006KT CAVOK 22/09 Q1017=
2020050402 - SABZ18 SBSR 040200
2020050402 - METAR SBSR 040200Z 15007KT CAVOK 21/08 Q1017=
2020050403 - SABZ18 SBSR 040300
2020050403 - METAR SBSR 040300Z 15007KT CAVOK 21/09 Q1017=
2020050404 - SABZ18 SBSR 040400
2020050404 - METAR SBSR 040400Z 14006KT CAVOK 20/08 Q1016=
2020050405 - SABZ18 SBSR 040500
2020050405 - METAR SBSR 040500Z 14008KT CAVOK 19/08 Q1016=
2020050406 - SABZ18 SBSR 040600
2020050406 - METAR SBSR 040600Z 15005KT CAVOK 18/08 Q1016=
2020050407 - SABZ18 SBSR 040700
2020050407 - METAR SBSR 040700Z 12005KT CAVOK 17/08 Q1016=
2020050408 - SABZ18 SBSR 040800
2020050408 - METAR SBSR 040800Z 16003KT CAVOK 16/09 Q1015=
2020050409 - SABZ18 SBSR 040900
2020050409 - METAR SBSR 040900Z 17003KT CAVOK 16/09 Q1016=
2020050410 - SABZ18 SBSR 041000
2020050410 - METAR SBSR 041000Z 15003KT CAVOK 15/09 Q1017=
2020050411 - SABZ18 SBSR 041100
2020050411 - METAR SBSR 041100Z 13004KT CAVOK 16/09 Q1018=
2020050412 - SABZ18 SBSR 041200
2020050412 - METAR SBSR 041200Z 14004KT CAVOK 19/09 Q1019=
2020050413 - SABZ18 SBSR 041300
2020050413 - METAR SBSR 041300Z 14003KT CAVOK 22/10 Q1019=
2020050414 - SABZ18 SBSR 041400
2020050414 - METAR SBSR 041400Z 10002KT CAVOK 25/10 Q1018=
2020050415 - SABZ18 SBSR 041500
2020050415 - METAR SBSR 041500Z 09004KT CAVOK 26/10 Q1017=
2020050416 - SABZ18 SBSR 041600
2020050416 - METAR SBSR 041600Z 19004KT CAVOK 27/11 Q1016=
2020050417 - SABZ18 SBSR 041700
2020050417 - METAR SBSR 041700Z 24009KT 9999 FEW025 28/11 Q1015=
2020050418 - SABZ18 SBSR 041800
2020050418 - METAR SBSR 041800Z 23007KT 9999 FEW025 28/09 Q1014=
2020050419 - SABZ18 SBSR 041900 RRA
2020050419 - METAR SBSR 041900Z 25006KT CAVOK 29/08 Q1014=
2020050420 - SABZ18 SBSR 042000
2020050420 - METAR SBSR 042000Z 23007KT CAVOK 28/07 Q1014=
2020050421 - SABZ18 SBSR 042100
2020050421 - METAR SBSR 042100Z 20002KT CAVOK 26/09 Q1014=
2020050422 - SABZ18 SBSR 042200
2020050422 - METAR SBSR 042200Z 17004KT CAVOK 24/09 Q1014=
2020050423 - SABZ18 SBSR 042300
2020050423 - METAR SBSR 042300Z 21003KT CAVOK 23/09 Q1014=
2020050500 - SABZ18 SBSR 050000
2020050500 - METAR SBSR 050000Z 00000KT CAVOK 23/08 Q1015=
2020050501 - SABZ18 SBSR 050100
2020050501 - METAR SBSR 050100Z 00000KT CAVOK 22/08 Q1015=
2020050502 - SABZ18 SBSR 050200
2020050502 - METAR SBSR 050200Z 12003KT CAVOK 22/08 Q1015=
2020050503 - SABZ18 SBSR 050300
2020050503 - METAR SBSR 050300Z 00000KT CAVOK 21/08 Q1015=
2020050504 - SABZ18 SBSR 050400
2020050504 - METAR SBSR 050400Z 00000KT CAVOK 19/09 Q1015=
2020050505 - SABZ18 SBSR 050500
2020050505 - METAR SBSR 050500Z 12003KT CAVOK 19/08 Q1014=
2020050506 - SABZ18 SBSR 050600
2020050506 - METAR SBSR 050600Z 17004KT CAVOK 19/08 Q1014=
2020050507 - SABZ18 SBSR 050700
2020050507 - METAR SBSR 050700Z 00000KT CAVOK 19/09 Q1014=
2020050508 - SABZ18 SBSR 050800
2020050508 - METAR SBSR 050800Z 00000KT CAVOK 17/09 Q1015=
2020050509 - SABZ18 SBSR 050900
2020050509 - METAR SBSR 050900Z 06003KT CAVOK 18/08 Q1015=
2020050510 - SABZ18 SBSR 051000
2020050510 - METAR SBSR 051000Z 00000KT CAVOK 18/08 Q1016=
2020050511 - SABZ18 SBSR 051100
2020050511 - METAR SBSR 051100Z 04003KT CAVOK 18/08 Q1017=
2020050512 - SABZ18 SBSR 051200
2020050512 - METAR SBSR 051200Z 05004KT CAVOK 22/09 Q1017=
2020050513 - SABZ18 SBSR 051300
2020050513 - METAR SBSR 051300Z 05004KT CAVOK 25/09 Q1017=
2020050514 - SABZ18 SBSR 051400
2020050514 - METAR SBSR 051400Z 03008KT CAVOK 27/08 Q1016=
2020050515 - SABZ18 SBSR 051500
2020050515 - METAR SBSR 051500Z 03005KT CAVOK 29/08 Q1016=
2020050516 - SABZ18 SBSR 051600
2020050516 - METAR SBSR 051600Z 33004KT 9999 SCT030 31/07 Q1015=
2020050517 - SABZ18 SBSR 051700
2020050517 - METAR SBSR 051700Z 28003KT 210V010 9999 BKN030 31/07 Q1014=
2020050518 - SABZ18 SBSR 051800
2020050518 - METAR SBSR 051800Z 31005KT 9999 FEW002 BKN030 30/06 Q1014=
2020050519 - SABZ18 SBSR 051900
2020050519 - METAR SBSR 051900Z 30005KT 220V020 9999 SCT025 SCT030 BKN070 30/07 Q1014=
2020050520 - SABZ18 SBSR 052000
2020050520 - METAR SBSR 052000Z 29003KT 9999 SCT025 SCT070 30/08 Q1014=
2020050521 - SABZ18 SBSR 052100
2020050521 - METAR SBSR 052100Z 00000KT CAVOK 28/08 Q1014=
2020050522 - SABZ18 SBSR 052200
2020050522 - METAR SBSR 052200Z 25002KT CAVOK 26/09 Q1014=
2020050523 - SABZ18 SBSR 052300
2020050523 - METAR SBSR 052300Z 00000KT CAVOK 26/09 Q1014=
2020050600 - SABZ18 SBSR 060000
2020050600 - METAR SBSR 060000Z 00000KT CAVOK 24/12 Q1015=
2020050601 - SABZ18 SBSR 060100
2020050601 - METAR SBSR 060100Z 00000KT CAVOK 24/11 Q1015=
2020050602 - SABZ18 SBSR 060200
2020050602 - METAR SBSR 060200Z 00000KT CAVOK 24/12 Q1014=
2020050603 - SABZ18 SBSR 060300
2020050603 - METAR SBSR 060300Z 00000KT CAVOK 23/12 Q1014=
2020050604 - SABZ18 SBSR 060400
2020050604 - METAR SBSR 060400Z 00000KT CAVOK 22/11 Q1014=
2020050605 - SABZ18 SBSR 060500
2020050605 - METAR SBSR 060500Z 00000KT CAVOK 21/12 Q1014=
2020050606 - SABZ18 SBSR 060600
2020050606 - METAR SBSR 060600Z 00000KT CAVOK 21/11 Q1015=
2020050607 - SABZ18 SBSR 060700
2020050607 - METAR SBSR 060700Z 00000KT CAVOK 21/12 Q1015=
2020050608 - SABZ18 SBSR 060800
2020050608 - METAR SBSR 060800Z 00000KT 9999 FEW025 SCT070 21/11 Q1014=
2020050609 - SABZ18 SBSR 060900
2020050609 - METAR SBSR 060900Z 00000KT CAVOK 21/12 Q1015=
2020050610 - SABZ18 SBSR 061000
2020050610 - METAR SBSR 061000Z 00000KT 9999 SCT030 SCT070 21/11 Q1015=
2020050611 - SABZ18 SBSR 061100
2020050611 - METAR SBSR 061100Z 00000KT 9999 SCT025 SCT070 22/11 Q1016=
2020050612 - SABZ18 SBSR 061200
2020050612 - METAR SBSR 061200Z 03003KT 9999 FEW025 BKN070 23/11 Q1016=
2020050613 - SABZ18 SBSR 061300
2020050613 - METAR SBSR 061300Z 04006KT 9999 SCT025 BKN070 25/11 Q1017=
2020050614 - SABZ18 SBSR 061400
2020050614 - METAR SBSR 061400Z 02003KT 9999 SCT020 BKN070 27/11 Q1017=
2020050615 - SABZ18 SBSR 061500
2020050615 - METAR SBSR 061500Z 04008KT 9999 FEW020 SCT070 29/09 Q1016=
2020050616 - SABZ18 SBSR 061600
2020050616 - METAR SBSR 061600Z 36005KT 9999 FEW025 BKN070 30/09 Q1015=
2020050617 - SABZ18 SBSR 061700
2020050617 - METAR SBSR 061700Z 27006KT 9999 FEW025 SCT070 30/08 Q1014=
2020050618 - SABZ18 SBSR 061800
2020050618 - METAR SBSR 061800Z 28005KT 9999 SCT020 BKN070 29/09 Q1014=
2020050619 - SABZ18 SBSR 061900
2020050619 - METAR SBSR 061900Z 27008KT 240V320 9999 SCT020 BKN070 28/09 Q1014=
2020050620 - SABZ18 SBSR 062000
2020050620 - METAR SBSR 062000Z 28007KT 9999 BKN020 OVC070 27/10 Q1014=
2020050621 - SABZ18 SBSR 062100
2020050621 - METAR SBSR 062100Z 24011KT 9999 SCT025 OVC070 24/13 Q1015=
2020050622 - SABZ18 SBSR 062200
2020050622 - METAR SBSR 062200Z 24007KT 9999 SCT025 BKN070 23/12 Q1015=
2020050623 - SABZ18 SBSR 062300
2020050623 - METAR SBSR 062300Z 25004KT 9999 FEW025 BKN070 23/12 Q1016=
2020050700 - SABZ18 SBSR 070000
2020050700 - METAR SBSR 070000Z 27004KT CAVOK 22/12 Q1016=
2020050701 - SABZ18 SBSR 070100
2020050701 - METAR SBSR 070100Z 25004KT CAVOK 20/13 Q1017=
2020050702 - SABZ18 SBSR 070200
2020050702 - METAR SBSR 070200Z 26003KT CAVOK 21/13 Q1017=
2020050703 - SABZ18 SBSR 070300
2020050703 - METAR SBSR 070300Z 25005KT CAVOK 20/13 Q1017=
2020050704 - SABZ18 SBSR 070400
2020050704 - METAR SBSR 070400Z 26004KT CAVOK 20/14 Q1016=
2020050705 - SABZ18 SBSR 070500
2020050705 - METAR SBSR 070500Z 25005KT 9999 FEW025 OVC070 19/14 Q1016=
2020050706 - SABZ18 SBSR 070600
2020050706 - METAR SBSR 070600Z 25003KT 9999 FEW025 OVC070 19/13 Q1016=
2020050707 - SABZ18 SBSR 070700
2020050707 - METAR SBSR 070700Z 24003KT 9999 FEW002 OVC070 18/13 Q1016=
2020050708 - SABZ18 SBSR 070800
2020050708 - METAR SBSR 070800Z 24003KT 9999 FEW025 BKN070 17/13 Q1016=
2020050709 - SABZ18 SBSR 070900
2020050709 - METAR SBSR 070900Z 25005KT 9999 FEW025 BKN070 18/16 Q1017=
2020050710 - SABZ18 SBSR 071000
2020050710 - METAR SBSR 071000Z 24005KT 9999 SCT020 BKN070 18/14 Q1018=
2020050711 - SABZ18 SBSR 071100
2020050711 - METAR SBSR 071100Z 21007KT 9999 FEW020 SCT070 18/14 Q1019=
2020050712 - SABZ18 SBSR 071200
2020050712 - METAR SBSR 071200Z 18007KT 9999 FEW020 BKN070 19/13 Q1020=
2020050713 - SABZ18 SBSR 071300
2020050713 - METAR SBSR 071300Z 18004KT 9999 FEW025 SCT070 20/14 Q1020=
2020050714 - SABZ18 SBSR 071400
2020050714 - METAR SBSR 071400Z 20006KT 9999 BKN022 BKN070 21/13 Q1021=
2020050715 - SABZ18 SBSR 071500
2020050715 - METAR SBSR 071500Z 33002KT 9999 FEW025 BKN070 22/13 Q1020=
2020050716 - SABZ18 SBSR 071600
2020050716 - METAR SBSR 071600Z 19004KT 9999 BKN025 OVC070 22/13 Q1019=
2020050717 - SABZ18 SBSR 071700
2020050717 - METAR SBSR 071700Z 22007KT 9999 BKN025 BKN070 23/12 Q1019=
2020050718 - SABZ18 SBSR 071800
2020050718 - METAR SBSR 071800Z 24008KT 9999 SCT025 BKN070 23/12 Q1019=
2020050719 - SABZ18 SBSR 071900
2020050719 - METAR SBSR 071900Z 19007KT 9999 SCT025 BKN070 22/12 Q1018=
2020050720 - SABZ18 SBSR 072000
2020050720 - METAR SBSR 072000Z 19006KT 9999 FEW025 BKN070 23/11 Q1018=
2020050721 - SABZ18 SBSR 072100
2020050721 - METAR SBSR 072100Z 22005KT 9999 FEW025 BKN070 21/11 Q1019=
2020050722 - SABZ18 SBSR 072200
2020050722 - METAR SBSR 072200Z 21005KT CAVOK 21/11 Q1019=
2020050723 - SABZ18 SBSR 072300
2020050723 - METAR SBSR 072300Z 20006KT CAVOK 20/10 Q1020=
2020050800 - SABZ18 SBSR 080000
2020050800 - METAR SBSR 080000Z 19005KT CAVOK 20/10 Q1021=
2020050801 - SABZ18 SBSR 080100
2020050801 - METAR SBSR 080100Z 17011KT CAVOK 18/10 Q1021=
2020050802 - SABZ18 SBSR 080200
2020050802 - METAR SBSR 080200Z 17009KT CAVOK 17/09 Q1022=
2020050803 - SABZ18 SBSR 080300
2020050803 - METAR SBSR 080300Z 16008KT CAVOK 16/09 Q1022=
2020050804 - SABZ18 SBSR 080400
2020050804 - METAR SBSR 080400Z 16007KT 9999 FEW025 SCT070 15/09 Q1015=
2020050805 - SABZ18 SBSR 080500
2020050805 - METAR SBSR 080500Z 15006KT CAVOK 15/09 Q1021=
2020050806 - SABZ18 SBSR 080600
2020050806 - METAR SBSR 080600Z 15006KT CAVOK 14/09 Q1021=
2020050807 - SABZ18 SBSR 080700
2020050807 - METAR SBSR 080700Z 15007KT CAVOK 14/09 Q1021=
2020050808 - SABZ18 SBSR 080800
2020050808 - METAR SBSR 080800Z 16004KT CAVOK 13/08 Q1021=
2020050809 - SABZ18 SBSR 080900
2020050809 - METAR SBSR 080900Z 15004KT CAVOK 13/08 Q1021=
2020050810 - SABZ18 SBSR 081000
2020050810 - METAR SBSR 081000Z 14005KT CAVOK 12/08 Q1022=
2020050811 - SABZ18 SBSR 081100
2020050811 - METAR SBSR 081100Z 17006KT CAVOK 13/08 Q1023=
2020050812 - SABZ18 SBSR 081200
2020050812 - METAR SBSR 081200Z 17005KT CAVOK 15/08 Q1023=
2020050813 - SABZ18 SBSR 081300
2020050813 - METAR SBSR 081300Z 13003KT CAVOK 18/09 Q1024=
2020050814 - SABZ18 SBSR 081400
2020050814 - METAR SBSR 081400Z 16002KT CAVOK 20/09 Q1024=
2020050815 - SABZ18 SBSR 081500
2020050815 - METAR SBSR 081500Z 03005KT CAVOK 22/07 Q1023=
2020050816 - SABZ18 SBSR 081600
2020050816 - METAR SBSR 081600Z 06008KT CAVOK 23/04 Q1022=
2020050817 - SABZ18 SBSR 081700
2020050817 - METAR SBSR 081700Z 21003KT CAVOK 24/04 Q1021=
2020050818 - SABZ18 SBSR 081800
2020050818 - METAR SBSR 081800Z 06004KT CAVOK 25/04 Q1020=
2020050819 - SABZ18 SBSR 081900
2020050819 - METAR SBSR 081900Z 05002KT CAVOK 25/03 Q1020=
2020050820 - SABZ18 SBSR 082000
2020050820 - METAR SBSR 082000Z 20006KT CAVOK 25/04 Q1020=
2020050821 - SABZ18 SBSR 082100
2020050821 - METAR SBSR 082100Z 00000KT CAVOK 23/05 Q1020=
2020050822 - SABZ18 SBSR 082200
2020050822 - METAR SBSR 082200Z 21003KT CAVOK 22/06 Q1020=
2020050823 - SABZ18 SBSR 082300
2020050823 - METAR SBSR 082300Z 20005KT CAVOK 21/07 Q1021=
2020050900 - SABZ18 SBSR 090000
2020050900 - METAR SBSR 090000Z 00000KT CAVOK 20/07 Q1021=
2020050901 - SABZ18 SBSR 090100
2020050901 - METAR SBSR 090100Z 00000KT CAVOK 19/07 Q1022=
2020050902 - SABZ18 SBSR 090200
2020050902 - METAR SBSR 090200Z 00000KT CAVOK 19/07 Q1021=
2020050903 - SABZ18 SBSR 090300
2020050903 - METAR SBSR 090300Z 00000KT CAVOK 18/07 Q1021=
2020050904 - SABZ18 SBSR 090400
2020050904 - METAR SBSR 090400Z 00000KT CAVOK 18/07 Q1021=
2020050905 - SABZ18 SBSR 090500
2020050905 - METAR SBSR 090500Z 00000KT CAVOK 17/07 Q1021=
2020050906 - SABZ18 SBSR 090600
2020050906 - METAR SBSR 090600Z 17004KT CAVOK 16/07 Q1021=
2020050907 - SABZ18 SBSR 090700
2020050907 - METAR SBSR 090700Z 00000KT CAVOK 15/07 Q1020=
2020050908 - SABZ18 SBSR 090800
2020050908 - METAR SBSR 090800Z 15005KT CAVOK 15/07 Q1020=
2020050909 - SABZ18 SBSR 090900
2020050909 - METAR SBSR 090900Z 00000KT CAVOK 15/07 Q1021=
2020050910 - SABZ18 SBSR 091000
2020050910 - METAR SBSR 091000Z 14003KT CAVOK 15/07 Q1021=
2020050911 - SABZ18 SBSR 091100
2020050911 - METAR SBSR 091100Z 14006KT CAVOK 16/08 Q1022=
2020050912 - SABZ18 SBSR 091200
2020050912 - METAR SBSR 091200Z 13009KT CAVOK 18/09 Q1023=
2020050913 - SABZ18 SBSR 091300
2020050913 - METAR SBSR 091300Z 09007KT CAVOK 21/09 Q1023=
2020050914 - SABZ18 SBSR 091400
2020050914 - METAR SBSR 091400Z 09007KT CAVOK 23/10 Q1023=
2020050915 - SABZ18 SBSR 091500
2020050915 - METAR SBSR 091500Z 06008KT CAVOK 25/09 Q1022=
2020050916 - SABZ18 SBSR 091600
2020050916 - METAR SBSR 091600Z 05005KT 9999 FEW030 26/09 Q1021=
2020050917 - SABZ18 SBSR 091700
2020050917 - METAR SBSR 091700Z 06007KT 9999 FEW030 26/08 Q1020=
2020050918 - SABZ18 SBSR 091800
2020050918 - METAR SBSR 091800Z 08006KT 9999 FEW035 27/08 Q1019=
2020050919 - SABZ18 SBSR 091900
2020050919 - METAR SBSR 091900Z 27002KT 9999 FEW035 28/08 Q1019=
2020050920 - SABZ18 SBSR 092000
2020050920 - METAR SBSR 092000Z 12003KT CAVOK 27/07 Q1019=
2020050921 - SABZ18 SBSR 092100
2020050921 - METAR SBSR 092100Z 09005KT CAVOK 26/07 Q1019=
2020050922 - SABZ18 SBSR 092200
2020050922 - METAR SBSR 092200Z 00000KT CAVOK 25/08 Q1020=
2020050923 - SABZ18 SBSR 092300
2020050923 - METAR SBSR 092300Z 00000KT CAVOK 23/08 Q1021=
2020051000 - SABZ18 SBSR 100000
2020051000 - METAR SBSR 100000Z 02004KT CAVOK 21/10 Q1021=
2020051001 - SABZ18 SBSR 100100
2020051001 - METAR SBSR 100100Z 00000KT CAVOK 20/10 Q1021=
2020051002 - SABZ18 SBSR 100200
2020051002 - METAR SBSR 100200Z 00000KT CAVOK 19/10 Q1021=
2020051003 - SABZ18 SBSR 100300
2020051003 - METAR SBSR 100300Z 00000KT CAVOK 19/09 Q1021=
2020051004 - SABZ18 SBSR 100400
2020051004 - METAR SBSR 100400Z 09005KT CAVOK 19/08 Q1021=
2020051005 - SABZ18 SBSR 100500
2020051005 - METAR SBSR 100500Z 09007KT CAVOK 18/08 Q1021=
2020051006 - SABZ18 SBSR 100600
2020051006 - METAR SBSR 100600Z 10005KT CAVOK 17/09 Q1020=
2020051007 - SABZ18 SBSR 100700
2020051007 - METAR SBSR 100700Z 00000KT CAVOK 17/09 Q1020=
2020051008 - SABZ18 SBSR 100800
2020051008 - METAR SBSR 100800Z 00000KT CAVOK 17/09 Q1025=
2020051009 - SABZ18 SBSR 100900
2020051009 - METAR SBSR 100900Z 03005KT CAVOK 17/09 Q1021=
2020051010 - SABZ18 SBSR 101000
2020051010 - METAR SBSR 101000Z 06004KT CAVOK 16/09 Q1021=
2020051011 - SABZ18 SBSR 101100
2020051011 - METAR SBSR 101100Z 08007KT CAVOK 17/09 Q1022=
2020051012 - SABZ18 SBSR 101200
2020051012 - METAR SBSR 101200Z 06008KT CAVOK 20/09 Q1023=
2020051013 - SABZ18 SBSR 101300
2020051013 - METAR SBSR 101300Z 07008KT CAVOK 22/09 Q1022=
2020051014 - SABZ18 SBSR 101400
2020051014 - METAR SBSR 101400Z 05012KT CAVOK 23/09 Q1022=
2020051015 - SABZ18 SBSR 101500
2020051015 - METAR SBSR 101500Z 07011KT CAVOK 25/08 Q1021=
2020051016 - SABZ18 SBSR 101600
2020051016 - METAR SBSR 101600Z 03008KT CAVOK 26/08 Q1020=
2020051017 - SABZ18 SBSR 101700
2020051017 - METAR SBSR 101700Z 06008KT CAVOK 27/08 Q1019=
2020051018 - SABZ18 SBSR 101800
2020051018 - METAR SBSR 101800Z 05006KT CAVOK 27/08 Q1018=
2020051019 - SABZ18 SBSR 101900
2020051019 - METAR SBSR 101900Z 04009KT CAVOK 27/07 Q1018=
2020051020 - SABZ18 SBSR 102000
2020051020 - METAR SBSR 102000Z 07005KT CAVOK 27/07 Q1017=
2020051021 - SABZ18 SBSR 102100
2020051021 - METAR SBSR 102100Z 05005KT CAVOK 26/07 Q1018=
2020051022 - SABZ18 SBSR 102200
2020051022 - METAR SBSR 102200Z 11005KT CAVOK 24/08 Q1018=
2020051023 - SABZ18 SBSR 102300
2020051023 - METAR SBSR 102300Z 10004KT CAVOK 23/08 Q1018=
2020051100 - SABZ18 SBSR 110000
2020051100 - METAR SBSR 110000Z 10004KT CAVOK 22/09 Q1019=
2020051101 - SABZ18 SBSR 110100
2020051101 - METAR SBSR 110100Z 10005KT CAVOK 21/09 Q1019=
2020051102 - SABZ18 SBSR 110200
2020051102 - METAR SBSR 110200Z 09004KT CAVOK 21/09 Q1019=
2020051103 - SABZ18 SBSR 110300
2020051103 - METAR SBSR 110300Z 00000KT CAVOK 20/09 Q1019=
2020051104 - SABZ18 SBSR 110400
2020051104 - METAR SBSR 110400Z 00000KT CAVOK 19/09 Q1019=
2020051105 - SABZ18 SBSR 110500
2020051105 - METAR SBSR 110500Z 00000KT CAVOK 18/10 Q1019=
2020051106 - SABZ18 SBSR 110600
2020051106 - METAR SBSR 110600Z 04005KT CAVOK 18/10 Q1019=
2020051107 - SABZ18 SBSR 110700
2020051107 - METAR SBSR 110700Z 08019KT CAVOK 17/11 Q1019=
2020051108 - SABZ18 SBSR 110800
2020051108 - METAR SBSR 110800Z 07005KT CAVOK 17/10 Q1019=
2020051109 - SABZ18 SBSR 110900
2020051109 - METAR SBSR 110900Z 07005KT CAVOK 16/10 Q1019=
2020051110 - SABZ18 SBSR 111000
2020051110 - METAR SBSR 111000Z 07006KT CAVOK 16/10 Q1020=
2020051111 - SABZ18 SBSR 111100
2020051111 - METAR SBSR 111100Z 06008KT CAVOK 17/10 Q1021=
2020051112 - SABZ18 SBSR 111200
2020051112 - METAR SBSR 111200Z 07012KT CAVOK 19/09 Q1022=
2020051113 - SABZ18 SBSR 111300
2020051113 - METAR SBSR 111300Z 08011KT CAVOK 21/10 Q1022=
2020051114 - SABZ18 SBSR 111400
2020051114 - METAR SBSR 111400Z 06007KT CAVOK 24/10 Q1022=
2020051115 - SABZ18 SBSR 111500
2020051115 - METAR SBSR 111500Z 03005KT CAVOK 25/10 Q1021=
2020051116 - SABZ18 SBSR 111600
2020051116 - METAR SBSR 111600Z 00000KT CAVOK 28/09 Q1020=
2020051117 - SABZ18 SBSR 111700
2020051117 - METAR SBSR 111700Z 30002KT 9999 FEW035 29/09 Q1020=
2020051118 - SABZ18 SBSR 111800
2020051118 - METAR SBSR 111800Z 06002KT 9999 FEW035 29/08 Q1019=
2020051119 - SABZ18 SBSR 111900
2020051119 - METAR SBSR 111900Z 29004KT CAVOK 28/07 Q1018=
2020051120 - SABZ18 SBSR 112000
2020051120 - METAR SBSR 112000Z 21005KT CAVOK 28/08 Q1018=
2020051121 - SABZ18 SBSR 112100
2020051121 - METAR SBSR 112100Z 18002KT CAVOK 27/08 Q1019=
2020051122 - SABZ18 SBSR 112200
2020051122 - METAR SBSR 112200Z 18003KT CAVOK 25/09 Q1019=
2020051123 - SABZ18 SBSR 112300
2020051123 - METAR SBSR 112300Z 00000KT CAVOK 24/09 Q1019=
2020051200 - SABZ18 SBSR 120000
2020051200 - METAR SBSR 120000Z 00000KT CAVOK 22/10 Q1019=
2020051201 - SABZ18 SBSR 120100
2020051201 - METAR SBSR 120100Z 00000KT CAVOK 22/09 Q1019=
2020051202 - SABZ18 SBSR 120200
2020051202 - METAR SBSR 120200Z 00000KT CAVOK 21/09 Q1019=
2020051203 - SABZ18 SBSR 120300
2020051203 - METAR SBSR 120300Z 00000KT CAVOK 20/09 Q1019=
2020051204 - SABZ18 SBSR 120400
2020051204 - METAR SBSR 120400Z 00000KT CAVOK 18/11 Q1019=
2020051205 - SABZ18 SBSR 120500
2020051205 - METAR SBSR 120500Z 00000KT CAVOK 18/10 Q1019=
2020051206 - SABZ18 SBSR 120600
2020051206 - METAR SBSR 120600Z 12002KT CAVOK 17/10 Q1018=
2020051207 - SABZ18 SBSR 120700
2020051207 - METAR SBSR 120700Z 12001KT CAVOK 18/09 Q1018=
2020051208 - SABZ18 SBSR 120800
2020051208 - METAR SBSR 120800Z 09005KT CAVOK 17/09 Q1018=
2020051209 - SABZ18 SBSR 120900
2020051209 - METAR SBSR 120900Z 08004KT CAVOK 17/09 Q1018=
2020051210 - SABZ18 SBSR 121000
2020051210 - METAR SBSR 121000Z 08005KT CAVOK 17/09 Q1019=
2020051211 - SABZ18 SBSR 121100
2020051211 - METAR SBSR 121100Z 06008KT CAVOK 18/10 Q1019=
2020051212 - SABZ18 SBSR 121200
2020051212 - METAR SBSR 121200Z 06007KT CAVOK 19/10 Q1019=
2020051213 - SABZ18 SBSR 121300
2020051213 - METAR SBSR 121300Z 05007KT CAVOK 22/10 Q1019=
2020051214 - Mensagem METAR de 'SBSR' para 12/05/2020 as 14(UTC) não localizada na base de dados da REDEMET
2020051215 - Mensagem METAR de 'SBSR' para 12/05/2020 as 15(UTC) não localizada na base de dados da REDEMET
2020051216 - Mensagem METAR de 'SBSR' para 12/05/2020 as 16(UTC) não localizada na base de dados da REDEMET
2020051217 - Mensagem METAR de 'SBSR' para 12/05/2020 as 17(UTC) não localizada na base de dados da REDEMET
2020051218 - Mensagem METAR de 'SBSR' para 12/05/2020 as 18(UTC) não localizada na base de dados da REDEMET
2020051219 - Mensagem METAR de 'SBSR' para 12/05/2020 as 19(UTC) não localizada na base de dados da REDEMET
2020051220 - Mensagem METAR de 'SBSR' para 12/05/2020 as 20(UTC) não localizada na base de dados da REDEMET
2020051221 - Mensagem METAR de 'SBSR' para 12/05/2020 as 21(UTC) não localizada na base de dados da REDEMET
2020051222 - Mensagem METAR de 'SBSR' para 12/05/2020 as 22(UTC) não localizada na base de dados da REDEMET
2020051223 - Mensagem METAR de 'SBSR' para 12/05/2020 as 23(UTC) não localizada na base de dados da REDEMET
2020051300 - SABZ18 SBSR 130000
2020051300 - METAR SBSR 130000Z 00000KT CAVOK 22/09 Q1017=
2020051301 - SABZ18 SBSR 130100
2020051301 - METAR SBSR 130100Z 00000KT CAVOK 21/11 Q1017=
2020051302 - SABZ18 SBSR 130200
2020051302 - METAR SBSR 130200Z 00000KT CAVOK 20/11 Q1017=
2020051303 - SABZ18 SBSR 130300
2020051303 - METAR SBSR 130300Z 08003KT CAVOK 20/11 Q1016=
2020051304 - SABZ18 SBSR 130400
2020051304 - METAR SBSR 130400Z 03002KT CAVOK 19/10 Q1015=
2020051305 - SABZ18 SBSR 130500
2020051305 - METAR SBSR 130500Z 02002KT CAVOK 19/09 Q1015=
2020051306 - SABZ18 SBSR 130600
2020051306 - METAR SBSR 130600Z 06003KT CAVOK 19/09 Q1015=
2020051307 - SABZ18 SBSR 130700
2020051307 - METAR SBSR 130700Z 09004KT CAVOK 19/09 Q1015=
2020051308 - SABZ18 SBSR 130800
2020051308 - METAR SBSR 130800Z 07004KT CAVOK 18/09 Q1014=
2020051309 - SABZ18 SBSR 130900
2020051309 - METAR SBSR 130900Z 06002KT CAVOK 18/10 Q1015=
2020051310 - SABZ18 SBSR 131000
2020051310 - METAR SBSR 131000Z 08002KT CAVOK 19/10 Q1016=
2020051311 - SABZ18 SBSR 131100
2020051311 - METAR SBSR 131100Z 08004KT 9999 FEW030 BKN070 19/11 Q1016=
2020051312 - SABZ18 SBSR 131200
2020051312 - METAR SBSR 131200Z 05005KT 9999 FEW030 OVC070 20/11 Q1018=
2020051313 - SABZ18 SBSR 131300
2020051313 - METAR SBSR 131300Z 05006KT 360V090 9999 SCT025 OVC070 21/11 Q1018=
2020051314 - SABZ18 SBSR 131400
2020051314 - METAR SBSR 131400Z 04005KT 9999 SCT025 OVC070 24/12 Q1018=
2020051315 - SABZ18 SBSR 131500
2020051315 - METAR SBSR 131500Z 36003KT 9999 FEW030 OVC070 25/13 Q1017=
2020051316 - SABZ18 SBSR 131600
2020051316 - METAR SBSR 131600Z 29005KT 9999 FEW030 BKN070 27/13 Q1016=
2020051317 - SABZ18 SBSR 131700
2020051317 - METAR SBSR 131700Z VRB05KT 9999 SCT030 OVC070 26/13 Q1016=
2020051318 - SABZ18 SBSR 131800
2020051318 - METAR SBSR 131800Z VRB04KT 9999 FEW035 BKN070 25/12 Q1015=
2020051319 - SABZ18 SBSR 131900
2020051319 - METAR SBSR 131900Z 28005KT 230V360 9999 FEW030 OVC070 25/12 Q1015=
2020051320 - SABZ18 SBSR 132000
2020051320 - METAR SBSR 132000Z 29003KT 9999 FEW028 OVC070 24/11 Q1014=
2020051321 - SABZ18 SBSR 132100
2020051321 - METAR SBSR 132100Z 04006KT 9999 FEW028 OVC070 24/10 Q1014=
2020051322 - SABZ18 SBSR 132200
2020051322 - METAR SBSR 132200Z 36003KT 9999 FEW030 OVC070 23/11 Q1014=
2020051323 - SABZ18 SBSR 132300
2020051323 - METAR SBSR 132300Z 00000KT CAVOK 22/12 Q1015=
2020051400 - SABZ18 SBSR 140000
2020051400 - METAR SBSR 140000Z 23003KT CAVOK 22/12 Q1015=
2020051401 - SABZ18 SBSR 140100
2020051401 - METAR SBSR 140100Z 24005KT CAVOK 21/12 Q1016=
2020051402 - SABZ18 SBSR 140200
2020051402 - METAR SBSR 140200Z 22004KT CAVOK 20/13 Q1016=
2020051403 - SABZ18 SBSR 140300
2020051403 - METAR SBSR 140300Z 18004KT CAVOK 20/13 Q1016=
2020051404 - SABZ18 SBSR 140400
2020051404 - METAR SBSR 140400Z 20002KT CAVOK 19/13 Q1016=
2020051405 - SABZ18 SBSR 140500
2020051405 - METAR SBSR 140500Z 15002KT CAVOK 19/13 Q1016=
2020051406 - SABZ18 SBSR 140600
2020051406 - METAR SBSR 140600Z 00000KT CAVOK 19/13 Q1016=
2020051407 - SABZ18 SBSR 140700
2020051407 - METAR SBSR 140700Z 00000KT CAVOK 19/13 Q1015=
2020051408 - SABZ18 SBSR 140800
2020051408 - METAR SBSR 140800Z 00000KT CAVOK 18/13 Q1016=
2020051409 - SABZ18 SBSR 140900
2020051409 - METAR SBSR 140900Z 02003KT CAVOK 18/13 Q1016=
2020051410 - SABZ18 SBSR 141000
2020051410 - METAR SBSR 141000Z 07002KT 9999 FEW025 BKN070 19/13 Q1017=
2020051411 - SABZ18 SBSR 141100
2020051411 - METAR SBSR 141100Z 05001KT 9999 FEW030 SCT070 OVC080 19/13 Q1017=
2020051412 - SABZ18 SBSR 141200
2020051412 - METAR SBSR 141200Z 06005KT CAVOK 19/13 Q1018=
2020051413 - SABZ18 SBSR 141300
2020051413 - METAR SBSR 141300Z 04004KT 9999 SCT028 OVC070 20/14 Q1018=
2020051414 - SABZ18 SBSR 141400
2020051414 - METAR SBSR 141400Z 07004KT 9999 BKN028 OVC070 21/14 Q1018=
2020051415 - SABZ18 SBSR 141500
2020051415 - METAR SBSR 141500Z 00000KT 9999 BKN025 OVC070 23/14 Q1018=
2020051416 - SABZ18 SBSR 141600
2020051416 - METAR SBSR 141600Z 00000KT 9999 SCT025 OVC070 23/14 Q1017=
2020051417 - SABZ18 SBSR 141700
2020051417 - METAR SBSR 141700Z 06004KT 9999 SCT030 OVC070 23/15 Q1016=
2020051418 - SABZ18 SBSR 141800
2020051418 - METAR SBSR 141800Z 09012KT 9999 FEW030 SCT070 OVC080 23/15 Q1016=
2020051419 - SABZ18 SBSR 141900
2020051419 - METAR SBSR 141900Z 00000KT 9999 SCT030 SCT070 OVC080 24/15 Q1016=
2020051420 - SABZ18 SBSR 142000
2020051420 - METAR SBSR 142000Z 00000KT 9999 BKN025 OVC070 24/15 Q1016=
2020051421 - SABZ18 SBSR 142100
2020051421 - METAR SBSR 142100Z 00000KT 9999 BKN022 OVC070 23/15 Q1017=
2020051422 - SABZ18 SBSR 142200
2020051422 - METAR SBSR 142200Z 00000KT 9999 BKN020 BKN070 23/15 Q1017=
2020051423 - SABZ18 SBSR 142300
2020051423 - METAR SBSR 142300Z 22003KT 9999 BKN020 BKN070 22/17 Q1017=
2020051500 - SABZ18 SBSR 150000
2020051500 - METAR SBSR 150000Z 21002KT 9999 BKN020 BKN070 21/17 Q1018=
2020051501 - SABZ18 SBSR 150100
2020051501 - METAR SBSR 150100Z 00000KT 9999 SCT020 BKN070 21/16 Q1018=
2020051502 - SABZ18 SBSR 150200
2020051502 - METAR SBSR 150200Z 21006KT 9999 SCT022 BKN070 21/16 Q1018=
2020051503 - SABZ18 SBSR 150300
2020051503 - METAR SBSR 150300Z 20003KT 9999 SCT025 BKN070 20/16 Q1018=
2020051504 - SABZ18 SBSR 150400
2020051504 - METAR SBSR 150400Z 18003KT 9999 SCT025 SCT070 20/16 Q1018=
2020051505 - SABZ18 SBSR 150500
2020051505 - METAR SBSR 150500Z 18004KT 9999 SCT025 SCT070 19/16 Q1018=
2020051506 - SABZ18 SBSR 150600
2020051506 - METAR SBSR 150600Z 16005KT 9999 SCT025 SCT070 19/15 Q1017=
2020051507 - SABZ18 SBSR 150700
2020051507 - METAR SBSR 150700Z 15002KT 9999 SCT025 SCT070 19/15 Q1017=
2020051508 - SABZ18 SBSR 150800
2020051508 - METAR SBSR 150800Z 13004KT 9999 FEW025 SCT070 19/15 Q1017=
2020051509 - SABZ18 SBSR 150900
2020051509 - METAR SBSR 150900Z 17004KT 9999 FEW025 SCT070 19/15 Q1018=
2020051510 - SABZ18 SBSR 151000
2020051510 - METAR SBSR 151000Z 15005KT CAVOK 19/15 Q1016=
2020051511 - SABZ18 SBSR 151100
2020051511 - METAR SBSR 151100Z 14004KT 9999 FEW025 SCT070 19/15 Q1019=
2020051512 - SABZ18 SBSR 151200
2020051512 - METAR SBSR 151200Z 16003KT 9999 FEW025 SCT070 20/15 Q1019=
2020051513 - SABZ18 SBSR 151300
2020051513 - METAR SBSR 151300Z 15004KT 9999 FEW010 BKN020 BKN070 21/15 Q1020=
2020051514 - SABZ18 SBSR 151400
2020051514 - METAR SBSR 151400Z 13004KT 9999 SCT020 BKN070 23/15 Q1020=
2020051515 - SABZ18 SBSR 151500
2020051515 - METAR SBSR 151500Z 18007KT 9999 SCT020 BKN070 23/15 Q1019=
2020051516 - SABZ18 SBSR 151600
2020051516 - METAR SBSR 151600Z 21005KT 9999 BKN020 BKN070 24/15 Q1018=
2020051517 - SABZ18 SBSR 151700
2020051517 - METAR SBSR 151700Z 24003KT 9999 BKN020 BKN070 24/14 Q1017=
2020051518 - SABZ18 SBSR 151800
2020051518 - METAR SBSR 151800Z 20007KT 9999 BKN020 BKN070 25/15 Q1017=
2020051519 - SABZ18 SBSR 151900
2020051519 - METAR SBSR 151900Z 17006KT 9999 SCT020 BKN070 24/14 Q1017=
2020051520 - SABZ18 SBSR 152000
2020051520 - METAR SBSR 152000Z 18006KT 9999 SCT025 BKN070 24/14 Q1017=
2020051521 - SABZ18 SBSR 152100
2020051521 - METAR SBSR 152100Z 19007KT 9999 SCT025 BKN070 23/14 Q1017=
2020051522 - SABZ18 SBSR 152200
2020051522 - METAR SBSR 152200Z 19005KT 9999 SCT025 BKN070 22/14 Q1017=
2020051523 - SABZ18 SBSR 152300
2020051523 - METAR SBSR 152300Z 18003KT 9999 SCT025 BKN070 21/14 Q1018=
2020051600 - SABZ18 SBSR 160000
2020051600 - METAR SBSR 160000Z 18004KT 9999 FEW025 BKN070 21/14 Q1018=
2020051601 - SABZ18 SBSR 160100
2020051601 - METAR SBSR 160100Z 19004KT 9999 FEW025 BKN070 21/14 Q1019=
2020051602 - SABZ18 SBSR 160200
2020051602 - METAR SBSR 160200Z 20005KT 9999 FEW020 SCT070 21/14 Q1019=
2020051603 - SABZ18 SBSR 160300
2020051603 - METAR SBSR 160300Z 19006KT 9999 FEW020 SCT070 20/14 Q1019=
2020051604 - SABZ18 SBSR 160400
2020051604 - METAR SBSR 160400Z 19006KT 9999 FEW022 SCT070 19/14 Q1019=
2020051605 - SABZ18 SBSR 160500
2020051605 - METAR SBSR 160500Z 18004KT 9999 FEW023 SCT070 19/14 Q1018=
2020051606 - SABZ18 SBSR 160600
2020051606 - METAR SBSR 160600Z 17003KT 9999 FEW030 SCT070 18/14 Q1018=
2020051607 - SABZ18 SBSR 160700
2020051607 - METAR SBSR 160700Z 19003KT 9999 FEW035 SCT070 17/13 Q1017=
2020051608 - SABZ18 SBSR 160800
2020051608 - METAR SBSR 160800Z 17002KT 9999 FEW035 17/13 Q1017=
2020051609 - SABZ18 SBSR 160900
2020051609 - METAR SBSR 160900Z 19002KT 9999 FEW035 SCT070 17/13 Q1018=
2020051610 - SABZ18 SBSR 161000
2020051610 - METAR SBSR 161000Z 19002KT CAVOK 16/12 Q1018=
2020051611 - SABZ18 SBSR 161100
2020051611 - METAR SBSR 161100Z 18005KT CAVOK 17/13 Q1019=
2020051612 - SABZ18 SBSR 161200
2020051612 - METAR SBSR 161200Z 21003KT CAVOK 20/13 Q1019=
2020051613 - SABZ18 SBSR 161300
2020051613 - METAR SBSR 161300Z 18003KT CAVOK 22/13 Q1020=
2020051614 - SABZ18 SBSR 161400
2020051614 - METAR SBSR 161400Z 20006KT CAVOK 23/13 Q1020=
2020051615 - SABZ18 SBSR 161500
2020051615 - METAR SBSR 161500Z 16007KT 9999 FEW040 25/11 Q1019=
2020051616 - SABZ18 SBSR 161600
2020051616 - METAR SBSR 161600Z 19004KT 9999 SCT035 25/11 Q1018=
2020051617 - SABZ18 SBSR 161700
2020051617 - METAR SBSR 161700Z 20007KT 9999 SCT035 26/10 Q1017=
2020051618 - SABZ18 SBSR 161800
2020051618 - METAR SBSR 161800Z 20005KT 9999 SCT035 26/10 Q1017=
2020051619 - SABZ18 SBSR 161900
2020051619 - METAR SBSR 161900Z 18006KT 9999 SCT040 27/09 Q1017=
2020051620 - SABZ18 SBSR 162000
2020051620 - METAR SBSR 162000Z 23008KT CAVOK 26/09 Q1017=
2020051621 - SABZ18 SBSR 162100
2020051621 - METAR SBSR 162100Z 21003KT CAVOK 24/09 Q1017=
2020051622 - SABZ18 SBSR 162200
2020051622 - METAR SBSR 162200Z 21008KT CAVOK 23/10 Q1018=
2020051623 - SABZ18 SBSR 162300
2020051623 - METAR SBSR 162300Z 20003KT CAVOK 22/10 Q1018=
2020051700 - SABZ18 SBSR 170000
2020051700 - METAR SBSR 170000Z 00000KT CAVOK 22/10 Q1019=
2020051701 - SABZ18 SBSR 170100
2020051701 - METAR SBSR 170100Z 00000KT CAVOK 21/10 Q1019=
2020051702 - SABZ18 SBSR 170200
2020051702 - METAR SBSR 170200Z 19004KT CAVOK 20/10 Q1019=
2020051703 - SABZ18 SBSR 170300
2020051703 - METAR SBSR 170300Z 19004KT CAVOK 20/10 Q1019=
2020051704 - SABZ18 SBSR 170400
2020051704 - METAR SBSR 170400Z 18005KT CAVOK 19/10 Q1019=
2020051705 - SABZ18 SBSR 170500
2020051705 - METAR SBSR 170500Z 18003KT CAVOK 19/10 Q1018=
2020051706 - SABZ18 SBSR 170600
2020051706 - METAR SBSR 170600Z 17005KT CAVOK 17/10 Q1018=
2020051707 - SABZ18 SBSR 170700
2020051707 - METAR SBSR 170700Z 17003KT CAVOK 17/10 Q1018=
2020051708 - SABZ18 SBSR 170800
2020051708 - METAR SBSR 170800Z 14003KT CAVOK 17/09 Q1018=
2020051709 - SABZ18 SBSR 170900
2020051709 - METAR SBSR 170900Z 15002KT CAVOK 16/09 Q1018=
2020051710 - SABZ18 SBSR 171000
2020051710 - METAR SBSR 171000Z 00000KT CAVOK 16/09 Q1019=
2020051711 - SABZ18 SBSR 171100
2020051711 - METAR SBSR 171100Z 12004KT CAVOK 18/09 Q1020=
2020051712 - SABZ18 SBSR 171200
2020051712 - METAR SBSR 171200Z 09007KT CAVOK 20/09 Q1021=
2020051713 - SABZ18 SBSR 171300
2020051713 - METAR SBSR 171300Z 09008KT CAVOK 23/08 Q1021=
2020051714 - SABZ18 SBSR 171400
2020051714 - METAR SBSR 171400Z 07008KT CAVOK 24/08 Q1021=
2020051715 - SABZ18 SBSR 171500
2020051715 - METAR SBSR 171500Z 21003KT CAVOK 26/07 Q1020=
2020051716 - SABZ18 SBSR 171600
2020051716 - METAR SBSR 171600Z 36002KT CAVOK 26/06 Q1019=
2020051717 - SABZ18 SBSR 171700
2020051717 - METAR SBSR 171700Z 09004KT CAVOK 27/06 Q1018=
2020051718 - SABZ18 SBSR 171800
2020051718 - METAR SBSR 171800Z 15004KT CAVOK 27/06 Q1017=
2020051719 - SABZ18 SBSR 171900
2020051719 - METAR SBSR 171900Z 18002KT CAVOK 29/05 Q1017=
2020051720 - SABZ18 SBSR 172000
2020051720 - METAR SBSR 172000Z 00000KT CAVOK 28/04 Q1017=
2020051721 - SABZ18 SBSR 172100
2020051721 - METAR SBSR 172100Z 21004KT CAVOK 26/05 Q1018=
2020051722 - SABZ18 SBSR 172200
2020051722 - METAR SBSR 172200Z 20003KT CAVOK 24/06 Q1018=
2020051723 - SABZ18 SBSR 172300
2020051723 - METAR SBSR 172300Z 20003KT CAVOK 23/07 Q1018=
2020051800 - SABZ18 SBSR 180000
2020051800 - METAR SBSR 180000Z 20002KT CAVOK 22/06 Q1019=
2020051801 - SABZ18 SBSR 180100
2020051801 - METAR SBSR 180100Z 00000KT CAVOK 20/07 Q1020=
2020051802 - SABZ18 SBSR 180200
2020051802 - METAR SBSR 180200Z 00000KT CAVOK 19/08 Q1020=
2020051803 - SABZ18 SBSR 180300
2020051803 - METAR SBSR 180300Z 18002KT CAVOK 19/07 Q1020=
2020051804 - SABZ18 SBSR 180400
2020051804 - METAR SBSR 180400Z 16003KT CAVOK 20/07 Q1020=
2020051805 - SABZ18 SBSR 180500
2020051805 - METAR SBSR 180500Z 00000KT CAVOK 17/08 Q1020=
2020051806 - SABZ18 SBSR 180600
2020051806 - METAR SBSR 180600Z 18002KT CAVOK 18/07 Q1019=
2020051807 - SABZ18 SBSR 180700
2020051807 - METAR SBSR 180700Z 00000KT CAVOK 16/07 Q1019=
2020051808 - SABZ18 SBSR 180800
2020051808 - METAR SBSR 180800Z 00000KT CAVOK 15/08 Q1019=
2020051809 - SABZ18 SBSR 180900
2020051809 - METAR SBSR 180900Z 00000KT CAVOK 16/08 Q1020=
2020051810 - SABZ18 SBSR 181000
2020051810 - METAR SBSR 181000Z 13002KT CAVOK 16/08 Q1020=
2020051811 - SABZ18 SBSR 181100
2020051811 - METAR SBSR 181100Z 10004KT CAVOK 18/10 Q1021=
2020051812 - SABZ18 SBSR 181200
2020051812 - METAR SBSR 181200Z 09006KT CAVOK 21/10 Q1021=
2020051813 - SABZ18 SBSR 181300
2020051813 - METAR SBSR 181300Z 10006KT CAVOK 23/12 Q1022=
2020051814 - SABZ18 SBSR 181400
2020051814 - METAR SBSR 181400Z 10004KT CAVOK 26/12 Q1021=
2020051815 - SABZ18 SBSR 181500
2020051815 - METAR SBSR 181500Z 07007KT 9999 FEW025 27/09 Q1021=
2020051816 - SABZ18 SBSR 181600
2020051816 - METAR SBSR 181600Z 08004KT 9999 FEW025 28/07 Q1020=
2020051817 - SABZ18 SBSR 181700
2020051817 - METAR SBSR 181700Z 09006KT 9999 SCT025 28/07 Q1019=
2020051818 - SABZ18 SBSR 181800
2020051818 - METAR SBSR 181800Z 14008KT 9999 FEW025 29/07 Q1018=
2020051819 - SABZ18 SBSR 181900
2020051819 - METAR SBSR 181900Z 12004KT 9999 FEW025 29/07 Q1018=
2020051820 - SABZ18 SBSR 182000
2020051820 - METAR SBSR 182000Z 12007KT 9999 FEW025 28/07 Q1018=
2020051821 - SABZ18 SBSR 182100
2020051821 - METAR SBSR 182100Z 12004KT 9999 FEW030 27/08 Q1019=
2020051822 - SABZ18 SBSR 182200
2020051822 - METAR SBSR 182200Z 13005KT 9999 FEW030 26/08 Q1019=
2020051823 - SABZ18 SBSR 182300
2020051823 - METAR SBSR 182300Z 13003KT CAVOK 24/07 Q1019=
2020051900 - SABZ18 SBSR 190000
2020051900 - METAR SBSR 190000Z 12004KT CAVOK 23/07 Q1020=
2020051901 - SABZ18 SBSR 190100
2020051901 - METAR SBSR 190100Z 12004KT CAVOK 23/07 Q1020=
2020051902 - SABZ18 SBSR 190200
2020051902 - METAR SBSR 190200Z 13002KT CAVOK 22/07 Q1020=
2020051903 - SABZ18 SBSR 190300
2020051903 - METAR SBSR 190300Z 12006KT CAVOK 22/06 Q1020=
2020051904 - SABZ18 SBSR 190400
2020051904 - METAR SBSR 190400Z 13008KT CAVOK 21/05 Q1020=
2020051905 - SABZ18 SBSR 190500
2020051905 - METAR SBSR 190500Z 10004KT CAVOK 20/07 Q1020=
2020051906 - SABZ18 SBSR 190600
2020051906 - METAR SBSR 190600Z 09005KT CAVOK 20/08 Q1020=
2020051907 - SABZ18 SBSR 190700
2020051907 - METAR SBSR 190700Z 12002KT CAVOK 18/05 Q1020=
2020051908 - SABZ18 SBSR 190800
2020051908 - METAR SBSR 190800Z 12005KT CAVOK 18/10 Q1020=
2020051909 - SABZ18 SBSR 190900
2020051909 - METAR SBSR 190900Z 10004KT CAVOK 18/10 Q1021=
2020051910 - SABZ18 SBSR 191000
2020051910 - METAR SBSR 191000Z 10004KT CAVOK 17/10 Q1021=
2020051911 - SABZ18 SBSR 191100
2020051911 - METAR SBSR 191100Z 11006KT CAVOK 19/10 Q1022=
2020051912 - SABZ18 SBSR 191200
2020051912 - METAR SBSR 191200Z 09010KT CAVOK 21/10 Q1023=
2020051913 - SABZ18 SBSR 191300
2020051913 - METAR SBSR 191300Z 08008KT CAVOK 23/10 Q1023=
2020051914 - SABZ18 SBSR 191400
2020051914 - METAR SBSR 191400Z 07011KT CAVOK 25/09 Q1023=
2020051915 - SABZ18 SBSR 191500
2020051915 - METAR SBSR 191500Z 08010KT CAVOK 27/08 Q1022=
2020051916 - SABZ18 SBSR 191600
2020051916 - METAR SBSR 191600Z 12005KT CAVOK 28/06 Q1021=
2020051917 - SABZ18 SBSR 191700
2020051917 - METAR SBSR 191700Z 11003KT CAVOK 28/07 Q1020=
2020051918 - SABZ18 SBSR 191800
2020051918 - METAR SBSR 191800Z 10006KT CAVOK 29/06 Q1019=
2020051919 - SABZ18 SBSR 191900
2020051919 - METAR SBSR 191900Z 09011KT CAVOK 28/05 Q1018=
2020051920 - SABZ18 SBSR 192000
2020051920 - METAR SBSR 192000Z 06010KT CAVOK 28/05 Q1019=
2020051921 - SABZ18 SBSR 192100
2020051921 - METAR SBSR 192100Z 08004KT CAVOK 27/05 Q1019=
2020051922 - SABZ18 SBSR 192200
2020051922 - METAR SBSR 192200Z 12003KT CAVOK 26/07 Q1019=
2020051923 - SABZ18 SBSR 192300
2020051923 - METAR SBSR 192300Z 11005KT CAVOK 25/07 Q1019=
2020052000 - SABZ18 SBSR 200000
2020052000 - METAR SBSR 200000Z 11004KT CAVOK 24/07 Q1020=
2020052001 - SABZ18 SBSR 200100
2020052001 - METAR SBSR 200100Z 00000KT 9999 FEW040 24/08 Q1020=
2020052002 - SABZ18 SBSR 200200
2020052002 - METAR SBSR 200200Z 13006KT CAVOK 23/09 Q1020=
2020052003 - SABZ18 SBSR 200300
2020052003 - METAR SBSR 200300Z 08005KT 9999 FEW030 23/10 Q1021=
2020052004 - SABZ18 SBSR 200400
2020052004 - METAR SBSR 200400Z 07003KT 9999 FEW030 22/10 Q1021=
2020052005 - SABZ18 SBSR 200500
2020052005 - METAR SBSR 200500Z 09005KT CAVOK 21/10 Q1020=
2020052006 - SABZ18 SBSR 200600
2020052006 - METAR SBSR 200600Z 09005KT CAVOK 20/11 Q1020=
2020052007 - SABZ18 SBSR 200700
2020052007 - METAR SBSR 200700Z 09006KT CAVOK 19/11 Q1020=
2020052008 - SABZ18 SBSR 200800
2020052008 - METAR SBSR 200800Z 09007KT CAVOK 19/11 Q1020=
2020052009 - SABZ18 SBSR 200900
2020052009 - METAR SBSR 200900Z 08007KT CAVOK 19/11 Q1020=
2020052010 - SABZ18 SBSR 201000
2020052010 - METAR SBSR 201000Z 08007KT CAVOK 18/11 Q1021=
2020052011 - SABZ18 SBSR 201100
2020052011 - METAR SBSR 201100Z 09008KT CAVOK 19/11 Q1022=
2020052012 - SABZ18 SBSR 201200
2020052012 - METAR SBSR 201200Z 08011KT CAVOK 21/11 Q1023=
2020052013 - SABZ18 SBSR 201300
2020052013 - METAR SBSR 201300Z 07013KT CAVOK 23/11 Q1023=
2020052014 - SABZ18 SBSR 201400
2020052014 - METAR SBSR 201400Z 05011KT CAVOK 25/11 Q1023=
2020052015 - SABZ18 SBSR 201500
2020052015 - METAR SBSR 201500Z 05007KT CAVOK 26/11 Q1022=
2020052016 - SABZ18 SBSR 201600
2020052016 - METAR SBSR 201600Z 02006KT 9999 FEW025 28/11 Q1021=
2020052017 - SABZ18 SBSR 201700
2020052017 - METAR SBSR 201700Z 01004KT 9999 SCT025 28/09 Q1020=
2020052018 - SABZ18 SBSR 201800
2020052018 - METAR SBSR 201800Z 09006KT 9999 SCT025 28/09 Q1019=
2020052019 - SABZ18 SBSR 201900
2020052019 - METAR SBSR 201900Z 12002KT 9999 SCT025 29/08 Q1019=
2020052020 - SABZ18 SBSR 202000
2020052020 - METAR SBSR 202000Z 05003KT 9999 SCT025 28/07 Q1019=
2020052021 - SABZ18 SBSR 202100
2020052021 - METAR SBSR 202100Z 12003KT 9999 SCT025 27/09 Q1019=
2020052022 - SABZ18 SBSR 202200
2020052022 - METAR SBSR 202200Z 10004KT 9999 SCT030 26/08 Q1019=
2020052023 - SABZ18 SBSR 202300
2020052023 - METAR SBSR 202300Z 10005KT 9999 FEW030 25/09 Q1020=
2020052100 - SABZ18 SBSR 210000
2020052100 - METAR SBSR 210000Z 10007KT 9999 SCT030 24/11 Q1020=
2020052101 - SABZ18 SBSR 210100
2020052101 - METAR SBSR 210100Z 00000KT 9999 SCT030 24/12 Q1021=
2020052102 - SABZ18 SBSR 210200
2020052102 - METAR SBSR 210200Z 09002KT 9999 FEW025 24/12 Q1021=
2020052103 - SABZ18 SBSR 210300
2020052103 - METAR SBSR 210300Z 09005KT 9999 FEW025 23/12 Q1021=
2020052104 - SABZ18 SBSR 210400
2020052104 - METAR SBSR 210400Z 10008KT 9999 FEW030 21/13 Q1020=
2020052105 - SABZ18 SBSR 210500
2020052105 - METAR SBSR 210500Z 09007KT CAVOK 21/14 Q1020=
2020052106 - SABZ18 SBSR 210600
2020052106 - METAR SBSR 210600Z 08006KT CAVOK 20/13 Q1020=
2020052107 - SABZ18 SBSR 210700
2020052107 - METAR SBSR 210700Z 09005KT CAVOK 19/13 Q1019=
2020052108 - SABZ18 SBSR 210800
2020052108 - METAR SBSR 210800Z 08006KT CAVOK 19/13 Q1020=
2020052109 - SABZ18 SBSR 210900
2020052109 - METAR SBSR 210900Z 08005KT CAVOK 19/13 Q1020=
2020052110 - SABZ18 SBSR 211000
2020052110 - METAR SBSR 211000Z 09005KT CAVOK 18/13 Q1021=
2020052111 - SABZ18 SBSR 211100
2020052111 - METAR SBSR 211100Z 06008KT CAVOK 19/13 Q1021=
2020052112 - SABZ18 SBSR 211200
2020052112 - METAR SBSR 211200Z 08010KT 050V110 CAVOK 21/13 Q1022=
2020052113 - SABZ18 SBSR 211300
2020052113 - METAR SBSR 211300Z 07009KT 030V090 CAVOK 23/13 Q1022=
2020052114 - SABZ18 SBSR 211400
2020052114 - METAR SBSR 211400Z 03007KT CAVOK 25/13 Q1021=
2020052115 - SABZ18 SBSR 211500
2020052115 - METAR SBSR 211500Z 06010KT CAVOK 26/13 Q1021=
2020052116 - SABZ18 SBSR 211600
2020052116 - METAR SBSR 211600Z 01004KT CAVOK 28/11 Q1019=
2020052117 - SABZ18 SBSR 211700
2020052117 - METAR SBSR 211700Z 08005KT 9999 FEW030 28/11 Q1018=
2020052118 - SABZ18 SBSR 211800
2020052118 - METAR SBSR 211800Z 09003KT 9999 SCT030 28/10 Q1017=
2020052119 - SABZ18 SBSR 211900
2020052119 - METAR SBSR 211900Z 06009KT 9999 FEW035 29/08 Q1017=
2020052120 - SABZ18 SBSR 212000
2020052120 - METAR SBSR 212000Z 02005KT CAVOK 28/09 Q1017=
2020052121 - SABZ18 SBSR 212100
2020052121 - METAR SBSR 212100Z 06004KT CAVOK 28/09 Q1017=
2020052122 - SABZ18 SBSR 212200
2020052122 - METAR SBSR 212200Z 09005KT CAVOK 26/10 Q1017=
2020052123 - SABZ18 SBSR 212300
2020052123 - METAR SBSR 212300Z 06002KT CAVOK 25/10 Q1018=
2020052200 - SABZ18 SBSR 220000
2020052200 - METAR SBSR 220000Z 07002KT CAVOK 23/11 Q1018=
2020052201 - SABZ18 SBSR 220100
2020052201 - METAR SBSR 220100Z 08002KT CAVOK 23/11 Q1019=
2020052202 - SABZ18 SBSR 220200
2020052202 - METAR SBSR 220200Z 00000KT CAVOK 22/11 Q1019=
2020052203 - SABZ18 SBSR 220300
2020052203 - METAR SBSR 220300Z 00000KT CAVOK 22/11 Q1018=
2020052204 - SABZ18 SBSR 220400
2020052204 - METAR SBSR 220400Z 03003KT CAVOK 21/11 Q1018=
2020052205 - SABZ18 SBSR 220500
2020052205 - METAR SBSR 220500Z 06003KT CAVOK 20/11 Q1018=
2020052206 - SABZ18 SBSR 220600
2020052206 - METAR SBSR 220600Z 06002KT CAVOK 20/12 Q1017=
2020052207 - SABZ18 SBSR 220700
2020052207 - METAR SBSR 220700Z 08005KT CAVOK 19/12 Q1017=
2020052208 - SABZ18 SBSR 220800
2020052208 - METAR SBSR 220800Z 09004KT CAVOK 18/12 Q1017=
2020052209 - SABZ18 SBSR 220900
2020052209 - METAR SBSR 220900Z 06004KT CAVOK 18/12 Q1018=
2020052210 - SABZ18 SBSR 221000
2020052210 - METAR SBSR 221000Z 08003KT 9999 FEW030 17/12 Q1018=
2020052211 - SABZ18 SBSR 221100
2020052211 - METAR SBSR 221100Z 06003KT CAVOK 19/13 Q1019=
2020052212 - SABZ18 SBSR 221200
2020052212 - METAR SBSR 221200Z 04007KT CAVOK 21/13 Q1019=
2020052213 - SABZ18 SBSR 221300
2020052213 - METAR SBSR 221300Z 04007KT 010V090 CAVOK 25/14 Q1020=
2020052214 - SABZ18 SBSR 221400
2020052214 - METAR SBSR 221400Z 03009KT CAVOK 27/13 Q1019=
2020052215 - SABZ18 SBSR 221500
2020052215 - METAR SBSR 221500Z 03010KT 350V060 CAVOK 29/13 Q1018=
2020052216 - SABZ18 SBSR 221600
2020052216 - METAR SBSR 221600Z 04011KT 9999 FEW030 30/12 Q1016=
2020052217 - SABZ18 SBSR 221700
2020052217 - METAR SBSR 221700Z 01008KT 330V090 9999 FEW030 30/10 Q1015=
2020052218 - SABZ18 SBSR 221800
2020052218 - METAR SBSR 221800Z 34005KT 9999 FEW030 31/10 Q1014=
2020052219 - SABZ18 SBSR 221900
2020052219 - METAR SBSR 221900Z 02010KT 020V090 9999 FEW030 30/10 Q1013=
2020052220 - SABZ18 SBSR 222000
2020052220 - METAR SBSR 222000Z 35007KT 9999 FEW030 30/11 Q1014=
2020052221 - SABZ18 SBSR 222100
2020052221 - METAR SBSR 222100Z 36006KT 9999 SCT025 SCT070 28/11 Q1014=
2020052222 - SABZ18 SBSR 222200
2020052222 - METAR SBSR 222200Z 03003KT CAVOK 27/12 Q1015=
2020052223 - SABZ18 SBSR 222300
2020052223 - METAR SBSR 222300Z 06004KT CAVOK 26/12 Q1015=
2020052300 - SABZ18 SBSR 230000
2020052300 - METAR SBSR 230000Z 09004KT CAVOK 25/13 Q1015=
2020052301 - SABZ18 SBSR 230100
2020052301 - METAR SBSR 230100Z 03008KT CAVOK 25/13 Q1015=
2020052302 - SABZ18 SBSR 230200
2020052302 - METAR SBSR 230200Z 06006KT CAVOK 25/14 Q1016=
2020052303 - SABZ18 SBSR 230300
2020052303 - METAR SBSR 230300Z 27012KT 3000 -TSRA BR BKN008 FEW040CB OVC070 19/16 Q1019=
2020052304 - SABZ18 SBSR 230400
2020052304 - METAR SBSR 230400Z 24006KT 5000 -RA BR BKN008 OVC070 19/17 Q1019 RETS=
2020052305 - SABZ18 SBSR 230500
2020052305 - METAR SBSR 230500Z 27006KT 5000 -RA BR BKN008 OVC070 19/16 Q1018=
2020052306 - SABZ18 SBSR 230600
2020052306 - METAR SBSR 230600Z 12002KT 8000 -DZ BKN009 OVC070 19/16 Q1017=
2020052307 - SABZ18 SBSR 230700
2020052307 - METAR SBSR 230700Z 03006KT 9999 SCT010 BKN070 19/17 Q1017=
2020052308 - SABZ18 SBSR 230800
2020052308 - METAR SBSR 230800Z 03006KT 9999 BKN010 BKN070 19/16 Q1017=
2020052309 - SABZ18 SBSR 230900
2020052309 - METAR SBSR 230900Z 36004KT 9999 SCT009 19/16 Q1018=
2020052310 - SABZ18 SBSR 231000
2020052310 - METAR SBSR 231000Z 02006KT 9000 SCT010 BKN016 OVC070 19/16 Q1018=
2020052311 - SABZ18 SBSR 231100
2020052311 - METAR SBSR 231100Z 02006KT 9000 BKN010 BKN017 OVC070 19/16 Q1019=
2020052312 - SABZ18 SBSR 231200
2020052312 - METAR SBSR 231200Z 27005KT 240V310 9000 BKN010 OVC070 19/16 Q1020=
2020052313 - SABZ18 SBSR 231300
2020052313 - METAR SBSR 231300Z 27004KT 7000 BKN010 OVC070 17/15 Q1021=
2020052314 - SABZ18 SBSR 231400
2020052314 - METAR SBSR 231400Z 26007KT 2000 BR BKN010 OVC070 17/15 Q1021=
2020052315 - SABZ18 SBSR 231500
2020052315 - METAR SBSR 231500Z 27008KT 7000 BKN011 OVC070 17/13 Q1020=
2020052316 - SABZ18 SBSR 231600
2020052316 - METAR SBSR 231600Z 28008KT 9000 FEW009 BKN012 OVC070 18/14 Q1019=
2020052317 - SABZ18 SBSR 231700
2020052317 - METAR SBSR 231700Z 27006KT 9999 BKN012 OVC070 18/13 Q1019=
2020052318 - SABZ18 SBSR 231800
2020052318 - METAR SBSR 231800Z 25009KT 9000 SCT009 BKN011 OVC070 17/13 Q1019=
2020052319 - SABZ18 SBSR 231900
2020052319 - METAR SBSR 231900Z 27005KT 9000 SCT008 BKN010 OVC070 17/13 Q1019=
2020052320 - SABZ18 SBSR 232000
2020052320 - METAR SBSR 232000Z 26004KT 1000 BR OVC005 15/12 Q1020=
2020052321 - SABZ18 SBSR 232100
2020052321 - METAR SBSR 232100Z 27005KT 7000 SCT009 BKN011 OVC070 15/12 Q1020=
2020052322 - SABZ18 SBSR 232200
2020052322 - METAR SBSR 232200Z 27005KT 9000 BKN009 OVC015 15/12 Q1020=
2020052323 - SABZ18 SBSR 232300
2020052323 - METAR SBSR 232300Z 27005KT 9000 OVC015 15/12 Q1021=
2020052400 - SABZ18 SBSR 240000
2020052400 - METAR SBSR 240000Z 27004KT 9999 BKN015 15/11 Q1021=
2020052401 - SABZ18 SBSR 240100
2020052401 - METAR SBSR 240100Z 24006KT 9999 SCT015 14/10 Q1021=
2020052402 - SABZ18 SBSR 240200
2020052402 - METAR SBSR 240200Z 24007KT 9999 SCT015 13/09 Q1022=
2020052403 - SABZ18 SBSR 240300
2020052403 - METAR SBSR 240300Z 24008KT 9999 SCT015 13/08 Q1022=
2020052404 - SABZ18 SBSR 240400
2020052404 - METAR SBSR 240400Z 24007KT 9999 SCT015 13/08 Q1022=
2020052405 - SABZ18 SBSR 240500
2020052405 - METAR SBSR 240500Z 24004KT 9999 SCT020 13/07 Q1021=
2020052406 - SABZ18 SBSR 240600
2020052406 - METAR SBSR 240600Z 24004KT CAVOK 13/08 Q1021=
2020052407 - SABZ18 SBSR 240700
2020052407 - METAR SBSR 240700Z 24004KT CAVOK 12/08 Q1021=
2020052408 - SABZ18 SBSR 240800
2020052408 - METAR SBSR 240800Z 24004KT CAVOK 12/07 Q1021=
2020052409 - SABZ18 SBSR 240900
2020052409 - METAR SBSR 240900Z 27003KT CAVOK 12/07 Q1021=
2020052410 - SABZ18 SBSR 241000
2020052410 - METAR SBSR 241000Z 24004KT 9999 BKN040 12/07 Q1021=
2020052411 - SABZ18 SBSR 241100
2020052411 - METAR SBSR 241100Z 25002KT 9999 SCT035 BKN070 13/07 Q1022=
2020052412 - SABZ18 SBSR 241200
2020052412 - METAR SBSR 241200Z 25005KT 9999 SCT030 BKN070 13/07 Q1023=
2020052413 - SABZ18 SBSR 241300
2020052413 - METAR SBSR 241300Z 24007KT 9999 SCT030 BKN070 14/07 Q1023=
2020052414 - SABZ18 SBSR 241400
2020052414 - METAR SBSR 241400Z 21006KT 9999 SCT025 BKN070 14/07 Q1022=
2020052415 - SABZ18 SBSR 241500
2020052415 - METAR SBSR 241500Z 23005KT 9999 SCT030 BKN070 15/07 Q1022=
2020052416 - SABZ18 SBSR 241600
2020052416 - METAR SBSR 241600Z 25002KT 9999 SCT040 16/07 Q1021=
2020052417 - SABZ18 SBSR 241700
2020052417 - METAR SBSR 241700Z 25004KT 9999 FEW035 SCT040 16/07 Q1020=
2020052418 - SABZ18 SBSR 241800
2020052418 - METAR SBSR 241800Z 26005KT 9999 SCT035 BKN040 16/07 Q1020=
2020052419 - SABZ18 SBSR 241900
2020052419 - METAR SBSR 241900Z 25006KT 9999 FEW030 BKN040 16/07 Q1019=
2020052420 - SABZ18 SBSR 242000
2020052420 - METAR SBSR 242000Z 25007KT 9999 SCT030 BKN040 16/08 Q1020=
2020052421 - SABZ18 SBSR 242100
2020052421 - METAR SBSR 242100Z 24005KT 9999 BKN020 BKN070 15/08 Q1020=
2020052422 - SABZ18 SBSR 242200
2020052422 - METAR SBSR 242200Z 24003KT 9999 BKN020 BKN070 15/08 Q1020=
2020052423 - SABZ18 SBSR 242300
2020052423 - METAR SBSR 242300Z 30002KT 9999 SCT020 BKN070 14/07 Q1020=
2020052500 - SABZ18 SBSR 250000
2020052500 - METAR SBSR 250000Z 24003KT CAVOK 13/08 Q1020=
2020052501 - SABZ18 SBSR 250100
2020052501 - METAR SBSR 250100Z 24004KT CAVOK 12/08 Q1020=
2020052502 - SABZ18 SBSR 250200
2020052502 - METAR SBSR 250200Z 24003KT CAVOK 12/08 Q1020=
2020052503 - SABZ18 SBSR 250300
2020052503 - METAR SBSR 250300Z 00000KT CAVOK 11/08 Q1020=
2020052504 - SABZ18 SBSR 250400
2020052504 - METAR SBSR 250400Z 00000KT CAVOK 11/08 Q1020=
2020052505 - SABZ18 SBSR 250500
2020052505 - METAR SBSR 250500Z 00000KT CAVOK 10/07 Q1010=
2020052506 - SABZ18 SBSR 250600
2020052506 - METAR SBSR 250600Z 21003KT CAVOK 10/07 Q1019=
2020052507 - SABZ18 SBSR 250700
2020052507 - METAR SBSR 250700Z 21002KT CAVOK 11/07 Q1018=
2020052508 - SABZ18 SBSR 250800
2020052508 - METAR SBSR 250800Z 00000KT CAVOK 10/07 Q1018=
2020052509 - SABZ18 SBSR 250900
2020052509 - METAR SBSR 250900Z 06002KT CAVOK 10/07 Q1018=
2020052510 - SABZ18 SBSR 251000
2020052510 - METAR SBSR 251000Z 00000KT 9999 SCT045 09/06 Q1018=
2020052511 - SABZ18 SBSR 251100
2020052511 - METAR SBSR 251100Z 00000KT CAVOK 11/07 Q1019=
2020052512 - SABZ18 SBSR 251200
2020052512 - METAR SBSR 251200Z 36002KT 9999 SCT035 BKN070 13/08 Q1020=
2020052513 - SABZ18 SBSR 251300
2020052513 - METAR SBSR 251300Z 04002KT 9999 SCT035 15/07 Q1020=
2020052514 - SABZ18 SBSR 251400
2020052514 - METAR SBSR 251400Z 24005KT 9999 SCT035 16/07 Q1020=
2020052515 - SABZ18 SBSR 251500
2020052515 - METAR SBSR 251500Z 27005KT 9999 SCT030 17/07 Q1019=
2020052516 - SABZ18 SBSR 251600
2020052516 - METAR SBSR 251600Z 28004KT CAVOK 19/06 Q1018=
2020052517 - SABZ18 SBSR 251700
2020052517 - METAR SBSR 251700Z 29005KT CAVOK 19/06 Q1017=
2020052518 - SABZ18 SBSR 251800
2020052518 - METAR SBSR 251800Z 33003KT CAVOK 21/05 Q1017=
2020052519 - SABZ18 SBSR 251900
2020052519 - METAR SBSR 251900Z 34005KT CAVOK 21/05 Q1016=
2020052520 - SABZ18 SBSR 252000
2020052520 - METAR SBSR 252000Z 28004KT CAVOK 20/05 Q1017=
2020052521 - SABZ18 SBSR 252100
2020052521 - METAR SBSR 252100Z 25005KT CAVOK 18/05 Q1017=
2020052522 - SABZ18 SBSR 252200
2020052522 - METAR SBSR 252200Z 25005KT CAVOK 16/05 Q1018=
2020052523 - SABZ18 SBSR 252300
2020052523 - METAR SBSR 252300Z 27003KT CAVOK 14/05 Q1018=
2020052600 - SABZ18 SBSR 260000
2020052600 - METAR SBSR 260000Z 27002KT CAVOK 14/05 Q1018=
2020052601 - SABZ18 SBSR 260100
2020052601 - METAR SBSR 260100Z 00000KT CAVOK 13/06 Q1018=
2020052602 - SABZ18 SBSR 260200
2020052602 - METAR SBSR 260200Z 27003KT CAVOK 13/05 Q1019=
2020052603 - SABZ18 SBSR 260300
2020052603 - METAR SBSR 260300Z 28004KT CAVOK 13/04 Q1019=
2020052604 - SABZ18 SBSR 260400
2020052604 - METAR SBSR 260400Z 25004KT CAVOK 13/04 Q1019=
2020052605 - SABZ18 SBSR 260500
2020052605 - METAR SBSR 260500Z 26002KT CAVOK 11/04 Q1018=
2020052606 - SABZ18 SBSR 260600
2020052606 - METAR SBSR 260600Z 00000KT CAVOK 11/05 Q1018=
2020052607 - SABZ18 SBSR 260700
2020052607 - METAR SBSR 260700Z 26002KT CAVOK 11/05 Q1018=
2020052608 - SABZ18 SBSR 260800
2020052608 - METAR SBSR 260800Z 00000KT CAVOK 10/06 Q1018=
2020052609 - SABZ18 SBSR 260900
2020052609 - METAR SBSR 260900Z 00000KT CAVOK 09/06 Q1018=
2020052610 - SABZ18 SBSR 261000
2020052610 - METAR SBSR 261000Z 00000KT CAVOK 09/05 Q1019=
2020052611 - SABZ18 SBSR 261100
2020052611 - METAR SBSR 261100Z 00000KT CAVOK 12/06 Q1019=
2020052612 - SABZ18 SBSR 261200
2020052612 - METAR SBSR 261200Z 24005KT CAVOK 15/06 Q1020=
2020052613 - SABZ18 SBSR 261300
2020052613 - METAR SBSR 261300Z 23010KT CAVOK 17/04 Q1020=
2020052614 - SABZ18 SBSR 261400
2020052614 - METAR SBSR 261400Z 23011KT CAVOK 18/04 Q1020=
2020052615 - SABZ18 SBSR 261500
2020052615 - METAR SBSR 261500Z 23005KT CAVOK 19/05 Q1019=
2020052616 - SABZ18 SBSR 261600
2020052616 - METAR SBSR 261600Z 26005KT CAVOK 21/04 Q1018=
2020052617 - SABZ18 SBSR 261700
2020052617 - METAR SBSR 261700Z 29006KT CAVOK 21/09 Q1017=
2020052618 - SABZ18 SBSR 261800
2020052618 - METAR SBSR 261800Z 24005KT CAVOK 22/18 Q1017=
2020052619 - SABZ18 SBSR 261900
2020052619 - METAR SBSR 261900Z 25005KT CAVOK 22/02 Q1016=
2020052620 - SABZ18 SBSR 262000
2020052620 - METAR SBSR 262000Z 24006KT CAVOK 21/02 Q1016=
2020052621 - SABZ18 SBSR 262100
2020052621 - METAR SBSR 262100Z 26004KT CAVOK 19/04 Q1017=
2020052622 - SABZ18 SBSR 262200
2020052622 - METAR SBSR 262200Z 24005KT CAVOK 16/04 Q1017=
2020052623 - SABZ18 SBSR 262300
2020052623 - METAR SBSR 262300Z 25004KT CAVOK 15/04 Q1018=
2020052700 - SABZ18 SBSR 270000
2020052700 - METAR SBSR 270000Z 25003KT CAVOK 14/05 Q1018=
2020052701 - SABZ18 SBSR 270100
2020052701 - METAR SBSR 270100Z 25002KT CAVOK 14/05 Q1018=
2020052702 - SABZ18 SBSR 270200
2020052702 - METAR SBSR 270200Z 00000KT CAVOK 13/06 Q1019=
2020052703 - SABZ18 SBSR 270300
2020052703 - METAR SBSR 270300Z 00000KT CAVOK 12/06 Q1018=
2020052704 - SABZ18 SBSR 270400
2020052704 - METAR SBSR 270400Z 00000KT CAVOK 12/05 Q1018=
2020052705 - SABZ18 SBSR 270500
2020052705 - METAR SBSR 270500Z 00000KT CAVOK 12/05 Q1018=
2020052706 - SABZ18 SBSR 270600
2020052706 - METAR SBSR 270600Z 00000KT CAVOK 11/04 Q1018=
2020052707 - SABZ18 SBSR 270700
2020052707 - METAR SBSR 270700Z 24003KT CAVOK 10/03 Q1018=
2020052708 - SABZ18 SBSR 270800
2020052708 - METAR SBSR 270800Z 25003KT CAVOK 10/04 Q1018=
2020052709 - SABZ18 SBSR 270900
2020052709 - METAR SBSR 270900Z 22005KT CAVOK 10/03 Q1018=
2020052710 - SABZ18 SBSR 271000
2020052710 - METAR SBSR 271000Z 02002KT CAVOK 09/04 Q1019=
2020052711 - SABZ18 SBSR 271100
2020052711 - METAR SBSR 271100Z 03001KT CAVOK 11/05 Q1020=
2020052712 - SABZ18 SBSR 271200
2020052712 - METAR SBSR 271200Z 05002KT CAVOK 15/05 Q1020=
2020052713 - SABZ18 SBSR 271300
2020052713 - METAR SBSR 271300Z 05001KT CAVOK 18/05 Q1021=
2020052714 - SABZ18 SBSR 271400
2020052714 - METAR SBSR 271400Z 10003KT CAVOK 20/04 Q1020=
2020052715 - SABZ18 SBSR 271500
2020052715 - METAR SBSR 271500Z 12002KT CAVOK 21/03 Q1020=
2020052716 - SABZ18 SBSR 271600
2020052716 - METAR SBSR 271600Z 33002KT CAVOK 23/01 Q1019=
2020052717 - SABZ18 SBSR 271700
2020052717 - METAR SBSR 271700Z 15003KT CAVOK 23/01 Q1018=
2020052718 - SABZ18 SBSR 271800
2020052718 - METAR SBSR 271800Z 14002KT CAVOK 25/01 Q1017=
2020052719 - SABZ18 SBSR 271900
2020052719 - METAR SBSR 271900Z 00000KT CAVOK 25/00 Q1017=
2020052720 - SABZ18 SBSR 272000
2020052720 - METAR SBSR 272000Z 18002KT CAVOK 24/00 Q1017=
2020052721 - SABZ18 SBSR 272100
2020052721 - METAR SBSR 272100Z 21004KT CAVOK 22/02 Q1018=
2020052722 - SABZ18 SBSR 272200
2020052722 - METAR SBSR 272200Z 19002KT CAVOK 20/02 Q1018=
2020052723 - SABZ18 SBSR 272300
2020052723 - METAR SBSR 272300Z 21004KT CAVOK 19/03 Q1019=
2020052800 - SABZ18 SBSR 280000
2020052800 - METAR SBSR 280000Z 00000KT CAVOK 16/06 Q1019=
2020052801 - SABZ18 SBSR 280100
2020052801 - METAR SBSR 280100Z 00000KT CAVOK 15/06 Q1019=
2020052802 - SABZ18 SBSR 280200
2020052802 - METAR SBSR 280200Z 00000KT CAVOK 14/06 Q1019=
2020052803 - SABZ18 SBSR 280300
2020052803 - METAR SBSR 280300Z 00000KT CAVOK 13/06 Q1019=
2020052804 - SABZ18 SBSR 280400
2020052804 - METAR SBSR 280400Z 00000KT CAVOK 13/06 Q1019=
2020052805 - SABZ18 SBSR 280500
2020052805 - METAR SBSR 280500Z 00000KT CAVOK 12/07 Q1018=
2020052806 - SABZ18 SBSR 280600
2020052806 - METAR SBSR 280600Z 18003KT CAVOK 12/05 Q1018=
2020052807 - SABZ18 SBSR 280700
2020052807 - METAR SBSR 280700Z 19003KT CAVOK 11/07 Q1018=
2020052808 - SABZ18 SBSR 280800
2020052808 - METAR SBSR 280800Z 16005KT CAVOK 11/06 Q1018=
2020052809 - SABZ18 SBSR 280900
2020052809 - METAR SBSR 280900Z 16005KT CAVOK 12/04 Q1019=
2020052810 - SABZ18 SBSR 281000
2020052810 - METAR SBSR 281000Z 16005KT CAVOK 13/03 Q1019=
2020052811 - SABZ18 SBSR 281100
2020052811 - METAR SBSR 281100Z 01001KT CAVOK 14/04 Q1020=
2020052812 - SABZ18 SBSR 281200
2020052812 - METAR SBSR 281200Z 12007KT CAVOK 17/04 Q1021=
2020052813 - SABZ18 SBSR 281300
2020052813 - METAR SBSR 281300Z 10005KT CAVOK 20/04 Q1021=
2020052814 - SABZ18 SBSR 281400
2020052814 - METAR SBSR 281400Z 10005KT CAVOK 21/04 Q1020=
2020052815 - SABZ18 SBSR 281500
2020052815 - METAR SBSR 281500Z 14004KT CAVOK 23/03 Q1020=
2020052816 - SABZ18 SBSR 281600
2020052816 - METAR SBSR 281600Z 24003KT CAVOK 24/01 Q1019=
2020052817 - SABZ18 SBSR 281700
2020052817 - METAR SBSR 281700Z 23003KT CAVOK 25/01 Q1018=
2020052818 - SABZ18 SBSR 281800
2020052818 - METAR SBSR 281800Z 30002KT CAVOK 26/00 Q1018=
2020052819 - SABZ18 SBSR 281900 RRA
2020052819 - METAR SBSR 281900Z 27003KT CAVOK 26/01 Q1018=
2020052820 - SABZ18 SBSR 282000
2020052820 - METAR SBSR 282000Z 17003KT CAVOK 25/01 Q1018=
2020052821 - SABZ18 SBSR 282100
2020052821 - METAR SBSR 282100Z 19003KT CAVOK 23/03 Q1018=
2020052822 - SABZ18 SBSR 282200
2020052822 - METAR SBSR 282200Z 18003KT CAVOK 21/02 Q1019=
2020052823 - SABZ18 SBSR 282300
2020052823 - METAR SBSR 282300Z 18003KT CAVOK 19/01 Q1019=
2020052900 - SABZ18 SBSR 290000
2020052900 - METAR SBSR 290000Z 18002KT CAVOK 19/01 Q1019=
2020052901 - SABZ18 SBSR 290100
2020052901 - METAR SBSR 290100Z 13003KT CAVOK 18/01 Q1019=
2020052902 - SABZ18 SBSR 290200
2020052902 - METAR SBSR 290200Z 18003KT CAVOK 17/02 Q1019=
2020052903 - SABZ18 SBSR 290300
2020052903 - METAR SBSR 290300Z 16003KT CAVOK 16/03 Q1019=
2020052904 - SABZ18 SBSR 290400
2020052904 - METAR SBSR 290400Z 00000KT CAVOK 14/05 Q1019=
2020052905 - SABZ18 SBSR 290500
2020052905 - METAR SBSR 290500Z 00000KT CAVOK 13/06 Q1019=
2020052906 - SABZ18 SBSR 290600
2020052906 - METAR SBSR 290600Z 00000KT CAVOK 13/05 Q1019=
2020052907 - SABZ18 SBSR 290700
2020052907 - METAR SBSR 290700Z 00000KT CAVOK 12/05 Q1019=
2020052908 - SABZ18 SBSR 290800
2020052908 - METAR SBSR 290800Z 00000KT CAVOK 12/05 Q1019=
2020052909 - SABZ18 SBSR 290900
2020052909 - METAR SBSR 290900Z 08003KT CAVOK 11/04 Q1020=
2020052910 - SABZ18 SBSR 291000
2020052910 - METAR SBSR 291000Z 11002KT CAVOK 12/05 Q1021=
2020052911 - SABZ18 SBSR 291100
2020052911 - METAR SBSR 291100Z 09002KT CAVOK 13/04 Q1021=
2020052912 - SABZ18 SBSR 291200
2020052912 - METAR SBSR 291200Z 08006KT CAVOK 16/05 Q1021=
2020052913 - SABZ18 SBSR 291300
2020052913 - METAR SBSR 291300Z 08011KT CAVOK 19/05 Q1022=
2020052914 - SABZ18 SBSR 291400
2020052914 - METAR SBSR 291400Z 06010KT CAVOK 22/05 Q1021=
2020052915 - SABZ18 SBSR 291500
2020052915 - METAR SBSR 291500Z 04008KT CAVOK 23/05 Q1020=
2020052916 - SABZ18 SBSR 291600
2020052916 - METAR SBSR 291600Z 05009KT CAVOK 25/04 Q1019=
2020052917 - SABZ18 SBSR 291700
2020052917 - METAR SBSR 291700Z 06004KT CAVOK 26/04 Q1018=
2020052918 - SABZ18 SBSR 291800
2020052918 - METAR SBSR 291800Z 07005KT CAVOK 26/02 Q1018=
2020052919 - SABZ18 SBSR 291900
2020052919 - METAR SBSR 291900Z 09002KT CAVOK 27/02 Q1018=
2020052920 - SABZ18 SBSR 292000
2020052920 - METAR SBSR 292000Z 11003KT CAVOK 26/02 Q1018=
2020052921 - SABZ18 SBSR 292100
2020052921 - METAR SBSR 292100Z 00000KT CAVOK 24/03 Q1018=
2020052922 - SABZ18 SBSR 292200
2020052922 - METAR SBSR 292200Z 00000KT CAVOK 21/04 Q1019=
2020052923 - SABZ18 SBSR 292300
2020052923 - METAR SBSR 292300Z 00000KT CAVOK 20/06 Q1019=
2020053000 - SABZ18 SBSR 300000
2020053000 - METAR SBSR 300000Z 00000KT CAVOK 18/07 Q1019=
2020053001 - SABZ18 SBSR 300100
2020053001 - METAR SBSR 300100Z 00000KT CAVOK 17/07 Q1019=
2020053002 - SABZ18 SBSR 300200
2020053002 - METAR SBSR 300200Z 00000KT CAVOK 16/07 Q1019=
2020053003 - SABZ18 SBSR 300300
2020053003 - METAR SBSR 300300Z 00000KT CAVOK 16/07 Q1019=
2020053004 - SABZ18 SBSR 300400
2020053004 - METAR SBSR 300400Z 00000KT CAVOK 15/07 Q1019=
2020053005 - SABZ18 SBSR 300500
2020053005 - METAR SBSR 300500Z 34002KT CAVOK 14/07 Q1019=
2020053006 - SABZ18 SBSR 300600
2020053006 - METAR SBSR 300600Z 00000KT CAVOK 13/07 Q1018=
2020053007 - SABZ18 SBSR 300700
2020053007 - METAR SBSR 300700Z 07002KT CAVOK 14/07 Q1019=
2020053008 - SABZ18 SBSR 300800
2020053008 - METAR SBSR 300800Z 09004KT CAVOK 14/05 Q1019=
2020053009 - SABZ18 SBSR 300900
2020053009 - METAR SBSR 300900Z 09003KT CAVOK 14/05 Q1019=
2020053010 - SABZ18 SBSR 301000
2020053010 - METAR SBSR 301000Z 08004KT CAVOK 12/05 Q1019=
2020053011 - SABZ18 SBSR 301100
2020053011 - METAR SBSR 301100Z 07003KT CAVOK 14/06 Q1020=
2020053012 - SABZ18 SBSR 301200
2020053012 - METAR SBSR 301200Z 07005KT CAVOK 16/07 Q1021=
2020053013 - SABZ18 SBSR 301300
2020053013 - METAR SBSR 301300Z 06007KT CAVOK 19/08 Q1021=
2020053014 - SABZ18 SBSR 301400
2020053014 - METAR SBSR 301400Z 03008KT CAVOK 22/07 Q1021=
2020053015 - SABZ18 SBSR 301500
2020053015 - METAR SBSR 301500Z 04005KT CAVOK 25/07 Q1021=
2020053016 - SABZ18 SBSR 301600
2020053016 - METAR SBSR 301600Z 05005KT CAVOK 26/06 Q1020=
2020053017 - SABZ18 SBSR 301700
2020053017 - METAR SBSR 301700Z 08003KT CAVOK 26/06 Q1018=
2020053018 - SABZ18 SBSR 301800
2020053018 - METAR SBSR 301800Z 00000KT CAVOK 27/04 Q1018=
2020053019 - SABZ18 SBSR 301900
2020053019 - METAR SBSR 301900Z 00000KT CAVOK 27/03 Q1017=
2020053020 - SABZ18 SBSR 302000
2020053020 - METAR SBSR 302000Z 00000KT CAVOK 26/04 Q1018=
2020053021 - SABZ18 SBSR 302100
2020053021 - METAR SBSR 302100Z 22003KT CAVOK 24/06 Q1018=
2020053022 - SABZ18 SBSR 302200
2020053022 - METAR SBSR 302200Z 00000KT CAVOK 22/05 Q1018=
2020053023 - SABZ18 SBSR 302300
2020053023 - METAR SBSR 302300Z 00000KT CAVOK 20/07 Q1019=
2020053100 - SABZ18 SBSR 310000
2020053100 - METAR SBSR 310000Z 12002KT CAVOK 20/08 Q1019=
2020053101 - SABZ18 SBSR 310100
2020053101 - METAR SBSR 310100Z 00000KT CAVOK 18/08 Q1019=
2020053102 - SABZ18 SBSR 310200
2020053102 - METAR SBSR 310200Z 00000KT CAVOK 17/09 Q1019=
2020053103 - SABZ18 SBSR 310300
2020053103 - METAR SBSR 310300Z 00000KT CAVOK 16/09 Q1019=
2020053104 - SABZ18 SBSR 310400
2020053104 - METAR SBSR 310400Z 00000KT CAVOK 15/09 Q1018=
2020053105 - SABZ18 SBSR 310500
2020053105 - METAR SBSR 310500Z 00000KT CAVOK 15/08 Q1019=
2020053106 - SABZ18 SBSR 310600
2020053106 - METAR SBSR 310600Z 00000KT CAVOK 14/09 Q1018=
2020053107 - SABZ18 SBSR 310700
2020053107 - METAR SBSR 310700Z 00000KT CAVOK 14/07 Q1018=
2020053108 - SABZ18 SBSR 310800
2020053108 - METAR SBSR 310800Z 00000KT CAVOK 13/07 Q1019=
2020053109 - SABZ18 SBSR 310900
2020053109 - METAR SBSR 310900Z 00000KT CAVOK 13/08 Q1019=
2020053110 - SABZ18 SBSR 311000
2020053110 - METAR SBSR 311000Z 09002KT CAVOK 13/07 Q1020=
2020053111 - SABZ18 SBSR 311100
2020053111 - METAR SBSR 311100Z 00000KT CAVOK 16/08 Q1020=
2020053112 - SABZ18 SBSR 311200
2020053112 - METAR SBSR 311200Z 10004KT CAVOK 17/09 Q1021=
2020053113 - SABZ18 SBSR 311300
2020053113 - METAR SBSR 311300Z 07004KT CAVOK 19/09 Q1022=
2020053114 - SABZ18 SBSR 311400
2020053114 - METAR SBSR 311400Z 09003KT CAVOK 23/09 Q1021=
2020053115 - SABZ18 SBSR 311500
2020053115 - METAR SBSR 311500Z 07003KT CAVOK 25/05 Q1021=
2020053116 - SABZ18 SBSR 311600
2020053116 - METAR SBSR 311600Z 00000KT CAVOK 26/07 Q1020=
2020053117 - SABZ18 SBSR 311700
2020053117 - METAR SBSR 311700Z 20005KT CAVOK 26/04 Q1019=
2020053118 - SABZ18 SBSR 311800
2020053118 - METAR SBSR 311800Z 00000KT CAVOK 26/02 Q1018=
2020053119 - SABZ18 SBSR 311900
2020053119 - METAR SBSR 311900Z 24003KT CAVOK 26/02 Q1017=
2020053120 - SABZ18 SBSR 312000
2020053120 - METAR SBSR 312000Z 21003KT CAVOK 25/02 Q1017=
2020053121 - SABZ18 SBSR 312100
2020053121 - METAR SBSR 312100Z 16002KT CAVOK 24/03 Q1017=
2020053122 - SABZ18 SBSR 312200
2020053122 - METAR SBSR 312200Z 15002KT CAVOK 22/04 Q1018=
2020053123 - SABZ18 SBSR 312300
2020053123 - METAR SBSR 312300Z 00000KT CAVOK 20/05 Q1018=
