
2020040100 - SABZ23 SBRJ 010000
2020040100 - METAR SBRJ 010000Z 18007KT 9999 FEW020 BKN040 BKN090 25/22 Q1014=
2020040101 - SABZ23 SBRJ 010100
2020040101 - METAR SBRJ 010100Z 15004KT 9999 FEW020 BKN040 BKN090 25/22 Q1014=
2020040102 - SABZ23 SBRJ 010200
2020040102 - METAR SBRJ 010200Z 17002KT 9999 FEW020 SCT040 BKN090 25/22 Q1014=
2020040103 - SABZ23 SBRJ 010300
2020040103 - METAR SBRJ 010300Z 20002KT 9999 FEW020 SCT040 24/22 Q1014=
2020040104 - Mensagem METAR de 'SBRJ' para 01/04/2020 as 04(UTC) não localizada na base de dados da REDEMET
2020040105 - Mensagem METAR de 'SBRJ' para 01/04/2020 as 05(UTC) não localizada na base de dados da REDEMET
2020040106 - Mensagem METAR de 'SBRJ' para 01/04/2020 as 06(UTC) não localizada na base de dados da REDEMET
2020040107 - Mensagem METAR de 'SBRJ' para 01/04/2020 as 07(UTC) não localizada na base de dados da REDEMET
2020040108 - Mensagem METAR de 'SBRJ' para 01/04/2020 as 08(UTC) não localizada na base de dados da REDEMET
2020040108 - SPECI SBRJ 010850Z 20001KT 9999 FEW008 SCT040 24/22 Q1014=
2020040109 - SABZ23 SBRJ 010900
2020040109 - METAR SBRJ 010900Z VRB01KT 9999 FEW008 SCT040 24/22 Q1014=
2020040110 - SABZ23 SBRJ 011000
2020040110 - METAR SBRJ 011000Z 16002KT 9999 FEW008 SCT025 24/22 Q1015=
2020040111 - SABZ23 SBRJ 011100
2020040111 - METAR SBRJ 011100Z 09003KT 9999 FEW008 SCT030 25/22 Q1015=
2020040112 - SABZ23 SBRJ 011200
2020040112 - METAR SBRJ 011200Z VRB02KT 9999 FEW013 BKN030 BKN070 25/22 Q1016=
2020040113 - SABZ23 SBRJ 011300
2020040113 - METAR SBRJ 011300Z 17005KT 150V210 9999 FEW015 BKN030 BKN070 26/22 Q1016=
2020040114 - SABZ23 SBRJ 011400
2020040114 - METAR SBRJ 011400Z 16007KT 9999 FEW015 BKN035 BKN070 26/21 Q1015=
2020040115 - SABZ23 SBRJ 011500
2020040115 - METAR SBRJ 011500Z 16011KT 9999 FEW018 BKN035 BKN080 26/22 Q1015=
2020040116 - SABZ23 SBRJ 011600
2020040116 - METAR SBRJ 011600Z 16010KT 9999 FEW018 SCT035 27/22 Q1014=
2020040117 - SABZ23 SBRJ 011700
2020040117 - METAR SBRJ 011700Z 17012KT 9999 FEW018 BKN035 BKN070 26/22 Q1014=
2020040118 - SABZ23 SBRJ 011802
2020040118 - METAR SBRJ 011800Z 16010KT 9999 FEW018 BKN035 BKN090 27/21 Q1014=
2020040119 - SABZ23 SBRJ 011900
2020040119 - METAR SBRJ 011900Z 18011KT 9999 FEW018 BKN035 BKN090 25/21 Q1014=
2020040120 - SABZ23 SBRJ 012000
2020040120 - METAR SBRJ 012000Z 17007KT 9999 FEW018 BKN035 BKN090 26/21 Q1014=
2020040121 - SABZ23 SBRJ 012100
2020040121 - METAR SBRJ 012100Z 11009KT 9999 BKN040 26/22 Q1014=
2020040122 - SABZ23 SBRJ 012200
2020040122 - METAR SBRJ 012200Z 06004KT 9999 BKN045 26/22 Q1015=
2020040123 - SABZ23 SBRJ 012300
2020040123 - METAR SBRJ 012300Z 02005KT 9999 FEW023 BKN050 25/22 Q1015=
2020040200 - SABZ23 SBRJ 020000
2020040200 - METAR SBRJ 020000Z 05006KT 9999 FEW020 BKN060 25/21 Q1016=
2020040201 - SABZ23 SBRJ 020100
2020040201 - METAR SBRJ 020100Z 07009KT 9999 FEW010 SCT035 BKN070 25/22 Q1016=
2020040202 - SABZ23 SBRJ 020200
2020040202 - METAR SBRJ 020200Z 08006KT 9999 SCT035 BKN070 24/21 Q1016=
2020040203 - Mensagem METAR de 'SBRJ' para 02/04/2020 as 03(UTC) não localizada na base de dados da REDEMET
2020040204 - Mensagem METAR de 'SBRJ' para 02/04/2020 as 04(UTC) não localizada na base de dados da REDEMET
2020040205 - Mensagem METAR de 'SBRJ' para 02/04/2020 as 05(UTC) não localizada na base de dados da REDEMET
2020040206 - Mensagem METAR de 'SBRJ' para 02/04/2020 as 06(UTC) não localizada na base de dados da REDEMET
2020040207 - Mensagem METAR de 'SBRJ' para 02/04/2020 as 07(UTC) não localizada na base de dados da REDEMET
2020040208 - Mensagem METAR de 'SBRJ' para 02/04/2020 as 08(UTC) não localizada na base de dados da REDEMET
2020040208 - SPECI SBRJ 020850Z 04003KT 9999 FEW015 23/21 Q1014=
2020040209 - SABZ23 SBRJ 020900
2020040209 - METAR SBRJ 020900Z 05004KT 9999 FEW015 23/21 Q1014=
2020040210 - SABZ23 SBRJ 021000
2020040210 - METAR SBRJ 021000Z 06002KT 9999 FEW015 24/22 Q1014=
2020040211 - SABZ23 SBRJ 021100
2020040211 - METAR SBRJ 021100Z 13003KT 9999 FEW015 25/21 Q1014=
2020040212 - SABZ23 SBRJ 021200
2020040212 - METAR SBRJ 021200Z 35003KT 9999 FEW020 25/22 Q1014=
2020040213 - SABZ23 SBRJ 021300
2020040213 - METAR SBRJ 021300Z 34006KT 9999 FEW020 26/22 Q1014=
2020040214 - SABZ23 SBRJ 021400
2020040214 - METAR SBRJ 021400Z 34007KT 9999 FEW025 27/22 Q1013=
2020040215 - SABZ23 SBRJ 021500
2020040215 - METAR SBRJ 021500Z 34005KT 9999 FEW020 27/23 Q1011=
2020040216 - SABZ23 SBRJ 021600
2020040216 - METAR SBRJ 021600Z 13005KT 9999 FEW020 28/23 Q1010=
2020040217 - SABZ23 SBRJ 021700
2020040217 - METAR SBRJ 021700Z 16008KT CAVOK 28/23 Q1009=
2020040218 - SABZ23 SBRJ 021800
2020040218 - METAR SBRJ 021800Z 18010KT CAVOK 29/23 Q1008=
2020040219 - SABZ23 SBRJ 021900
2020040219 - METAR SBRJ 021900Z 18009KT CAVOK 28/23 Q1008=
2020040220 - SABZ23 SBRJ 022000
2020040220 - METAR SBRJ 022000Z 17007KT CAVOK 29/23 Q1007=
2020040221 - SABZ23 SBRJ 022100
2020040221 - METAR SBRJ 022100Z 17005KT CAVOK 27/23 Q1007=
2020040222 - SABZ23 SBRJ 022200
2020040222 - METAR SBRJ 022200Z 14003KT CAVOK 27/24 Q1007=
2020040223 - SABZ23 SBRJ 022300
2020040223 - METAR SBRJ 022300Z 31001KT CAVOK 29/24 Q1008=
2020040300 - SABZ23 SBRJ 030000
2020040300 - METAR SBRJ 030000Z 32005KT CAVOK 28/24 Q1008=
2020040301 - SABZ23 SBRJ 030100
2020040301 - METAR SBRJ 030100Z 31004KT CAVOK 28/25 Q1007=
2020040302 - SABZ23 SBRJ 030200
2020040302 - METAR SBRJ 030200Z 32006KT CAVOK 27/25 Q1007=
2020040303 - Mensagem METAR de 'SBRJ' para 03/04/2020 as 03(UTC) não localizada na base de dados da REDEMET
2020040304 - Mensagem METAR de 'SBRJ' para 03/04/2020 as 04(UTC) não localizada na base de dados da REDEMET
2020040305 - Mensagem METAR de 'SBRJ' para 03/04/2020 as 05(UTC) não localizada na base de dados da REDEMET
2020040306 - Mensagem METAR de 'SBRJ' para 03/04/2020 as 06(UTC) não localizada na base de dados da REDEMET
2020040307 - Mensagem METAR de 'SBRJ' para 03/04/2020 as 07(UTC) não localizada na base de dados da REDEMET
2020040308 - Mensagem METAR de 'SBRJ' para 03/04/2020 as 08(UTC) não localizada na base de dados da REDEMET
2020040308 - SPECI SBRJ 030850Z 29007KT CAVOK 29/21 Q1003=
2020040309 - SABZ23 SBRJ 030900
2020040309 - METAR SBRJ 030900Z 28006KT CAVOK 29/21 Q1003=
2020040310 - SABZ23 SBRJ 031000
2020040310 - METAR SBRJ 031000Z 28006KT CAVOK 30/21 Q1004=
2020040311 - SABZ23 SBRJ 031100
2020040311 - METAR SBRJ 031100Z 30005KT CAVOK 31/21 Q1004=
2020040312 - SABZ23 SBRJ 031200
2020040312 - METAR SBRJ 031200Z 30007KT 260V320 CAVOK 32/21 Q1005=
2020040313 - SABZ23 SBRJ 031300
2020040313 - METAR SBRJ 031300Z 29009KT 240V320 CAVOK 33/20 Q1005=
2020040314 - SABZ23 SBRJ 031400
2020040314 - METAR SBRJ 031400Z 24007KT 190V270 CAVOK 33/22 Q1004=
2020040315 - SABZ23 SBRJ 031500
2020040315 - METAR SBRJ 031500Z 19017KT CAVOK 32/20 Q1004=
2020040316 - SABZ23 SBRJ 031600
2020040316 - METAR SBRJ 031600Z 19019KT 9999 FEW030 BKN100 31/21 Q1004=
2020040316 - SPECI SBRJ 031610Z 21016G26KT 9999 FEW030 BKN100 30/21 Q1003=
2020040317 - SABZ23 SBRJ 031700
2020040317 - METAR SBRJ 031700Z 17012KT 9999 FEW030 BKN100 30/21 Q1003=
2020040318 - SABZ23 SBRJ 031800
2020040318 - METAR SBRJ 031800Z 21015KT 9999 SCT025 BKN100 28/19 Q1003=
2020040319 - SABZ23 SBRJ 031900
2020040319 - METAR SBRJ 031900Z 21014KT 9999 -RA SCT025 FEW030TCU BKN090 28/20 Q1003=
2020040319 - SPECI SBRJ 031920Z 22014KT 8000 -RA BKN010 SCT025 FEW030TCU BKN080 26/21 Q1004=
2020040320 - SABZ23 SBRJ 032000
2020040320 - METAR SBRJ 032000Z 20010KT 9999 FEW010 SCT025 FEW030TCU BKN090 26/21 Q1005=
2020040321 - SABZ23 SBRJ 032100
2020040321 - METAR SBRJ 032100Z 22009KT 9999 SCT025 BKN080 26/21 Q1006=
2020040322 - SABZ23 SBRJ 032200
2020040322 - METAR SBRJ 032200Z 23011KT 9999 BKN030 26/19 Q1007=
2020040323 - SABZ23 SBRJ 032300
2020040323 - METAR SBRJ 032300Z 23011KT 9999 BKN040 26/16 Q1008=
2020040400 - SABZ23 SBRJ 040000
2020040400 - METAR SBRJ 040000Z 20006KT 9999 BKN040 25/17 Q1009=
2020040401 - SABZ23 SBRJ 040100
2020040401 - METAR SBRJ 040100Z 22006KT 9999 BKN040 25/17 Q1009=
2020040402 - SABZ23 SBRJ 040200
2020040402 - METAR SBRJ 040200Z 24004KT 9999 FEW015 BKN040 25/18 Q1010=
2020040403 - Mensagem METAR de 'SBRJ' para 04/04/2020 as 03(UTC) não localizada na base de dados da REDEMET
2020040404 - Mensagem METAR de 'SBRJ' para 04/04/2020 as 04(UTC) não localizada na base de dados da REDEMET
2020040405 - Mensagem METAR de 'SBRJ' para 04/04/2020 as 05(UTC) não localizada na base de dados da REDEMET
2020040406 - Mensagem METAR de 'SBRJ' para 04/04/2020 as 06(UTC) não localizada na base de dados da REDEMET
2020040407 - Mensagem METAR de 'SBRJ' para 04/04/2020 as 07(UTC) não localizada na base de dados da REDEMET
2020040408 - Mensagem METAR de 'SBRJ' para 04/04/2020 as 08(UTC) não localizada na base de dados da REDEMET
2020040408 - SPECI SBRJ 040850Z 30006KT 9999 FEW020 23/17 Q1010=
2020040409 - SABZ23 SBRJ 040900
2020040409 - METAR SBRJ 040900Z 29006KT 9999 FEW020 23/17 Q1010=
2020040410 - SABZ23 SBRJ 041000
2020040410 - METAR SBRJ 041000Z 30005KT 9999 FEW025 23/17 Q1011=
2020040411 - SABZ23 SBRJ 041100
2020040411 - METAR SBRJ 041100Z 33008KT CAVOK 24/17 Q1011=
2020040412 - SABZ23 SBRJ 041200
2020040412 - METAR SBRJ 041200Z 34009KT 9999 FEW025 25/18 Q1012=
2020040413 - SABZ23 SBRJ 041300
2020040413 - METAR SBRJ 041300Z 13005KT 9999 FEW030 SCT045 26/18 Q1012=
2020040414 - SABZ23 SBRJ 041400
2020040414 - METAR SBRJ 041400Z 26011KT 9999 SCT030 27/16 Q1012=
2020040415 - SABZ23 SBRJ 041500
2020040415 - METAR SBRJ 041500Z 22009KT 9999 FEW025 28/16 Q1012=
2020040416 - SABZ23 SBRJ 041600
2020040416 - METAR SBRJ 041600Z 19013KT 9999 FEW030 28/17 Q1011=
2020040417 - SABZ23 SBRJ 041700
2020040417 - METAR SBRJ 041700Z 19014KT 9999 FEW035 27/16 Q1011=
2020040418 - SABZ23 SBRJ 041800
2020040418 - METAR SBRJ 041800Z 19013KT 9999 FEW035 27/16 Q1011=
2020040419 - SABZ23 SBRJ 041900
2020040419 - METAR SBRJ 041900Z 20012KT 9999 FEW030 26/16 Q1011=
2020040420 - SABZ23 SBRJ 042000
2020040420 - METAR SBRJ 042000Z 20010KT CAVOK 25/18 Q1012=
2020040421 - SABZ23 SBRJ 042100
2020040421 - METAR SBRJ 042100Z 21007KT 180V240 9999 FEW025 25/18 Q1012=
2020040422 - SABZ23 SBRJ 042200
2020040422 - METAR SBRJ 042200Z 21007KT 180V250 CAVOK 24/18 Q1013=
2020040423 - SABZ23 SBRJ 042300
2020040423 - METAR SBRJ 042300Z 23007KT 170V270 CAVOK 24/18 Q1014=
2020040500 - SABZ23 SBRJ 050000
2020040500 - METAR SBRJ 050000Z 20004KT 160V260 CAVOK 24/17 Q1015=
2020040501 - SABZ23 SBRJ 050100
2020040501 - METAR SBRJ 050100Z 24003KT 190V350 CAVOK 24/18 Q1015=
2020040502 - SABZ23 SBRJ 050200
2020040502 - METAR SBRJ 050200Z 32005KT 9999 FEW045 BKN070 24/19 Q1015=
2020040503 - Mensagem METAR de 'SBRJ' para 05/04/2020 as 03(UTC) não localizada na base de dados da REDEMET
2020040504 - Mensagem METAR de 'SBRJ' para 05/04/2020 as 04(UTC) não localizada na base de dados da REDEMET
2020040505 - Mensagem METAR de 'SBRJ' para 05/04/2020 as 05(UTC) não localizada na base de dados da REDEMET
2020040506 - Mensagem METAR de 'SBRJ' para 05/04/2020 as 06(UTC) não localizada na base de dados da REDEMET
2020040507 - Mensagem METAR de 'SBRJ' para 05/04/2020 as 07(UTC) não localizada na base de dados da REDEMET
2020040508 - Mensagem METAR de 'SBRJ' para 05/04/2020 as 08(UTC) não localizada na base de dados da REDEMET
2020040508 - SPECI SBRJ 050850Z 34004KT 9999 BKN040 23/20 Q1015=
2020040509 - SABZ23 SBRJ 050900
2020040509 - METAR SBRJ 050900Z 36005KT 9999 BKN040 23/20 Q1015=
2020040510 - SABZ23 SBRJ 051000
2020040510 - METAR SBRJ 051000Z 35006KT 9999 BKN040 23/20 Q1015=
2020040511 - SABZ23 SBRJ 051100
2020040511 - METAR SBRJ 051100Z 34003KT 9999 BKN040 23/20 Q1016=
2020040512 - SABZ23 SBRJ 051200
2020040512 - METAR SBRJ 051200Z 01003KT 9999 FEW020 BKN040 24/20 Q1016=
2020040513 - SABZ23 SBRJ 051300
2020040513 - METAR SBRJ 051300Z 03003KT 9999 FEW020 BKN050 25/20 Q1017=
2020040513 - SPECI SBRJ 051325Z 13005KT 9999 FEW020 BKN050 25/20 Q1017=
2020040514 - SABZ23 SBRJ 051400
2020040514 - METAR SBRJ 051400Z 14007KT 9999 FEW020 SCT050 25/20 Q1017=
2020040515 - SABZ23 SBRJ 051500
2020040515 - METAR SBRJ 051500Z 14008KT 9999 FEW023 25/21 Q1016=
2020040516 - SABZ23 SBRJ 051600
2020040516 - METAR SBRJ 051600Z 15008KT 9999 FEW025 SCT080 26/19 Q1015=
2020040517 - SABZ23 SBRJ 051700
2020040517 - METAR SBRJ 051700Z 16010KT 9999 FEW025 26/19 Q1014=
2020040518 - SABZ23 SBRJ 051800
2020040518 - METAR SBRJ 051800Z 16010KT 9999 FEW030 BKN070 26/20 Q1014=
2020040519 - SABZ23 SBRJ 051900
2020040519 - METAR SBRJ 051900Z 17010KT 9999 FEW025 BKN050 25/19 Q1014=
2020040520 - SABZ23 SBRJ 052000
2020040520 - METAR SBRJ 052000Z 17010KT 9999 FEW025 BKN050 25/19 Q1015=
2020040521 - SABZ23 SBRJ 052100
2020040521 - METAR SBRJ 052100Z 17008KT 9999 FEW025 BKN050 24/19 Q1015=
2020040522 - SABZ23 SBRJ 052200
2020040522 - METAR SBRJ 052200Z 17007KT 9999 FEW025 BKN050 24/19 Q1016=
2020040523 - SABZ23 SBRJ 052300
2020040523 - METAR SBRJ 052300Z 17005KT 9999 FEW020 BKN040 24/19 Q1016=
2020040600 - SABZ23 SBRJ 060000
2020040600 - METAR SBRJ 060000Z 16006KT 9999 FEW020 BKN040 24/20 Q1017=
2020040601 - SABZ23 SBRJ 060100
2020040601 - METAR SBRJ 060100Z 17004KT 9999 FEW020 BKN040 24/20 Q1017=
2020040602 - SABZ23 SBRJ 060200
2020040602 - METAR SBRJ 060200Z 16002KT 9999 FEW020 BKN040 23/20 Q1017=
2020040603 - Mensagem METAR de 'SBRJ' para 06/04/2020 as 03(UTC) não localizada na base de dados da REDEMET
2020040604 - Mensagem METAR de 'SBRJ' para 06/04/2020 as 04(UTC) não localizada na base de dados da REDEMET
2020040605 - Mensagem METAR de 'SBRJ' para 06/04/2020 as 05(UTC) não localizada na base de dados da REDEMET
2020040606 - Mensagem METAR de 'SBRJ' para 06/04/2020 as 06(UTC) não localizada na base de dados da REDEMET
2020040607 - Mensagem METAR de 'SBRJ' para 06/04/2020 as 07(UTC) não localizada na base de dados da REDEMET
2020040608 - Mensagem METAR de 'SBRJ' para 06/04/2020 as 08(UTC) não localizada na base de dados da REDEMET
2020040608 - SPECI SBRJ 060850Z 03004KT 9999 FEW020 23/20 Q1015=
2020040609 - SABZ23 SBRJ 060900
2020040609 - METAR SBRJ 060900Z 03003KT 9999 FEW020 23/20 Q1015=
2020040610 - SABZ23 SBRJ 061000
2020040610 - METAR SBRJ 061000Z 00000KT 9999 FEW020 24/20 Q1016=
2020040611 - SABZ23 SBRJ 061100
2020040611 - METAR SBRJ 061100Z 12003KT 9999 FEW020 24/20 Q1016=
2020040612 - SABZ23 SBRJ 061200
2020040612 - METAR SBRJ 061200Z 06001KT 9999 FEW015 26/20 Q1015=
2020040613 - SABZ23 SBRJ 061300
2020040613 - METAR SBRJ 061300Z 13004KT 9999 FEW015 25/21 Q1015=
2020040614 - SABZ23 SBRJ 061400
2020040614 - METAR SBRJ 061400Z 15008KT 9999 FEW015 25/20 Q1014=
2020040615 - SABZ23 SBRJ 061500
2020040615 - METAR SBRJ 061500Z 16010KT 9999 FEW025 26/21 Q1014=
2020040616 - SABZ23 SBRJ 061600
2020040616 - METAR SBRJ 061600Z 16011KT 9999 FEW025 26/22 Q1013=
2020040617 - SABZ23 SBRJ 061700
2020040617 - METAR SBRJ 061700Z 16012KT 9999 FEW025 26/22 Q1012=
2020040618 - SABZ23 SBRJ 061800
2020040618 - METAR SBRJ 061800Z 17009KT 9999 FEW025 27/21 Q1012=
2020040619 - SABZ23 SBRJ 061900
2020040619 - METAR SBRJ 061900Z 16009KT 9999 FEW025 27/21 Q1011=
2020040620 - SABZ23 SBRJ 062000
2020040620 - METAR SBRJ 062000Z 17009KT CAVOK 26/21 Q1011=
2020040621 - SABZ23 SBRJ 062100
2020040621 - METAR SBRJ 062100Z 19011KT CAVOK 26/22 Q1011=
2020040622 - SABZ23 SBRJ 062200
2020040622 - METAR SBRJ 062200Z 18008KT CAVOK 25/22 Q1011=
2020040623 - SABZ23 SBRJ 062300
2020040623 - METAR SBRJ 062300Z 18003KT 130V220 CAVOK 26/22 Q1011=
2020040700 - SABZ23 SBRJ 070000
2020040700 - METAR SBRJ 070000Z 13003KT CAVOK 25/22 Q1011=
2020040701 - SABZ23 SBRJ 070100
2020040701 - METAR SBRJ 070100Z 13002KT CAVOK 24/22 Q1011=
2020040702 - SABZ23 SBRJ 070200
2020040702 - METAR SBRJ 070200Z 00000KT CAVOK 24/22 Q1011=
2020040703 - Mensagem METAR de 'SBRJ' para 07/04/2020 as 03(UTC) não localizada na base de dados da REDEMET
2020040704 - Mensagem METAR de 'SBRJ' para 07/04/2020 as 04(UTC) não localizada na base de dados da REDEMET
2020040705 - Mensagem METAR de 'SBRJ' para 07/04/2020 as 05(UTC) não localizada na base de dados da REDEMET
2020040706 - Mensagem METAR de 'SBRJ' para 07/04/2020 as 06(UTC) não localizada na base de dados da REDEMET
2020040707 - Mensagem METAR de 'SBRJ' para 07/04/2020 as 07(UTC) não localizada na base de dados da REDEMET
2020040708 - Mensagem METAR de 'SBRJ' para 07/04/2020 as 08(UTC) não localizada na base de dados da REDEMET
2020040708 - SPECI SBRJ 070850Z 12003KT 6000 FEW020 22/21 Q1011=
2020040709 - SABZ23 SBRJ 070900
2020040709 - METAR SBRJ 070900Z 10003KT 6000 FEW020 22/21 Q1011=
2020040710 - SABZ23 SBRJ 071000
2020040710 - METAR SBRJ 071000Z 36002KT 7000 FEW007 23/22 Q1011=
2020040711 - SABZ23 SBRJ 071100
2020040711 - METAR SBRJ 071100Z 36004KT 7000 FEW008 25/23 Q1011=
2020040711 - SPECI SBRJ 071128Z 12003KT 7000 FEW007 BKN010 BKN025 25/23 Q1012=
2020040712 - SABZ23 SBRJ 071200
2020040712 - METAR SBRJ 071200Z 15009KT 7000 FEW013 SCT025 25/23 Q1012=
2020040713 - SABZ23 SBRJ 071300
2020040713 - METAR SBRJ 071300Z 27006KT 9999 FEW013 SCT025 29/22 Q1013=
2020040714 - SABZ23 SBRJ 071400
2020040714 - METAR SBRJ 071400Z 18007KT 9999 FEW015 BKN025 BKN100 28/23 Q1013=
2020040715 - SABZ23 SBRJ 071500
2020040715 - METAR SBRJ 071500Z 19015KT 9999 OVC033 28/22 Q1013=
2020040716 - SABZ23 SBRJ 071600
2020040716 - METAR SBRJ 071600Z 18010KT 9999 FEW020 OVC040 28/22 Q1012=
2020040717 - SABZ23 SBRJ 071700
2020040717 - METAR SBRJ 071700Z 20012KT 9999 FEW013 BKN050 27/22 Q1011=
2020040718 - SABZ23 SBRJ 071800
2020040718 - METAR SBRJ 071800Z 20013KT 170V230 9999 FEW010 SCT035 OVC050 25/21 Q1011=
2020040719 - SABZ23 SBRJ 071900
2020040719 - METAR SBRJ 071900Z 21009KT 9999 FEW015 SCT040 OVC060 26/20 Q1012=
2020040720 - SABZ23 SBRJ 072000
2020040720 - METAR SBRJ 072000Z 23005KT 200V270 9999 SCT020 BKN040 OVC070 26/20 Q1012=
2020040721 - SABZ23 SBRJ 072100
2020040721 - METAR SBRJ 072100Z 28006KT 9999 SCT020 BKN030 OVC080 26/21 Q1013=
2020040722 - SABZ23 SBRJ 072200
2020040722 - METAR SBRJ 072200Z 22006KT 9999 -RA SCT018 BKN025 OVC050 25/22 Q1014=
2020040723 - SABZ23 SBRJ 072300
2020040723 - METAR SBRJ 072300Z 14003KT 9999 -RA SCT015 BKN025 OVC040 23/21 Q1014=
2020040723 - SPECI SBRJ 072347Z 36004KT 4500 -RA BR BKN013 BKN025 OVC040 23/22 Q1014=
2020040800 - SABZ23 SBRJ 080000
2020040800 - METAR SBRJ 080000Z 35006KT 4500 -RA BR BKN013 BKN025 OVC040 23/23 Q1014=
2020040801 - SABZ23 SBRJ 080100
2020040801 - METAR SBRJ 080100Z 02002KT 4500 -RA BR BKN013 BKN025 OVC040 23/22 Q1015=
2020040802 - SABZ23 SBRJ 080200
2020040802 - METAR SBRJ 080200Z 19003KT 6000 -RA BKN013 BKN025 OVC050 23/22 Q1014=
2020040803 - Mensagem METAR de 'SBRJ' para 08/04/2020 as 03(UTC) não localizada na base de dados da REDEMET
2020040804 - Mensagem METAR de 'SBRJ' para 08/04/2020 as 04(UTC) não localizada na base de dados da REDEMET
2020040805 - Mensagem METAR de 'SBRJ' para 08/04/2020 as 05(UTC) não localizada na base de dados da REDEMET
2020040806 - Mensagem METAR de 'SBRJ' para 08/04/2020 as 06(UTC) não localizada na base de dados da REDEMET
2020040807 - Mensagem METAR de 'SBRJ' para 08/04/2020 as 07(UTC) não localizada na base de dados da REDEMET
2020040808 - Mensagem METAR de 'SBRJ' para 08/04/2020 as 08(UTC) não localizada na base de dados da REDEMET
2020040808 - SPECI SBRJ 080850Z 19008KT 6000 -RA BKN010 OVC040 21/20 Q1014=
2020040809 - SABZ23 SBGL 080900
2020040809 - METAR SBRJ 080900Z 20008KT 6000 -RA BKN010 OVC040 21/20 Q1014=
2020040810 - SABZ23 SBRJ 081000
2020040810 - METAR SBRJ 081000Z 16009KT 6000 -RA BKN010 OVC025 21/20 Q1015=
2020040811 - SABZ23 SBRJ 081100
2020040811 - METAR SBRJ 081100Z 19008KT 7000 BKN013 OVC040 22/20 Q1016=
2020040812 - SABZ23 SBRJ 081200
2020040812 - METAR SBRJ 081200Z 19009KT 3000 -DZ BR BKN010 OVC040 22/20 Q1016=
2020040812 - SPECI SBRJ 081225Z 20007KT 7000 -DZ SCT009 OVC030 21/19 Q1017=
2020040813 - SABZ23 SBRJ 081300
2020040813 - METAR SBRJ 081300Z 03002KT 9999 SCT020 OVC040 22/19 Q1016=
2020040814 - SABZ23 SBRJ 081400
2020040814 - METAR SBRJ 081400Z 36005KT 9999 FEW020 OVC050 23/20 Q1016=
2020040815 - SABZ23 SBRJ 081500
2020040815 - METAR SBRJ 081500Z 01005KT 9999 SCT025 BKN050 23/20 Q1016=
2020040816 - SABZ23 SBRJ 081600
2020040816 - METAR SBRJ 081600Z 01003KT 9999 BKN010 BKN025 OVC050 23/20 Q1015=
2020040816 - SPECI SBRJ 081620Z 14007KT 5000 -RA BR BKN010 OVC030 22/20 Q1015=
2020040817 - SABZ23 SBRJ 081700
2020040817 - METAR SBRJ 081700Z 19004KT 9000 -RA BKN010 OVC030 22/20 Q1014=
2020040818 - SABZ23 SBRJ 081800
2020040818 - METAR SBRJ 081800Z 20007KT 6000 -RA BKN012 BKN020 OVC040 22/19 Q1014=
2020040819 - SABZ23 SBRJ 081900
2020040819 - METAR SBRJ 081900Z 21011KT 6000 -RA BKN010 BKN020 OVC040 22/19 Q1014=
2020040820 - SABZ23 SBRJ 082000
2020040820 - METAR SBRJ 082000Z 20004KT 9999 BKN015 OVC045 22/19 Q1014=
2020040820 - SPECI SBRJ 082045Z 31007KT 9999 SCT015 OVC045 22/20 Q1014=
2020040821 - SABZ23 SBRJ 082100
2020040821 - METAR SBRJ 082100Z 33008KT 9999 SCT015 OVC045 21/20 Q1014=
2020040822 - SABZ23 SBRJ 082200
2020040822 - METAR SBRJ 082200Z 31005KT 9999 SCT025 OVC045 22/20 Q1014=
2020040823 - SABZ23 SBRJ 082300
2020040823 - METAR SBRJ 082300Z 33005KT 9999 SCT016 OVC045 21/20 Q1015=
2020040900 - SABZ23 SBRJ 090000
2020040900 - METAR SBRJ 090000Z 36003KT 9999 BKN020 BKN045 22/20 Q1015=
2020040901 - SABZ23 SBRJ 090100
2020040901 - METAR SBRJ 090100Z 32004KT 9999 SCT020 BKN045 22/20 Q1015=
2020040902 - SABZ23 SBRJ 090200
2020040902 - METAR SBRJ 090200Z 31004KT 9999 SCT020 BKN045 22/19 Q1015=
2020040903 - Mensagem METAR de 'SBRJ' para 09/04/2020 as 03(UTC) não localizada na base de dados da REDEMET
2020040904 - Mensagem METAR de 'SBRJ' para 09/04/2020 as 04(UTC) não localizada na base de dados da REDEMET
2020040905 - Mensagem METAR de 'SBRJ' para 09/04/2020 as 05(UTC) não localizada na base de dados da REDEMET
2020040906 - Mensagem METAR de 'SBRJ' para 09/04/2020 as 06(UTC) não localizada na base de dados da REDEMET
2020040907 - Mensagem METAR de 'SBRJ' para 09/04/2020 as 07(UTC) não localizada na base de dados da REDEMET
2020040908 - Mensagem METAR de 'SBRJ' para 09/04/2020 as 08(UTC) não localizada na base de dados da REDEMET
2020040908 - SPECI SBRJ 090850Z 32005KT 8000 SCT010 BKN025 OVC040 21/20 Q1014=
2020040909 - SABZ23 SBRJ 090900
2020040909 - METAR SBRJ 090900Z 29003KT 8000 -RA BKN010 BKN025 OVC040 21/20 Q1015=
2020040910 - SABZ23 SBRJ 091000
2020040910 - METAR SBRJ 091000Z 34002KT 9999 SCT015 BKN025 BKN040 21/18 Q1015=
2020040911 - SABZ23 SBRJ 091100
2020040911 - METAR SBRJ 091100Z 32007KT 9999 FEW010 BKN025 BKN040 21/20 Q1015=
2020040912 - SABZ23 SBRJ 091200
2020040912 - METAR SBRJ 091200Z 32006KT 9999 FEW015 SCT025 BKN050 22/19 Q1015=
2020040913 - SABZ23 SBRJ 091300
2020040913 - METAR SBRJ 091300Z 32007KT 9999 SCT023 BKN050 22/19 Q1015=
2020040914 - SABZ23 SBRJ 091400
2020040914 - METAR SBRJ 091400Z 34007KT 9999 BKN030 BKN060 22/20 Q1015=
2020040915 - SABZ23 SBRJ 091500
2020040915 - METAR SBRJ 091500Z 36005KT 9999 SCT025 SCT040 BKN060 23/20 Q1015=
2020040916 - SABZ23 SBRJ 091600
2020040916 - METAR SBRJ 091600Z 06004KT 9999 -RA SCT025 SCT040 BKN060 23/19 Q1014=
2020040917 - SABZ23 SBRJ 091700
2020040917 - METAR SBRJ 091700Z 12004KT 9999 SCT025 SCT050 BKN070 24/18 Q1014=
2020040918 - SABZ23 SBRJ 091800
2020040918 - METAR SBRJ 091800Z 21006KT 9999 FEW025 SCT050 BKN070 24/16 Q1013=
2020040919 - SABZ23 SBRJ 091900
2020040919 - METAR SBRJ 091900Z 24003KT 9999 FEW025 SCT050 BKN070 24/17 Q1014=
2020040920 - SABZ23 SBRJ 092000
2020040920 - METAR SBRJ 092000Z 24003KT 9999 FEW030 BKN080 24/17 Q1014=
2020040921 - SABZ23 SBRJ 092100
2020040921 - METAR SBRJ 092100Z 25003KT 9999 FEW030 BKN080 23/17 Q1014=
2020040922 - SABZ23 SBRJ 092200
2020040922 - METAR SBRJ 092200Z 25004KT 220V280 9999 FEW025 BKN070 23/17 Q1015=
2020040923 - SABZ23 SBRJ 092300
2020040923 - METAR SBRJ 092300Z 29003KT 260V320 9999 FEW025 BKN070 23/18 Q1015=
2020041000 - SABZ23 SBRJ 100000
2020041000 - METAR SBRJ 100000Z 31004KT 9999 FEW025 BKN080 23/18 Q1015=
2020041001 - SABZ23 SBRJ 100100
2020041001 - METAR SBRJ 100100Z 33005KT 9999 FEW025 BKN090 22/18 Q1015=
2020041002 - SABZ23 SBRJ 100200
2020041002 - METAR SBRJ 100200Z 31005KT 9999 FEW020 BKN040 BKN080 22/18 Q1015=
2020041003 - Mensagem METAR de 'SBRJ' para 10/04/2020 as 03(UTC) não localizada na base de dados da REDEMET
2020041004 - Mensagem METAR de 'SBRJ' para 10/04/2020 as 04(UTC) não localizada na base de dados da REDEMET
2020041005 - Mensagem METAR de 'SBRJ' para 10/04/2020 as 05(UTC) não localizada na base de dados da REDEMET
2020041006 - Mensagem METAR de 'SBRJ' para 10/04/2020 as 06(UTC) não localizada na base de dados da REDEMET
2020041007 - Mensagem METAR de 'SBRJ' para 10/04/2020 as 07(UTC) não localizada na base de dados da REDEMET
2020041008 - Mensagem METAR de 'SBRJ' para 10/04/2020 as 08(UTC) não localizada na base de dados da REDEMET
2020041008 - SPECI SBRJ 100850Z 34005KT 9999 FEW035 BKN050 21/19 Q1014=
2020041009 - SABZ23 SBRJ 100900
2020041009 - METAR SBRJ 100900Z 34005KT 9999 FEW035 BKN050 21/19 Q1014=
2020041010 - SABZ23 SBRJ 101000
2020041010 - METAR SBRJ 101000Z 01004KT 9999 FEW035 BKN050 22/19 Q1015=
2020041011 - SABZ23 SBRJ 101100
2020041011 - METAR SBRJ 101100Z 36004KT 9999 FEW030 BKN050 22/19 Q1015=
2020041012 - SABZ23 SBRJ 101200
2020041012 - METAR SBRJ 101200Z 34005KT 9999 FEW030 BKN050 22/19 Q1016=
2020041013 - SABZ23 SBRJ 101300
2020041013 - METAR SBRJ 101300Z 01004KT 9999 FEW030 BKN050 23/19 Q1015=
2020041014 - SABZ23 SBRJ 101400
2020041014 - METAR SBRJ 101400Z 02005KT 9999 FEW030 BKN050 23/19 Q1015=
2020041015 - SABZ23 SBRJ 101500
2020041015 - METAR SBRJ 101500Z VRB02KT 9999 FEW025 BKN050 BKN080 24/19 Q1015=
2020041016 - SABZ23 SBRJ 101600
2020041016 - METAR SBRJ 101600Z 16006KT 130V190 9999 FEW030 BKN055 OVC080 24/18 Q1014=
2020041017 - SABZ23 SBRJ 101700
2020041017 - METAR SBRJ 101700Z 19010KT 9999 FEW030 BKN055 OVC080 24/19 Q1014=
2020041018 - SABZ23 SBRJ 101800
2020041018 - METAR SBRJ 101800Z 21008KT 9999 FEW025 BKN050 OVC080 23/17 Q1014=
2020041019 - SABZ23 SBRJ 101900
2020041019 - METAR SBRJ 101900Z 21012KT 9999 VCSH FEW018 SCT040 OVC080 23/18 Q1014=
2020041020 - SABZ23 SBRJ 102000
2020041020 - METAR SBRJ 102000Z 21008KT 9999 FEW025 SCT040 OVC080 23/18 Q1014=
2020041021 - SABZ23 SBRJ 102100
2020041021 - METAR SBRJ 102100Z 21007KT 9999 SCT025 OVC040 23/17 Q1014=
2020041022 - SABZ23 SBRJ 102200
2020041022 - METAR SBRJ 102200Z 22004KT 9999 OVC030 23/17 Q1015=
2020041023 - SABZ23 SBRJ 102300
2020041023 - METAR SBRJ 102300Z 04003KT 9999 OVC035 22/19 Q1015=
2020041023 - SPECI SBRJ 102310Z 36007KT 9999 OVC035 22/19 Q1015=
2020041100 - SABZ23 SBRJ 110000
2020041100 - METAR SBRJ 110000Z 32006KT 9999 OVC035 22/19 Q1016=
2020041101 - SABZ23 SBRJ 110100
2020041101 - METAR SBRJ 110100Z 33006KT 9999 OVC035 21/19 Q1016=
2020041102 - SABZ23 SBRJ 110200
2020041102 - METAR SBRJ 110200Z 34004KT 9999 SCT035 BKN060 21/19 Q1015=
2020041103 - Mensagem METAR de 'SBRJ' para 11/04/2020 as 03(UTC) não localizada na base de dados da REDEMET
2020041104 - Mensagem METAR de 'SBRJ' para 11/04/2020 as 04(UTC) não localizada na base de dados da REDEMET
2020041105 - Mensagem METAR de 'SBRJ' para 11/04/2020 as 05(UTC) não localizada na base de dados da REDEMET
2020041106 - Mensagem METAR de 'SBRJ' para 11/04/2020 as 06(UTC) não localizada na base de dados da REDEMET
2020041107 - Mensagem METAR de 'SBRJ' para 11/04/2020 as 07(UTC) não localizada na base de dados da REDEMET
2020041108 - Mensagem METAR de 'SBRJ' para 11/04/2020 as 08(UTC) não localizada na base de dados da REDEMET
2020041108 - SPECI SBRJ 110850Z 01005KT 9999 FEW030 BKN080 22/20 Q1014=
2020041109 - SABZ23 SBRJ 110900 CCA
2020041109 - METAR COR SBRJ 110900Z 02004KT 9999 FEW030 BKN080 21/20 Q1014=
2020041110 - SABZ23 SBRJ 111000
2020041110 - METAR SBRJ 111000Z 35004KT 9999 SCT040 BKN070 22/20 Q1015=
2020041111 - SABZ23 SBRJ 111100
2020041111 - METAR SBRJ 111100Z 36003KT 9999 FEW007 SCT040 OVC070 22/20 Q1015=
2020041112 - SABZ23 SBRJ 111200
2020041112 - METAR SBRJ 111200Z 34003KT 310V010 9999 FEW007 BKN040 OVC070 22/20 Q1016=
2020041113 - SABZ23 SBRJ 111300
2020041113 - METAR SBRJ 111300Z 36004KT 9999 FEW010 BKN040 OVC070 22/20 Q1016=
2020041114 - SABZ23 SBRJ 111400
2020041114 - METAR SBRJ 111400Z 36003KT 9999 FEW015 SCT035 OVC080 23/20 Q1016=
2020041115 - SABZ23 SBRJ 111500
2020041115 - METAR SBRJ 111500Z 03003KT 9999 FEW015 BKN035 OVC080 23/20 Q1015=
2020041116 - SABZ23 SBRJ 111600
2020041116 - METAR SBRJ 111600Z 01002KT 9999 FEW015 BKN035 OVC080 23/19 Q1015=
2020041117 - SABZ23 SBRJ 111700
2020041117 - METAR SBRJ 111700Z 35003KT 9999 SCT018 BKN030 OVC080 23/19 Q1015=
2020041118 - SABZ23 SBRJ 111800
2020041118 - METAR SBRJ 111800Z 34004KT 9999 SCT018 BKN030 OVC080 23/19 Q1015=
2020041119 - SABZ23 SBRJ 111900
2020041119 - METAR SBRJ 111900Z 36007KT 9999 SCT018 BKN030 OVC080 22/20 Q1015=
2020041120 - SABZ23 SBRJ 112000
2020041120 - METAR SBRJ 112000Z 01005KT 9999 SCT018 BKN030 OVC080 22/20 Q1016=
2020041121 - SABZ23 SBRJ 112100
2020041121 - METAR SBRJ 112100Z 35003KT 320V040 6000 -DZ SCT012 BKN017 OVC040 21/19 Q1017=
2020041122 - SABZ23 SBRJ 112200
2020041122 - METAR SBRJ 112200Z 31008KT 8000 FEW020 OVC040 21/19 Q1016=
2020041123 - SABZ23 SBRJ 112300
2020041123 - METAR SBRJ 112300Z 33006KT 7000 -RA SCT010 OVC040 21/20 Q1017=
2020041200 - SABZ23 SBRJ 120000
2020041200 - METAR SBRJ 120000Z 34006KT 8000 FEW006 OVC040 21/20 Q1017=
2020041201 - SABZ23 SBRJ 120100
2020041201 - METAR SBRJ 120100Z 35006KT 8000 SCT008 OVC050 21/20 Q1018=
2020041202 - SABZ23 SBRJ 120200
2020041202 - METAR SBRJ 120200Z 33006KT 8000 SCT010 OVC070 21/20 Q1018=
2020041203 - Mensagem METAR de 'SBRJ' para 12/04/2020 as 03(UTC) não localizada na base de dados da REDEMET
2020041204 - Mensagem METAR de 'SBRJ' para 12/04/2020 as 04(UTC) não localizada na base de dados da REDEMET
2020041205 - Mensagem METAR de 'SBRJ' para 12/04/2020 as 05(UTC) não localizada na base de dados da REDEMET
2020041206 - Mensagem METAR de 'SBRJ' para 12/04/2020 as 06(UTC) não localizada na base de dados da REDEMET
2020041207 - Mensagem METAR de 'SBRJ' para 12/04/2020 as 07(UTC) não localizada na base de dados da REDEMET
2020041208 - Mensagem METAR de 'SBRJ' para 12/04/2020 as 08(UTC) não localizada na base de dados da REDEMET
2020041208 - SPECI SBRJ 120850Z 34004KT 8000 FEW008 SCT020 20/19 Q1017=
2020041209 - SABZ23 SBRJ 120900
2020041209 - METAR SBRJ 120900Z 34004KT 8000 FEW008 SCT020 20/19 Q1017=
2020041210 - SABZ23 SBRJ 121000
2020041210 - METAR SBRJ 121000Z 01004KT 6000 BKN010 BKN100 20/19 Q1018=
2020041211 - SABZ23 SBRJ 121100
2020041211 - METAR SBRJ 121100Z 33004KT 6000 BKN010 BKN100 21/19 Q1018=
2020041212 - SABZ23 SBRJ 121200
2020041212 - METAR SBRJ 121200Z 35004KT 6000 SCT010 BKN100 22/20 Q1019=
2020041213 - SABZ23 SBRJ 121300
2020041213 - METAR SBRJ 121300Z 01006KT 7000 SCT018 BKN070 22/20 Q1019=
2020041214 - SABZ23 SBRJ 121400
2020041214 - METAR SBRJ 121400Z 01004KT 7000 SCT020 BKN070 23/20 Q1019=
2020041215 - SABZ23 SBRJ 121500
2020041215 - METAR SBRJ 121500Z VRB02KT 9999 SCT020 OVC060 24/19 Q1018=
2020041216 - SABZ23 SBRJ 121600
2020041216 - METAR SBRJ 121600Z 18007KT 9999 FEW025 OVC065 24/18 Q1017=
2020041217 - SABZ23 SBRJ 121700
2020041217 - METAR SBRJ 121700Z 15005KT 9999 FEW025 OVC060 24/17 Q1017=
2020041218 - SABZ23 SBRJ 121800
2020041218 - METAR SBRJ 121800Z 17007KT 9999 FEW025 OVC050 24/16 Q1017=
2020041219 - SABZ23 SBRJ 121900
2020041219 - METAR SBRJ 121900Z 16005KT 9999 FEW025 BKN050 24/18 Q1017=
2020041220 - SABZ23 SBRJ 122000
2020041220 - METAR SBRJ 122000Z 17004KT 9999 FEW020 BKN060 24/18 Q1017=
2020041221 - SABZ23 SBRJ 122100
2020041221 - METAR SBRJ 122100Z 13002KT 9999 FEW020 BKN050 23/19 Q1017=
2020041221 - SPECI SBRJ 122132Z 04004KT 9999 FEW020 BKN040 23/20 Q1017=
2020041222 - SABZ23 SBRJ 122200
2020041222 - METAR SBRJ 122200Z 36007KT 9999 FEW025 BKN040 BKN080 23/20 Q1017=
2020041223 - SABZ23 SBRJ 122300
2020041223 - METAR SBRJ 122300Z 01004KT 9999 FEW020 BKN040 BKN080 22/19 Q1018=
2020041300 - SABZ23 SBRJ 130000
2020041300 - METAR SBRJ 130000Z 34001KT 9999 FEW025 SCT040 BKN080 22/19 Q1018=
2020041301 - SABZ23 SBRJ 130100
2020041301 - METAR SBRJ 130100Z 35001KT 9999 FEW025 SCT040 BKN080 22/18 Q1018=
2020041301 - SPECI SBRJ 130125Z 13002KT 9999 FEW025 SCT035 BKN080 22/19 Q1018=
2020041302 - SABZ23 SBRJ 130200
2020041302 - METAR SBRJ 130200Z 09003KT 9999 FEW025 BKN080 22/20 Q1018=
2020041303 - Mensagem METAR de 'SBRJ' para 13/04/2020 as 03(UTC) não localizada na base de dados da REDEMET
2020041304 - Mensagem METAR de 'SBRJ' para 13/04/2020 as 04(UTC) não localizada na base de dados da REDEMET
2020041305 - Mensagem METAR de 'SBRJ' para 13/04/2020 as 05(UTC) não localizada na base de dados da REDEMET
2020041306 - Mensagem METAR de 'SBRJ' para 13/04/2020 as 06(UTC) não localizada na base de dados da REDEMET
2020041307 - Mensagem METAR de 'SBRJ' para 13/04/2020 as 07(UTC) não localizada na base de dados da REDEMET
2020041308 - Mensagem METAR de 'SBRJ' para 13/04/2020 as 08(UTC) não localizada na base de dados da REDEMET
2020041308 - SPECI SBRJ 130850Z 02003KT 9999 FEW040 21/19 Q1018=
2020041309 - SABZ23 SBRJ 130900
2020041309 - METAR SBRJ 130900Z 04003KT 9999 FEW015 21/19 Q1018=
2020041310 - SABZ23 SBRJ 131000
2020041310 - METAR SBRJ 131000Z 35004KT 9999 FEW020 21/19 Q1018=
2020041311 - SABZ23 SBRJ 131100
2020041311 - METAR SBRJ 131100Z 36003KT 9999 FEW025 21/19 Q1018=
2020041312 - SABZ23 SBRJ 131200
2020041312 - METAR SBRJ 131200Z 34004KT 9999 FEW025 22/19 Q1019=
2020041313 - SABZ23 SBRJ 131300
2020041313 - METAR SBRJ 131300Z 34005KT 9999 FEW025 24/19 Q1019=
2020041314 - SABZ23 SBRJ 131400
2020041314 - METAR SBRJ 131400Z 33003KT 9999 SCT030 25/18 Q1018=
2020041314 - SPECI SBRJ 131415Z 14006KT 9999 SCT030 25/18 Q1018=
2020041315 - SABZ23 SBRJ 131500
2020041315 - METAR SBRJ 131500Z 16009KT 9999 FEW020 24/18 Q1017=
2020041316 - SABZ23 SBRJ 131600
2020041316 - METAR SBRJ 131600Z 16012KT 9999 FEW025 25/19 Q1016=
2020041317 - SABZ23 SBRJ 131700
2020041317 - METAR SBRJ 131700Z 16013KT 9999 FEW025 SCT060 25/19 Q1015=
2020041318 - SABZ23 SBRJ 131800
2020041318 - METAR SBRJ 131800Z 14013KT 9999 FEW025 SCT060 25/19 Q1015=
2020041319 - SABZ23 SBRJ 131900
2020041319 - METAR SBRJ 131900Z 13012KT 9999 SCT025 25/19 Q1015=
2020041320 - SABZ23 SBRJ 132000
2020041320 - METAR SBRJ 132000Z 13011KT 9999 SCT030 24/19 Q1015=
2020041321 - SABZ23 SBRJ 132100
2020041321 - METAR SBRJ 132100Z 12009KT 9999 SCT040 24/19 Q1015=
2020041322 - SABZ23 SBRJ 132200
2020041322 - METAR SBRJ 132200Z 11008KT 9999 BKN040 23/19 Q1015=
2020041323 - SABZ23 SBRJ 132300
2020041323 - METAR SBRJ 132300Z 15004KT 9999 BKN040 23/18 Q1016=
2020041400 - SABZ23 SBRJ 140000
2020041400 - METAR SBRJ 140000Z 08004KT 9999 SCT040 SCT070 23/18 Q1016=
2020041401 - SABZ23 SBRJ 140100
2020041401 - METAR SBRJ 140100Z 13004KT 9999 SCT040 SCT070 23/17 Q1016=
2020041402 - SABZ23 SBRJ 140200
2020041402 - METAR SBRJ 140200Z 13006KT 9999 BKN040 23/18 Q1015=
2020041403 - Mensagem METAR de 'SBRJ' para 14/04/2020 as 03(UTC) não localizada na base de dados da REDEMET
2020041404 - Mensagem METAR de 'SBRJ' para 14/04/2020 as 04(UTC) não localizada na base de dados da REDEMET
2020041405 - Mensagem METAR de 'SBRJ' para 14/04/2020 as 05(UTC) não localizada na base de dados da REDEMET
2020041406 - Mensagem METAR de 'SBRJ' para 14/04/2020 as 06(UTC) não localizada na base de dados da REDEMET
2020041407 - Mensagem METAR de 'SBRJ' para 14/04/2020 as 07(UTC) não localizada na base de dados da REDEMET
2020041408 - Mensagem METAR de 'SBRJ' para 14/04/2020 as 08(UTC) não localizada na base de dados da REDEMET
2020041408 - SPECI SBRJ 140850Z 05008KT CAVOK 21/17 Q1013=
2020041409 - SABZ23 SBRJ 140900
2020041409 - METAR SBRJ 140900Z 05007KT CAVOK 21/18 Q1013=
2020041410 - SABZ23 SBRJ 141000
2020041410 - METAR SBRJ 141000Z 36004KT CAVOK 21/18 Q1013=
2020041411 - SABZ23 SBRJ 141100
2020041411 - METAR SBRJ 141100Z 36002KT CAVOK 22/18 Q1013=
2020041412 - SABZ23 SBRJ 141200
2020041412 - METAR SBRJ 141200Z 35004KT CAVOK 23/17 Q1013=
2020041413 - SABZ23 SBRJ 141300
2020041413 - METAR SBRJ 141300Z 35004KT CAVOK 24/18 Q1012=
2020041414 - SABZ23 SBRJ 141400
2020041414 - METAR SBRJ 141400Z 34005KT CAVOK 26/19 Q1011=
2020041415 - SABZ23 SBRJ 141500
2020041415 - METAR SBRJ 141500Z 32006KT CAVOK 27/19 Q1010=
2020041416 - SABZ23 SBRJ 141600
2020041416 - METAR SBRJ 141600Z 33005KT CAVOK 29/19 Q1009=
2020041417 - SABZ23 SBRJ 141700
2020041417 - METAR SBRJ 141700Z 01003KT CAVOK 29/19 Q1008=
2020041417 - SPECI SBRJ 141740Z 14004KT CAVOK 27/20 Q1008=
2020041418 - SABZ23 SBRJ 141800
2020041418 - METAR SBRJ 141800Z 15004KT CAVOK 27/20 Q1008=
2020041419 - SABZ23 SBRJ 141900
2020041419 - METAR SBRJ 141900Z 14003KT CAVOK 27/21 Q1007=
2020041420 - SABZ23 SBRJ 142000
2020041420 - METAR SBRJ 142000Z 02006KT CAVOK 26/21 Q1006=
2020041421 - SABZ23 SBRJ 142100
2020041421 - METAR SBRJ 142100Z 35003KT 310V030 CAVOK 27/20 Q1006=
2020041422 - SABZ23 SBRJ 142200
2020041422 - METAR SBRJ 142200Z 36008KT 330V030 CAVOK 26/20 Q1006=
2020041423 - SABZ23 SBRJ 142300
2020041423 - METAR SBRJ 142300Z 30004KT 260V340 CAVOK 27/19 Q1007=
2020041500 - SABZ23 SBRJ 150000
2020041500 - METAR SBRJ 150000Z VRB01KT CAVOK 27/20 Q1008=
2020041501 - SABZ23 SBRJ 150100
2020041501 - METAR SBRJ 150100Z 04009KT 9999 FEW030 24/21 Q1008=
2020041502 - SABZ23 SBRJ 150200
2020041502 - METAR SBRJ 150200Z 25006KT 220V320 9999 FEW030 SCT070 28/19 Q1008=
2020041503 - Mensagem METAR de 'SBRJ' para 15/04/2020 as 03(UTC) não localizada na base de dados da REDEMET
2020041504 - Mensagem METAR de 'SBRJ' para 15/04/2020 as 04(UTC) não localizada na base de dados da REDEMET
2020041505 - Mensagem METAR de 'SBRJ' para 15/04/2020 as 05(UTC) não localizada na base de dados da REDEMET
2020041506 - Mensagem METAR de 'SBRJ' para 15/04/2020 as 06(UTC) não localizada na base de dados da REDEMET
2020041507 - Mensagem METAR de 'SBRJ' para 15/04/2020 as 07(UTC) não localizada na base de dados da REDEMET
2020041508 - Mensagem METAR de 'SBRJ' para 15/04/2020 as 08(UTC) não localizada na base de dados da REDEMET
2020041508 - SPECI SBRJ 150850Z 33001KT CAVOK 24/21 Q1010=
2020041509 - SABZ23 SBRJ 150900
2020041509 - METAR SBRJ 150900Z 36001KT CAVOK 24/21 Q1010=
2020041510 - SABZ23 SBRJ 151000
2020041510 - METAR SBRJ 151000Z 04001KT CAVOK 24/22 Q1011=
2020041511 - SABZ23 SBRJ 151100
2020041511 - METAR SBRJ 151100Z 07002KT CAVOK 26/22 Q1012=
2020041512 - SABZ23 SBRJ 151200
2020041512 - METAR SBRJ 151200Z 02002KT CAVOK 26/21 Q1012=
2020041513 - SABZ23 SBRJ 151300
2020041513 - METAR SBRJ 151300Z 06002KT CAVOK 27/22 Q1012=
2020041513 - SPECI SBRJ 151325Z 13003KT CAVOK 28/22 Q1012=
2020041514 - SABZ23 SBRJ 151400
2020041514 - METAR SBRJ 151400Z 14005KT 9999 FEW025 27/22 Q1012=
2020041515 - SABZ23 SBRJ 151500
2020041515 - METAR SBRJ 151500Z 15008KT 9999 FEW030 28/21 Q1011=
2020041516 - SABZ23 SBRJ 151600
2020041516 - METAR SBRJ 151600Z 15009KT 9999 FEW030 28/20 Q1012=
2020041517 - SABZ23 SBRJ 151700
2020041517 - METAR SBRJ 151700Z 16012KT 9999 FEW020 27/21 Q1011=
2020041518 - SABZ23 SBRJ 151800
2020041518 - METAR SBRJ 151800Z 16012KT 9999 FEW020 27/19 Q1011=
2020041519 - SABZ23 SBRJ 151900
2020041519 - METAR SBRJ 151900Z 18017KT 9999 FEW025 26/20 Q1011=
2020041520 - SABZ23 SBRJ 152000
2020041520 - METAR SBRJ 152000Z 19015KT 9999 FEW023 26/21 Q1012=
2020041521 - SABZ23 SBRJ 152100
2020041521 - METAR SBRJ 152100Z 18010KT 9999 FEW018 BKN040 25/21 Q1013=
2020041522 - SABZ23 SBRJ 152200
2020041522 - METAR SBRJ 152200Z 17007KT 9999 FEW018 BKN040 25/21 Q1014=
2020041523 - SABZ23 SBRJ 152300
2020041523 - METAR SBRJ 152300Z 17007KT 9999 FEW020 BKN040 25/21 Q1015=
2020041600 - SABZ23 SBRJ 160000
2020041600 - METAR SBRJ 160000Z 18006KT 9999 FEW020 BKN040 24/21 Q1015=
2020041601 - SABZ23 SBRJ 160100
2020041601 - METAR SBRJ 160100Z 17004KT 9999 FEW020 BKN040 24/20 Q1015=
2020041602 - SABZ23 SBRJ 160200
2020041602 - METAR SBRJ 160200Z 12003KT 9999 FEW020 BKN040 24/21 Q1015=
2020041603 - Mensagem METAR de 'SBRJ' para 16/04/2020 as 03(UTC) não localizada na base de dados da REDEMET
2020041604 - Mensagem METAR de 'SBRJ' para 16/04/2020 as 04(UTC) não localizada na base de dados da REDEMET
2020041605 - Mensagem METAR de 'SBRJ' para 16/04/2020 as 05(UTC) não localizada na base de dados da REDEMET
2020041606 - Mensagem METAR de 'SBRJ' para 16/04/2020 as 06(UTC) não localizada na base de dados da REDEMET
2020041607 - Mensagem METAR de 'SBRJ' para 16/04/2020 as 07(UTC) não localizada na base de dados da REDEMET
2020041608 - Mensagem METAR de 'SBRJ' para 16/04/2020 as 08(UTC) não localizada na base de dados da REDEMET
2020041608 - SPECI SBRJ 160850Z VRB02KT 7000 -RA FEW010 SCT020 BKN080 24/21 Q1016=
2020041609 - SABZ23 SBRJ 160900
2020041609 - METAR SBRJ 160900Z 01003KT 330V030 7000 -RA FEW010 BKN020 BKN080 24/21 Q1016=
2020041609 - SPECI SBRJ 160910Z VRB02KT 4000 RA BR SCT010 BKN020 BKN080 24/22 Q1016=
2020041609 - SPECI SBRJ 160930Z 10002KT 5000 -RA BR SCT010 BKN020 BKN080 24/22 Q1016 RERA=
2020041609 - SPECI SBRJ 160945Z 00000KT 7000 -RA FEW015 BKN050 BKN080 23/21 Q1016=
2020041610 - SABZ23 SBRJ 161000 CCA
2020041610 - METAR COR SBRJ 161000Z VRB01KT 9000 -RA FEW012 BKN040 BKN080 24/22 Q1016 RERA=
2020041611 - SABZ23 SBRJ 161100
2020041611 - METAR SBRJ 161100Z VRB02KT 9000 FEW012 BKN040 OVC080 24/22 Q1017=
2020041612 - SABZ23 SBRJ 161200
2020041612 - METAR SBRJ 161200Z 11003KT 9000 FEW018 SCT040 BKN080 24/22 Q1017=
2020041613 - SABZ23 SBRJ 161300
2020041613 - METAR SBRJ 161300Z 02005KT 8000 FEW016 BKN035 BKN070 24/22 Q1018=
2020041614 - SABZ23 SBRJ 161400
2020041614 - METAR SBRJ 161400Z 02004KT 8000 SCT012 BKN020 OVC070 25/23 Q1018=
2020041615 - SABZ23 SBRJ 161500
2020041615 - METAR SBRJ 161500Z 14003KT 8000 SCT012 BKN020 OVC070 25/22 Q1018=
2020041616 - SABZ23 SBRJ 161600
2020041616 - METAR SBRJ 161600Z 18007KT 8000 FEW013 SCT020 BKN035 26/22 Q1017=
2020041617 - SABZ23 SBRJ 161700
2020041617 - METAR SBRJ 161700Z 17009KT 8000 FEW013 SCT020 BKN035 26/22 Q1017=
2020041618 - SABZ23 SBRJ 161800
2020041618 - METAR SBRJ 161800Z 17008KT 9999 FEW013 SCT018 BKN035 26/22 Q1017=
2020041619 - SABZ23 SBRJ 161900
2020041619 - METAR SBRJ 161900Z 15010KT 9000 SCT012 BKN020 BKN040 24/22 Q1017=
2020041620 - SABZ23 SBRJ 162000
2020041620 - METAR SBRJ 162000Z 19012KT 9000 SCT012 BKN020 BKN040 24/22 Q1018=
2020041621 - SABZ23 SBRJ 162100
2020041621 - METAR SBRJ 162100Z 19012KT 9999 SCT020 OVC035 24/20 Q1018=
2020041622 - SABZ23 SBRJ 162200
2020041622 - METAR SBRJ 162200Z 19010KT 9999 SCT020 OVC035 24/19 Q1018=
2020041623 - SABZ23 SBRJ 162300
2020041623 - METAR SBRJ 162300Z 18010KT 9999 BKN035 24/19 Q1019=
2020041700 - SABZ23 SBRJ 170000
2020041700 - METAR SBRJ 170000Z 19011KT 9999 BKN035 24/19 Q1019=
2020041701 - SABZ23 SBRJ 170100
2020041701 - METAR SBRJ 170100Z 22006KT 190V260 9999 BKN035 24/19 Q1020=
2020041702 - SABZ23 SBRJ 170200
2020041702 - METAR SBRJ 170200Z 22009KT 9999 BKN025 23/19 Q1020=
2020041703 - Mensagem METAR de 'SBRJ' para 17/04/2020 as 03(UTC) não localizada na base de dados da REDEMET
2020041704 - Mensagem METAR de 'SBRJ' para 17/04/2020 as 04(UTC) não localizada na base de dados da REDEMET
2020041705 - Mensagem METAR de 'SBRJ' para 17/04/2020 as 05(UTC) não localizada na base de dados da REDEMET
2020041706 - Mensagem METAR de 'SBRJ' para 17/04/2020 as 06(UTC) não localizada na base de dados da REDEMET
2020041707 - Mensagem METAR de 'SBRJ' para 17/04/2020 as 07(UTC) não localizada na base de dados da REDEMET
2020041708 - Mensagem METAR de 'SBRJ' para 17/04/2020 as 08(UTC) não localizada na base de dados da REDEMET
2020041708 - SPECI SBRJ 170850Z 01003KT 9999 SCT020 BKN100 22/20 Q1020=
2020041709 - SABZ23 SBRJ 170900
2020041709 - METAR SBRJ 170900Z 32003KT 9000 SCT012 BKN020 22/20 Q1020=
2020041710 - SABZ23 SBRJ 171000
2020041710 - METAR SBRJ 171000Z 30003KT 9000 SCT013 BKN020 BKN035 22/20 Q1021=
2020041711 - SABZ23 SBRJ 171100
2020041711 - METAR SBRJ 171100Z 33003KT 9000 SCT013 BKN020 BKN035 22/20 Q1021=
2020041712 - SABZ23 SBRJ 171200
2020041712 - METAR SBRJ 171200Z 33005KT 8000 SCT013 BKN020 OVC040 22/20 Q1022=
2020041713 - SABZ23 SBRJ 171300
2020041713 - METAR SBRJ 171300Z 33006KT 8000 SCT013 BKN020 OVC040 23/20 Q1022=
2020041714 - SABZ23 SBRJ 171400
2020041714 - METAR SBRJ 171400Z 34007KT 9999 SCT013 BKN020 OVC040 23/20 Q1022=
2020041715 - SABZ23 SBRJ 171500
2020041715 - METAR SBRJ 171500Z 01007KT 8000 SCT012 OVC045 23/20 Q1021=
2020041716 - SABZ23 SBRJ 171600
2020041716 - METAR SBRJ 171600Z 03007KT 8000 BKN013 OVC045 23/20 Q1020=
2020041717 - SABZ23 SBRJ 171700
2020041717 - METAR SBRJ 171700Z 01003KT 8000 SCT010 OVC020 23/20 Q1020=
2020041718 - SABZ23 SBRJ 171800
2020041718 - METAR SBRJ 171800Z 36004KT 6000 -RA SCT015 OVC030 22/20 Q1020=
2020041719 - SABZ23 SBRJ 171900
2020041719 - METAR SBRJ 171900Z 35005KT 8000 FEW008 SCT015 OVC035 22/21 Q1020=
2020041720 - SABZ23 SBRJ 172000
2020041720 - METAR SBRJ 172000Z 36003KT 6000 BKN013 OVC030 22/20 Q1020=
2020041721 - SABZ23 SBRJ 172100
2020041721 - METAR SBRJ 172100Z 19010KT 8000 -RA BKN012 OVC030 22/20 Q1021=
2020041722 - SABZ23 SBRJ 172200
2020041722 - METAR SBRJ 172200Z 20005KT 9999 BKN013 OVC030 22/19 Q1021=
2020041723 - SABZ23 SBRJ 172300
2020041723 - METAR SBRJ 172300Z 33003KT 9999 SCT015 OVC035 22/19 Q1021=
2020041800 - SABZ23 SBRJ 180000
2020041800 - METAR SBRJ 180000Z 32005KT 9999 SCT018 OVC040 22/20 Q1021=
2020041801 - SABZ23 SBRJ 180100
2020041801 - METAR SBRJ 180100Z 33005KT 9999 SCT015 OVC045 22/20 Q1021=
2020041802 - SABZ23 SBRJ 180200
2020041802 - METAR SBRJ 180200Z 33007KT 8000 SCT007 OVC050 21/20 Q1021=
2020041803 - Mensagem METAR de 'SBRJ' para 18/04/2020 as 03(UTC) não localizada na base de dados da REDEMET
2020041804 - Mensagem METAR de 'SBRJ' para 18/04/2020 as 04(UTC) não localizada na base de dados da REDEMET
2020041805 - Mensagem METAR de 'SBRJ' para 18/04/2020 as 05(UTC) não localizada na base de dados da REDEMET
2020041806 - Mensagem METAR de 'SBRJ' para 18/04/2020 as 06(UTC) não localizada na base de dados da REDEMET
2020041807 - Mensagem METAR de 'SBRJ' para 18/04/2020 as 07(UTC) não localizada na base de dados da REDEMET
2020041808 - Mensagem METAR de 'SBRJ' para 18/04/2020 as 08(UTC) não localizada na base de dados da REDEMET
2020041808 - SPECI SBRJ 180850Z 02005KT 9999 SCT009 BKN080 21/19 Q1020=
2020041809 - SABZ23 SBRJ 180900
2020041809 - METAR SBRJ 180900Z 02004KT 9999 SCT009 BKN080 21/19 Q1020=
2020041810 - SABZ23 SBRJ 181000
2020041810 - METAR SBRJ 181000Z 02004KT 9999 FEW009 SCT080 21/19 Q1021=
2020041811 - SABZ23 SBRJ 181100
2020041811 - METAR SBRJ 181100Z 36004KT 9999 FEW012 SCT080 22/20 Q1021=
2020041812 - SABZ23 SBRJ 181200
2020041812 - METAR SBRJ 181200Z 35004KT 9999 FEW015 SCT035 BKN080 23/19 Q1022=
2020041813 - SABZ23 SBRJ 181300
2020041813 - METAR SBRJ 181300Z 36003KT 9999 FEW018 BKN035 23/20 Q1022=
2020041814 - SABZ23 SBRJ 181400
2020041814 - METAR SBRJ 181400Z 01003KT 9999 FEW018 BKN035 23/20 Q1022=
2020041815 - SABZ23 SBRJ 181500
2020041815 - METAR SBRJ 181500Z 02003KT 9999 SCT025 BKN050 24/20 Q1021=
2020041816 - SABZ23 SBRJ 181600
2020041816 - METAR SBRJ 181600Z 14008KT 9999 SCT025 BKN050 25/20 Q1020=
2020041817 - SABZ23 SBRJ 181700
2020041817 - METAR SBRJ 181700Z 15007KT 9999 SCT025 BKN060 25/19 Q1020=
2020041818 - SABZ23 SBRJ 181800
2020041818 - METAR SBRJ 181800Z 14005KT 9999 SCT025 SCT060 26/19 Q1020=
2020041819 - SABZ23 SBRJ 181900
2020041819 - METAR SBRJ 181900Z 17008KT 9999 SCT025 SCT060 24/19 Q1020=
2020041820 - SABZ23 SBRJ 182000
2020041820 - METAR SBRJ 182000Z 18010KT 9999 SCT025 23/19 Q1020=
2020041821 - SABZ23 SBRJ 182100
2020041821 - METAR SBRJ 182100Z 18011KT 9999 SCT020 23/20 Q1020=
2020041822 - SABZ23 SBRJ 182200
2020041822 - METAR SBRJ 182200Z 20005KT 9999 FEW020 SCT050 23/19 Q1021=
2020041823 - SABZ23 SBRJ 182300
2020041823 - METAR SBRJ 182300Z 16004KT 9999 FEW020 SCT050 23/19 Q1021=
2020041900 - SABZ23 SBRJ 190000
2020041900 - METAR SBRJ 190000Z 14006KT 9999 SCT030 23/20 Q1021=
2020041901 - SABZ23 SBRJ 190100
2020041901 - METAR SBRJ 190100Z 16005KT 9999 FEW020 SCT050 23/19 Q1022=
2020041902 - SABZ23 SBRJ 190200
2020041902 - METAR SBRJ 190200Z 17007KT 9999 FEW025 SCT050 22/19 Q1022=
2020041903 - Mensagem METAR de 'SBRJ' para 19/04/2020 as 03(UTC) não localizada na base de dados da REDEMET
2020041904 - Mensagem METAR de 'SBRJ' para 19/04/2020 as 04(UTC) não localizada na base de dados da REDEMET
2020041905 - Mensagem METAR de 'SBRJ' para 19/04/2020 as 05(UTC) não localizada na base de dados da REDEMET
2020041906 - Mensagem METAR de 'SBRJ' para 19/04/2020 as 06(UTC) não localizada na base de dados da REDEMET
2020041907 - Mensagem METAR de 'SBRJ' para 19/04/2020 as 07(UTC) não localizada na base de dados da REDEMET
2020041908 - Mensagem METAR de 'SBRJ' para 19/04/2020 as 08(UTC) não localizada na base de dados da REDEMET
2020041908 - SPECI SBRJ 190850Z 02002KT 9999 FEW025 BKN080 22/20 Q1020=
2020041909 - SABZ23 SBRJ 190900
2020041909 - METAR SBRJ 190900Z 01003KT 9999 FEW025 BKN080 21/20 Q1020=
2020041910 - SABZ23 SBRJ 191000
2020041910 - METAR SBRJ 191000Z 02005KT 9999 FEW015 BKN080 22/20 Q1021=
2020041911 - SABZ23 SBRJ 191100
2020041911 - METAR SBRJ 191100Z 02006KT 8000 FEW012 SCT080 22/20 Q1022=
2020041912 - SABZ23 SBRJ 191200
2020041912 - METAR SBRJ 191200Z 01005KT 8000 FEW012 22/20 Q1022=
2020041913 - SABZ23 SBRJ 191300
2020041913 - METAR SBRJ 191300Z 02006KT 9000 FEW018 SCT100 23/20 Q1022=
2020041914 - SABZ23 SBRJ 191400
2020041914 - METAR SBRJ 191400Z 33004KT 9999 FEW025 SCT100 24/20 Q1021=
2020041915 - SABZ23 SBRJ 191500
2020041915 - METAR SBRJ 191500Z 36004KT 9999 FEW025 SCT100 25/18 Q1020=
2020041916 - SABZ23 SBRJ 191600
2020041916 - METAR SBRJ 191600Z 14007KT 9999 FEW025 BKN100 25/18 Q1020=
2020041917 - SABZ23 SBRJ 191700
2020041917 - METAR SBRJ 191700Z 16008KT 9999 FEW025 BKN080 25/17 Q1019=
2020041918 - SABZ23 SBRJ 191800
2020041918 - METAR SBRJ 191800Z 17008KT 9999 FEW025 BKN080 24/18 Q1019=
2020041919 - SABZ23 SBRJ 191900
2020041919 - METAR SBRJ 191900Z 17011KT 9999 FEW025 BKN080 24/19 Q1019=
2020041920 - SABZ23 SBRJ 192000
2020041920 - METAR SBRJ 192000Z 18009KT 9999 FEW020 SCT080 23/19 Q1019=
2020041921 - SABZ23 SBRJ 192100
2020041921 - METAR SBRJ 192100Z 18009KT 9999 FEW020 SCT090 23/18 Q1019=
2020041922 - SABZ23 SBRJ 192200
2020041922 - METAR SBRJ 192200Z 16009KT 9999 FEW020 SCT090 23/19 Q1019=
2020041923 - SABZ23 SBRJ 192300
2020041923 - METAR SBRJ 192300Z 17008KT 9999 FEW012 23/19 Q1020=
2020042000 - SABZ23 SBRJ 200000
2020042000 - METAR SBRJ 200000Z 20004KT 9999 FEW012 23/19 Q1020=
2020042001 - SABZ23 SBRJ 200100
2020042001 - METAR SBRJ 200100Z 22001KT 9999 FEW020 23/18 Q1020=
2020042002 - SABZ23 SBRJ 200200
2020042002 - METAR SBRJ 200200Z 21002KT 9999 FEW015 23/19 Q1020=
2020042003 - Mensagem METAR de 'SBRJ' para 20/04/2020 as 03(UTC) não localizada na base de dados da REDEMET
2020042004 - Mensagem METAR de 'SBRJ' para 20/04/2020 as 04(UTC) não localizada na base de dados da REDEMET
2020042005 - Mensagem METAR de 'SBRJ' para 20/04/2020 as 05(UTC) não localizada na base de dados da REDEMET
2020042006 - Mensagem METAR de 'SBRJ' para 20/04/2020 as 06(UTC) não localizada na base de dados da REDEMET
2020042007 - Mensagem METAR de 'SBRJ' para 20/04/2020 as 07(UTC) não localizada na base de dados da REDEMET
2020042008 - Mensagem METAR de 'SBRJ' para 20/04/2020 as 08(UTC) não localizada na base de dados da REDEMET
2020042008 - SPECI SBRJ 200850Z 25002KT 9999 FEW025 BKN050 22/18 Q1019=
2020042009 - SABZ23 SBRJ 200900
2020042009 - METAR SBRJ 200900Z 28002KT 9999 FEW025 BKN050 22/18 Q1019=
2020042010 - SABZ23 SBRJ 201000
2020042010 - METAR SBRJ 201000Z 31003KT 9999 FEW025 SCT080 22/19 Q1019=
2020042011 - SABZ23 SBRJ 201100
2020042011 - METAR SBRJ 201100Z 33004KT 9999 FEW015 22/19 Q1020=
2020042012 - SABZ23 SBRJ 201200
2020042012 - METAR SBRJ 201200Z 36004KT 9999 FEW020 23/20 Q1020=
2020042013 - SABZ23 SBRJ 201300
2020042013 - METAR SBRJ 201300Z 01005KT 9999 FEW020 24/20 Q1020=
2020042014 - SABZ23 SBRJ 201400
2020042014 - METAR SBRJ 201400Z 06003KT 9999 FEW020 25/20 Q1020=
2020042014 - SPECI SBRJ 201413Z 13004KT 9999 FEW020 25/19 Q1019=
2020042015 - SABZ23 SBRJ 201500
2020042015 - METAR SBRJ 201500Z 14006KT 9999 FEW025 25/20 Q1019=
2020042016 - SABZ23 SBRJ 201600
2020042016 - METAR SBRJ 201600Z 16008KT 9999 FEW025 25/19 Q1018=
2020042017 - SABZ23 SBRJ 201700
2020042017 - METAR SBRJ 201700Z 15010KT 9999 FEW025 25/18 Q1017=
2020042018 - SABZ23 SBRJ 201800
2020042018 - METAR SBRJ 201800Z 16010KT 9999 FEW025 25/19 Q1017=
2020042019 - SABZ23 SBRJ 201900
2020042019 - METAR SBRJ 201900Z 17010KT 9999 FEW025 25/19 Q1017=
2020042020 - SABZ23 SBRJ 202000
2020042020 - METAR SBRJ 202000Z 17012KT 9999 FEW023 24/19 Q1017=
2020042021 - SABZ23 SBRJ 202100
2020042021 - METAR SBRJ 202100Z 18012KT 9999 FEW020 23/19 Q1017=
2020042022 - SABZ23 SBRJ 202200
2020042022 - METAR SBRJ 202200Z 18010KT 9999 FEW020 23/19 Q1018=
2020042023 - SABZ23 SBRJ 202300
2020042023 - METAR SBRJ 202300Z 18009KT 9999 FEW020 23/19 Q1018=
2020042100 - SABZ23 SBRJ 210000
2020042100 - METAR SBRJ 210000Z 19004KT 9999 FEW030 23/19 Q1019=
2020042101 - SABZ23 SBRJ 210100
2020042101 - METAR SBRJ 210100Z 18002KT 9999 FEW030 23/19 Q1019=
2020042102 - SABZ23 SBRJ 210200
2020042102 - METAR SBRJ 210200Z 24001KT 9999 FEW030 23/18 Q1019=
2020042103 - Mensagem METAR de 'SBRJ' para 21/04/2020 as 03(UTC) não localizada na base de dados da REDEMET
2020042104 - Mensagem METAR de 'SBRJ' para 21/04/2020 as 04(UTC) não localizada na base de dados da REDEMET
2020042105 - Mensagem METAR de 'SBRJ' para 21/04/2020 as 05(UTC) não localizada na base de dados da REDEMET
2020042106 - Mensagem METAR de 'SBRJ' para 21/04/2020 as 06(UTC) não localizada na base de dados da REDEMET
2020042107 - Mensagem METAR de 'SBRJ' para 21/04/2020 as 07(UTC) não localizada na base de dados da REDEMET
2020042108 - Mensagem METAR de 'SBRJ' para 21/04/2020 as 08(UTC) não localizada na base de dados da REDEMET
2020042108 - SPECI SBRJ 210850Z 34004KT 9999 FEW020 21/19 Q1017=
2020042109 - SABZ23 SBRJ 210900
2020042109 - METAR SBRJ 210900Z 33004KT 9999 FEW020 21/19 Q1017=
2020042110 - SABZ23 SBRJ 211000
2020042110 - METAR SBRJ 211000Z 01006KT 5000 BR FEW007 21/19 Q1018=
2020042111 - SABZ23 SBRJ 211100
2020042111 - METAR SBRJ 211100Z 03005KT 5000 BR SCT007 21/20 Q1018=
2020042112 - SABZ23 SBRJ 211200
2020042112 - METAR SBRJ 211200Z 36005KT 5000 BR FEW025 22/19 Q1019=
2020042113 - SABZ23 SBRJ 211300
2020042113 - METAR SBRJ 211300Z 36005KT 6000 FEW025 23/20 Q1019=
2020042114 - SABZ23 SBRJ 211400
2020042114 - METAR SBRJ 211400Z 35005KT 9000 FEW020 24/20 Q1018=
2020042115 - SABZ23 SBRJ 211500
2020042115 - METAR SBRJ 211500Z 02003KT 9999 FEW025 25/19 Q1017=
2020042116 - SABZ23 SBRJ 211600
2020042116 - METAR SBRJ 211600Z 15009KT 9999 FEW025 25/19 Q1016=
2020042117 - SABZ23 SBRJ 211700
2020042117 - METAR SBRJ 211700Z 16011KT 9999 FEW025 25/19 Q1015=
2020042118 - SABZ23 SBRJ 211800
2020042118 - METAR SBRJ 211800Z 16011KT 9999 FEW025 25/19 Q1015=
2020042119 - SABZ23 SBRJ 211900
2020042119 - METAR SBRJ 211900Z 17009KT 9999 FEW025 25/19 Q1015=
2020042120 - SABZ23 SBRJ 212000
2020042120 - METAR SBRJ 212000Z 16010KT 9999 FEW025 24/19 Q1015=
2020042121 - SABZ23 SBRJ 212100
2020042121 - METAR SBRJ 212100Z 17010KT CAVOK 23/19 Q1015=
2020042122 - SABZ23 SBRJ 212200
2020042122 - METAR SBRJ 212200Z 17010KT CAVOK 23/20 Q1016=
2020042123 - SABZ23 SBRJ 212300
2020042123 - METAR SBRJ 212300Z 17009KT CAVOK 23/20 Q1016=
2020042200 - SABZ23 SBRJ 220000
2020042200 - METAR SBRJ 220000Z 16006KT 9999 SCT040 23/20 Q1017=
2020042201 - SABZ23 SBRJ 220100
2020042201 - METAR SBRJ 220100Z 17004KT 9999 FEW025 SCT050 23/20 Q1017=
2020042202 - SABZ23 SBRJ 220200
2020042202 - METAR SBRJ 220200Z 18003KT CAVOK 22/20 Q1017=
2020042203 - Mensagem METAR de 'SBRJ' para 22/04/2020 as 03(UTC) não localizada na base de dados da REDEMET
2020042204 - Mensagem METAR de 'SBRJ' para 22/04/2020 as 04(UTC) não localizada na base de dados da REDEMET
2020042205 - Mensagem METAR de 'SBRJ' para 22/04/2020 as 05(UTC) não localizada na base de dados da REDEMET
2020042206 - Mensagem METAR de 'SBRJ' para 22/04/2020 as 06(UTC) não localizada na base de dados da REDEMET
2020042207 - Mensagem METAR de 'SBRJ' para 22/04/2020 as 07(UTC) não localizada na base de dados da REDEMET
2020042208 - Mensagem METAR de 'SBRJ' para 22/04/2020 as 08(UTC) não localizada na base de dados da REDEMET
2020042208 - SPECI SBRJ 220850Z 01006KT 9000 FEW007 BKN010 BKN070 21/20 Q1016=
2020042209 - SABZ23 SBRJ 220900
2020042209 - METAR SBRJ 220900Z 02006KT 9000 FEW007 BKN010 BKN070 21/20 Q1016=
2020042210 - SABZ23 SBRJ 221000
2020042210 - METAR SBRJ 221000Z 02004KT 7000 SCT010 BKN100 21/20 Q1017=
2020042211 - SABZ23 SBRJ 221100
2020042211 - METAR SBRJ 221100Z 36005KT 8000 SCT010 BKN100 22/20 Q1017=
2020042212 - SABZ23 SBRJ 221200
2020042212 - METAR SBRJ 221200Z 36005KT 9999 FEW020 SCT100 23/20 Q1017=
2020042213 - SABZ23 SBRJ 221300
2020042213 - METAR SBRJ 221300Z 35005KT 9999 FEW020 23/20 Q1017=
2020042214 - SABZ23 SBRJ 221400
2020042214 - METAR SBRJ 221400Z 34004KT 9999 FEW020 25/20 Q1017=
2020042215 - SABZ23 SBRJ 221500
2020042215 - METAR SBRJ 221500Z 36004KT 9999 FEW025 25/19 Q1016=
2020042216 - SABZ23 SBRJ 221600
2020042216 - METAR SBRJ 221600Z 16011KT 9999 FEW025 25/20 Q1015=
2020042217 - SABZ23 SBRJ 221700
2020042217 - METAR SBRJ 221700Z 16012KT 9999 FEW025 25/20 Q1015=
2020042218 - SABZ23 SBRJ 221800
2020042218 - METAR SBRJ 221800Z 16012KT 9999 FEW025 25/20 Q1015=
2020042219 - SABZ23 SBRJ 221900
2020042219 - METAR SBRJ 221900Z 16011KT 9999 FEW020 25/20 Q1014=
2020042220 - SABZ23 SBRJ 222000
2020042220 - METAR SBRJ 222000Z 17010KT CAVOK 24/20 Q1015=
2020042221 - SABZ23 SBRJ 222100
2020042221 - METAR SBRJ 222100Z 16009KT CAVOK 24/19 Q1015=
2020042222 - SABZ23 SBRJ 222200
2020042222 - METAR SBRJ 222200Z 16009KT 9999 FEW020 SCT040 24/20 Q1015=
2020042223 - SABZ23 SBRJ 222300
2020042223 - METAR SBRJ 222300Z 16007KT 9999 FEW020 SCT045 24/20 Q1016=
2020042300 - SABZ23 SBRJ 230000
2020042300 - METAR SBRJ 230000Z 15004KT 9999 FEW020 SCT045 23/20 Q1016=
2020042301 - SABZ23 SBRJ 230100
2020042301 - METAR SBRJ 230100Z 15006KT 9999 FEW020 BKN040 BKN090 24/20 Q1016=
2020042302 - SABZ23 SBRJ 230200
2020042302 - METAR SBRJ 230200Z 15003KT 9999 FEW020 SCT040 BKN090 23/20 Q1016=
2020042303 - Mensagem METAR de 'SBRJ' para 23/04/2020 as 03(UTC) não localizada na base de dados da REDEMET
2020042304 - Mensagem METAR de 'SBRJ' para 23/04/2020 as 04(UTC) não localizada na base de dados da REDEMET
2020042305 - Mensagem METAR de 'SBRJ' para 23/04/2020 as 05(UTC) não localizada na base de dados da REDEMET
2020042306 - Mensagem METAR de 'SBRJ' para 23/04/2020 as 06(UTC) não localizada na base de dados da REDEMET
2020042307 - Mensagem METAR de 'SBRJ' para 23/04/2020 as 07(UTC) não localizada na base de dados da REDEMET
2020042308 - Mensagem METAR de 'SBRJ' para 23/04/2020 as 08(UTC) não localizada na base de dados da REDEMET
2020042308 - SPECI SBRJ 230850Z 00000KT 9999 FEW020 BKN060 22/20 Q1015=
2020042309 - SABZ23 SBRJ 230900
2020042309 - METAR SBRJ 230900Z 00000KT 9999 FEW020 SCT060 22/20 Q1015=
2020042310 - SABZ23 SBRJ 231000
2020042310 - METAR SBRJ 231000Z 06002KT 9999 FEW040 22/20 Q1016=
2020042311 - SABZ23 SBRJ 231100
2020042311 - METAR SBRJ 231100Z 36006KT 9999 FEW040 23/20 Q1017=
2020042312 - SABZ23 SBRJ 231200
2020042312 - METAR SBRJ 231200Z 03005KT 9999 FEW018 23/21 Q1017=
2020042313 - SABZ23 SBRJ 231300
2020042313 - METAR SBRJ 231300Z 01004KT 9999 FEW020 24/21 Q1017=
2020042314 - SABZ23 SBRJ 231400
2020042314 - METAR SBRJ 231400Z 08003KT 9999 FEW020 26/19 Q1017=
2020042315 - SABZ23 SBRJ 231500
2020042315 - METAR SBRJ 231500Z 16009KT 9999 FEW025 25/19 Q1016=
2020042316 - SABZ23 SBRJ 231600
2020042316 - METAR SBRJ 231600Z 16010KT 9999 FEW025 26/18 Q1016=
2020042317 - SABZ23 SBRJ 231700
2020042317 - METAR SBRJ 231700Z 16012KT 9999 FEW025 25/20 Q1015=
2020042318 - SABZ23 SBRJ 231800
2020042318 - METAR SBRJ 231800Z 17011KT 9999 FEW025 25/20 Q1015=
2020042319 - SABZ23 SBRJ 231900
2020042319 - METAR SBRJ 231900Z 17012KT 9999 FEW025 25/20 Q1015=
2020042320 - SABZ23 SBRJ 232000
2020042320 - METAR SBRJ 232000Z 17012KT 9999 FEW025 24/20 Q1016=
2020042321 - SABZ23 SBRJ 232100
2020042321 - METAR SBRJ 232100Z 16010KT 9999 SCT040 24/20 Q1016=
2020042322 - SABZ23 SBRJ 232200
2020042322 - METAR SBRJ 232200Z 15009KT 9999 FEW020 SCT050 24/20 Q1017=
2020042323 - SABZ23 SBRJ 232300
2020042323 - METAR SBRJ 232300Z 15008KT 9999 FEW020 SCT050 24/20 Q1017=
2020042400 - SABZ23 SBRJ 240000
2020042400 - METAR SBRJ 240000Z 15005KT 9999 FEW020 SCT050 24/20 Q1018=
2020042401 - SABZ23 SBRJ 240100
2020042401 - METAR SBRJ 240100Z 11006KT 9999 FEW020 SCT060 24/20 Q1018=
2020042402 - SABZ23 SBRJ 240200
2020042402 - METAR SBRJ 240200Z 10004KT 9999 SCT020 24/20 Q1018=
2020042403 - Mensagem METAR de 'SBRJ' para 24/04/2020 as 03(UTC) não localizada na base de dados da REDEMET
2020042404 - Mensagem METAR de 'SBRJ' para 24/04/2020 as 04(UTC) não localizada na base de dados da REDEMET
2020042405 - Mensagem METAR de 'SBRJ' para 24/04/2020 as 05(UTC) não localizada na base de dados da REDEMET
2020042406 - Mensagem METAR de 'SBRJ' para 24/04/2020 as 06(UTC) não localizada na base de dados da REDEMET
2020042407 - Mensagem METAR de 'SBRJ' para 24/04/2020 as 07(UTC) não localizada na base de dados da REDEMET
2020042408 - Mensagem METAR de 'SBRJ' para 24/04/2020 as 08(UTC) não localizada na base de dados da REDEMET
2020042408 - SPECI SBRJ 240850Z 17003KT 9999 FEW025 SCT080 22/20 Q1018=
2020042409 - SABZ23 SBRJ 240900
2020042409 - METAR SBRJ 240900Z 17002KT 9999 FEW025 SCT080 22/20 Q1018=
2020042410 - SABZ23 SBRJ 241000
2020042410 - METAR SBRJ 241000Z 04002KT 9999 FEW025 23/20 Q1019=
2020042411 - SABZ23 SBRJ 241100
2020042411 - METAR SBRJ 241100Z 01004KT 9999 FEW025 23/20 Q1019=
2020042412 - SABZ23 SBRJ 241200
2020042412 - METAR SBRJ 241200Z 36004KT 9999 FEW025 24/20 Q1020=
2020042413 - SABZ23 SBRJ 241300
2020042413 - METAR SBRJ 241300Z 01003KT 9999 SCT025 24/20 Q1020=
2020042413 - SPECI SBRJ 241330Z 13002KT 9999 SCT025 25/20 Q1020=
2020042414 - SABZ23 SBRJ 241400
2020042414 - METAR SBRJ 241400Z 15007KT 9999 SCT025 25/20 Q1020=
2020042415 - SABZ23 SBRJ 241500
2020042415 - METAR SBRJ 241500Z 16011KT 9999 FEW025 26/20 Q1019=
2020042416 - SABZ23 SBRJ 241600
2020042416 - METAR SBRJ 241600Z 16012KT 9999 FEW025 25/19 Q1019=
2020042417 - SABZ23 SBRJ 241700
2020042417 - METAR SBRJ 241700Z 16014KT 9999 FEW025 25/20 Q1018=
2020042418 - SABZ23 SBRJ 241800
2020042418 - METAR SBRJ 241800Z 16014KT 9999 FEW025 25/20 Q1018=
2020042419 - SABZ23 SBRJ 241900
2020042419 - METAR SBRJ 241900Z 15010KT 9999 FEW025 25/18 Q1018=
2020042420 - SABZ23 SBRJ 242000
2020042420 - METAR SBRJ 242000Z 13010KT 9999 FEW025 25/18 Q1018=
2020042421 - SABZ23 SBRJ 242100
2020042421 - METAR SBRJ 242100Z 13011KT 9999 FEW025 24/18 Q1019=
2020042422 - SABZ23 SBRJ 242200
2020042422 - METAR SBRJ 242200Z 10007KT 9999 FEW030 24/18 Q1019=
2020042423 - SABZ23 SBRJ 242300
2020042423 - METAR SBRJ 242300Z 07003KT 350V140 9999 FEW040 24/18 Q1019=
2020042500 - SABZ23 SBRJ 250000
2020042500 - METAR SBRJ 250000Z 09004KT 050V130 9999 FEW040 24/18 Q1020=
2020042501 - SABZ23 SBRJ 250100
2020042501 - METAR SBRJ 250100Z 07004KT CAVOK 24/17 Q1020=
2020042502 - SABZ23 SBRJ 250200
2020042502 - METAR SBRJ 250200Z VRB02KT CAVOK 23/17 Q1020=
2020042503 - Mensagem METAR de 'SBRJ' para 25/04/2020 as 03(UTC) não localizada na base de dados da REDEMET
2020042504 - Mensagem METAR de 'SBRJ' para 25/04/2020 as 04(UTC) não localizada na base de dados da REDEMET
2020042505 - Mensagem METAR de 'SBRJ' para 25/04/2020 as 05(UTC) não localizada na base de dados da REDEMET
2020042506 - Mensagem METAR de 'SBRJ' para 25/04/2020 as 06(UTC) não localizada na base de dados da REDEMET
2020042507 - Mensagem METAR de 'SBRJ' para 25/04/2020 as 07(UTC) não localizada na base de dados da REDEMET
2020042508 - Mensagem METAR de 'SBRJ' para 25/04/2020 as 08(UTC) não localizada na base de dados da REDEMET
2020042508 - SPECI SBRJ 250850Z 08003KT CAVOK 21/18 Q1019=
2020042509 - SABZ23 SBRJ 250900
2020042509 - METAR SBRJ 250900Z 09003KT CAVOK 21/18 Q1019=
2020042510 - SABZ23 SBRJ 251000
2020042510 - METAR SBRJ 251000Z 09003KT CAVOK 22/18 Q1020=
2020042511 - SABZ23 SBRJ 251100
2020042511 - METAR SBRJ 251100Z 03003KT CAVOK 22/18 Q1020=
2020042512 - SABZ23 SBRJ 251200
2020042512 - METAR SBRJ 251200Z 35004KT CAVOK 22/19 Q1020=
2020042513 - SABZ23 SBRJ 251300
2020042513 - METAR SBRJ 251300Z 33006KT CAVOK 23/19 Q1021=
2020042514 - SABZ23 SBRJ 251400
2020042514 - METAR SBRJ 251400Z 34005KT CAVOK 25/18 Q1020=
2020042515 - SABZ23 SBRJ 251500
2020042515 - METAR SBRJ 251500Z 34005KT 9999 FEW030 26/17 Q1019=
2020042515 - SPECI SBRJ 251540Z 14006KT 080V150 9999 FEW030 26/19 Q1019=
2020042516 - SABZ23 SBRJ 251600
2020042516 - METAR SBRJ 251600Z 14007KT CAVOK 25/19 Q1019=
2020042517 - SABZ23 SBRJ 251700
2020042517 - METAR SBRJ 251700Z 16010KT CAVOK 26/21 Q1018=
2020042518 - SABZ23 SBRJ 251800
2020042518 - METAR SBRJ 251800Z 17012KT CAVOK 25/21 Q1018=
2020042519 - SABZ23 SBRJ 251900
2020042519 - METAR SBRJ 251900Z 17011KT 9999 FEW013 25/21 Q1018=
2020042520 - SABZ23 SBRJ 252000
2020042520 - METAR SBRJ 252000Z 19010KT 9999 FEW013 25/21 Q1018=
2020042521 - SABZ23 SBRJ 252100
2020042521 - METAR SBRJ 252100Z 19011KT CAVOK 24/21 Q1018=
2020042522 - SABZ23 SBRJ 252200
2020042522 - METAR SBRJ 252200Z 19007KT CAVOK 24/21 Q1018=
2020042523 - SABZ23 SBRJ 252300
2020042523 - METAR SBRJ 252300Z 11004KT CAVOK 24/21 Q1019=
2020042600 - SABZ23 SBRJ 260000
2020042600 - METAR SBRJ 260000Z 07005KT CAVOK 24/20 Q1019=
2020042601 - SABZ23 SBRJ 260100
2020042601 - METAR SBRJ 260100Z 24004KT CAVOK 24/20 Q1019=
2020042602 - SABZ23 SBRJ 260200
2020042602 - METAR SBRJ 260200Z 15002KT CAVOK 23/21 Q1019=
2020042603 - Mensagem METAR de 'SBRJ' para 26/04/2020 as 03(UTC) não localizada na base de dados da REDEMET
2020042604 - Mensagem METAR de 'SBRJ' para 26/04/2020 as 04(UTC) não localizada na base de dados da REDEMET
2020042605 - Mensagem METAR de 'SBRJ' para 26/04/2020 as 05(UTC) não localizada na base de dados da REDEMET
2020042606 - Mensagem METAR de 'SBRJ' para 26/04/2020 as 06(UTC) não localizada na base de dados da REDEMET
2020042607 - Mensagem METAR de 'SBRJ' para 26/04/2020 as 07(UTC) não localizada na base de dados da REDEMET
2020042608 - Mensagem METAR de 'SBRJ' para 26/04/2020 as 08(UTC) não localizada na base de dados da REDEMET
2020042608 - SPECI SBRJ 260850Z 01002KT 9999 FEW007 22/20 Q1019=
2020042609 - SABZ23 SBRJ 260900
2020042609 - METAR SBRJ 260900Z 02002KT 9999 FEW007 22/20 Q1019=
2020042610 - SABZ23 SBRJ 261000
2020042610 - METAR SBRJ 261000Z 36004KT 9999 FEW007 22/20 Q1020=
2020042611 - SABZ23 SBRJ 261100
2020042611 - METAR SBRJ 261100Z 36005KT 9999 FEW007 23/20 Q1020=
2020042612 - SABZ23 SBRJ 261200
2020042612 - METAR SBRJ 261200Z 34005KT CAVOK 23/20 Q1021=
2020042613 - SABZ23 SBRJ 261300
2020042613 - METAR SBRJ 261300Z 34005KT CAVOK 24/20 Q1021=
2020042614 - SABZ23 SBRJ 261400
2020042614 - METAR SBRJ 261400Z 36005KT 9999 FEW015 25/20 Q1020=
2020042615 - SABZ23 SBRJ 261500
2020042615 - METAR SBRJ 261500Z 03004KT 9999 FEW025 26/20 Q1019=
2020042616 - SABZ23 SBRJ 261600
2020042616 - METAR SBRJ 261600Z 05002KT 9999 FEW025 28/19 Q1019=
2020042617 - SABZ23 SBRJ 261700
2020042617 - METAR SBRJ 261700Z 15010KT 9999 FEW025 27/21 Q1018=
2020042618 - SABZ23 SBRJ 261800
2020042618 - METAR SBRJ 261800Z 16011KT 9999 FEW025 27/21 Q1018=
2020042619 - SABZ23 SBRJ 261900
2020042619 - METAR SBRJ 261900Z 17011KT 9999 FEW025 26/20 Q1017=
2020042620 - SABZ23 SBRJ 262000
2020042620 - METAR SBRJ 262000Z 19010KT 9999 FEW025 26/20 Q1017=
2020042621 - SABZ23 SBRJ 262100
2020042621 - METAR SBRJ 262100Z 18010KT CAVOK 25/21 Q1018=
2020042622 - SABZ23 SBRJ 262200
2020042622 - METAR SBRJ 262200Z 19009KT CAVOK 24/21 Q1018=
2020042623 - SABZ23 SBRJ 262300
2020042623 - METAR SBRJ 262300Z 19009KT CAVOK 24/21 Q1019=
2020042700 - SABZ23 SBRJ 270000
2020042700 - METAR SBRJ 270000Z 22004KT CAVOK 24/21 Q1019=
2020042701 - SABZ23 SBRJ 270100
2020042701 - METAR SBRJ 270100Z 17003KT CAVOK 23/20 Q1020=
2020042702 - SABZ23 SBRJ 270200
2020042702 - METAR SBRJ 270200Z 06003KT 020V120 CAVOK 23/21 Q1020=
2020042703 - Mensagem METAR de 'SBRJ' para 27/04/2020 as 03(UTC) não localizada na base de dados da REDEMET
2020042704 - Mensagem METAR de 'SBRJ' para 27/04/2020 as 04(UTC) não localizada na base de dados da REDEMET
2020042705 - Mensagem METAR de 'SBRJ' para 27/04/2020 as 05(UTC) não localizada na base de dados da REDEMET
2020042706 - Mensagem METAR de 'SBRJ' para 27/04/2020 as 06(UTC) não localizada na base de dados da REDEMET
2020042707 - Mensagem METAR de 'SBRJ' para 27/04/2020 as 07(UTC) não localizada na base de dados da REDEMET
2020042708 - Mensagem METAR de 'SBRJ' para 27/04/2020 as 08(UTC) não localizada na base de dados da REDEMET
2020042708 - SPECI SBRJ 270850Z 00000KT 9999 FEW020 22/20 Q1021=
2020042709 - SABZ23 SBRJ 270900
2020042709 - METAR SBRJ 270900Z 00000KT 9999 FEW018 22/20 Q1021=
2020042710 - SABZ23 SBRJ 271000
2020042710 - METAR SBRJ 271000Z 04001KT 9999 FEW018 23/21 Q1022=
2020042711 - SABZ23 SBRJ 271100
2020042711 - METAR SBRJ 271100Z 06003KT 9999 FEW020 24/20 Q1022=
2020042712 - SABZ23 SBRJ 271200
2020042712 - METAR SBRJ 271200Z 36003KT 9999 FEW018 SCT025 24/21 Q1023=
2020042713 - SABZ23 SBRJ 271300
2020042713 - METAR SBRJ 271300Z 34005KT 9999 FEW020 SCT025 25/21 Q1023=
2020042714 - SABZ23 SBRJ 271400
2020042714 - METAR SBRJ 271400Z 34005KT 9999 SCT025 25/20 Q1023=
2020042715 - SABZ23 SBRJ 271500
2020042715 - METAR SBRJ 271500Z 01004KT 280V040 9999 FEW030 27/19 Q1022=
2020042715 - SPECI SBRJ 271525Z 11004KT 070V140 9999 FEW030 27/21 Q1022=
2020042716 - SABZ23 SBRJ 271600
2020042716 - METAR SBRJ 271600Z 15008KT 9999 FEW030 26/20 Q1021=
2020042717 - SABZ23 SBRJ 271700
2020042717 - METAR SBRJ 271700Z 16009KT 9999 FEW030 26/21 Q1021=
2020042718 - SABZ23 SBRJ 271800
2020042718 - METAR SBRJ 271800Z 16011KT 9999 FEW030 26/21 Q1020=
2020042719 - SABZ23 SBRJ 271900
2020042719 - METAR SBRJ 271900Z 16010KT 9999 FEW030 25/20 Q1020=
2020042720 - SABZ23 SBRJ 272000
2020042720 - METAR SBRJ 272000Z 16010KT 9999 FEW030 24/21 Q1020=
2020042721 - SABZ23 SBRJ 272100
2020042721 - METAR SBRJ 272100Z 17010KT CAVOK 24/20 Q1021=
2020042722 - SABZ23 SBRJ 272200
2020042722 - METAR SBRJ 272200Z 16010KT 9999 FEW025 24/20 Q1021=
2020042723 - SABZ23 SBRJ 272300
2020042723 - METAR SBRJ 272300Z 17008KT 9999 FEW020 SCT050 24/20 Q1021=
2020042800 - SABZ23 SBRJ 280000
2020042800 - METAR SBRJ 280000Z 16006KT 9999 FEW020 SCT050 24/20 Q1022=
2020042801 - SABZ23 SBRJ 280100
2020042801 - METAR SBRJ 280100Z 12004KT 9999 FEW020 SCT050 24/20 Q1022=
2020042802 - SABZ23 SBRJ 280200
2020042802 - METAR SBRJ 280200Z 07002KT 9999 FEW020 SCT050 24/20 Q1022=
2020042803 - Mensagem METAR de 'SBRJ' para 28/04/2020 as 03(UTC) não localizada na base de dados da REDEMET
2020042804 - Mensagem METAR de 'SBRJ' para 28/04/2020 as 04(UTC) não localizada na base de dados da REDEMET
2020042805 - Mensagem METAR de 'SBRJ' para 28/04/2020 as 05(UTC) não localizada na base de dados da REDEMET
2020042806 - Mensagem METAR de 'SBRJ' para 28/04/2020 as 06(UTC) não localizada na base de dados da REDEMET
2020042807 - Mensagem METAR de 'SBRJ' para 28/04/2020 as 07(UTC) não localizada na base de dados da REDEMET
2020042808 - Mensagem METAR de 'SBRJ' para 28/04/2020 as 08(UTC) não localizada na base de dados da REDEMET
2020042808 - SPECI SBRJ 280850Z 05004KT 9999 FEW018 BKN050 22/19 Q1020=
2020042809 - SABZ23 SBRJ 280900
2020042809 - METAR SBRJ 280900Z 36005KT 9999 FEW018 BKN050 22/19 Q1021=
2020042810 - SABZ23 SBRJ 281000
2020042810 - METAR SBRJ 281000Z 35003KT 9999 FEW018 BKN050 22/19 Q1021=
2020042811 - SABZ23 SBRJ 281100
2020042811 - METAR SBRJ 281100Z 34004KT 9999 FEW018 BKN050 23/19 Q1022=
2020042812 - SABZ23 SBRJ 281200
2020042812 - METAR SBRJ 281200Z 36005KT 9999 FEW018 BKN050 23/20 Q1022=
2020042813 - SABZ23 SBRJ 281300
2020042813 - METAR SBRJ 281300Z 01005KT 9999 FEW018 SCT050 25/19 Q1022=
2020042814 - SABZ23 SBRJ 281400
2020042814 - METAR SBRJ 281400Z 02005KT 9999 FEW018 BKN050 25/19 Q1022=
2020042814 - SPECI SBRJ 281440Z 13006KT 9999 FEW020 BKN050 26/20 Q1021=
2020042815 - SABZ23 SBRJ 281500
2020042815 - METAR SBRJ 281500Z 13006KT 9999 FEW020 SCT070 25/20 Q1021=
2020042816 - SABZ23 SBRJ 281556
2020042816 - METAR SBRJ 281600Z 15008KT 9999 FEW025 SCT090 25/20 Q1020=
2020042817 - SABZ23 SBRJ 281656
2020042817 - METAR SBRJ 281700Z 16009KT 9999 FEW025 25/19 Q1020=
2020042818 - SABZ23 SBRJ 281757
2020042818 - METAR SBRJ 281800Z 16010KT 9999 FEW025 25/20 Q1019=
2020042819 - SABZ23 SBRJ 281856
2020042819 - METAR SBRJ 281900Z 17009KT 9999 FEW025 25/19 Q1019=
2020042820 - SABZ23 SBRJ 282000
2020042820 - METAR SBRJ 282000Z 17010KT 9999 FEW025 24/20 Q1019=
2020042821 - SABZ23 SBRJ 282100
2020042821 - METAR SBRJ 282100Z 17009KT CAVOK 23/20 Q1019=
2020042822 - SABZ23 SBRJ 282200
2020042822 - METAR SBRJ 282200Z 17006KT CAVOK 23/20 Q1020=
2020042823 - SABZ23 SBRJ 282300
2020042823 - METAR SBRJ 282300Z 13008KT CAVOK 24/20 Q1020=
2020042900 - SABZ23 SBRJ 290000
2020042900 - METAR SBRJ 290000Z 08006KT CAVOK 24/19 Q1020=
2020042901 - SABZ23 SBRJ 290100
2020042901 - METAR SBRJ 290100Z 08013KT CAVOK 23/19 Q1020=
2020042902 - SABZ23 SBRJ 290200
2020042902 - METAR SBRJ 290200Z 08005KT 040V100 CAVOK 23/19 Q1020=
2020042903 - Mensagem METAR de 'SBRJ' para 29/04/2020 as 03(UTC) não localizada na base de dados da REDEMET
2020042904 - Mensagem METAR de 'SBRJ' para 29/04/2020 as 04(UTC) não localizada na base de dados da REDEMET
2020042905 - Mensagem METAR de 'SBRJ' para 29/04/2020 as 05(UTC) não localizada na base de dados da REDEMET
2020042906 - Mensagem METAR de 'SBRJ' para 29/04/2020 as 06(UTC) não localizada na base de dados da REDEMET
2020042907 - Mensagem METAR de 'SBRJ' para 29/04/2020 as 07(UTC) não localizada na base de dados da REDEMET
2020042908 - Mensagem METAR de 'SBRJ' para 29/04/2020 as 08(UTC) não localizada na base de dados da REDEMET
2020042908 - SPECI SBRJ 290850Z 04004KT 9999 SCT010 22/20 Q1019=
2020042909 - SABZ23 SBRJ 290900
2020042909 - METAR SBRJ 290900Z 03004KT 9999 SCT010 22/20 Q1020=
2020042910 - SABZ23 SBRJ 291000
2020042910 - METAR SBRJ 291000Z 01005KT 9999 SCT010 22/20 Q1020=
2020042911 - SABZ23 SBRJ 291100
2020042911 - METAR SBRJ 291100Z 02005KT 8000 SCT010 22/20 Q1021=
2020042912 - SABZ23 SBRJ 291200
2020042912 - METAR SBRJ 291200Z 01005KT 9000 FEW012 23/20 Q1021=
2020042913 - SABZ23 SBRJ 291300
2020042913 - METAR SBRJ 291300Z 36006KT 9999 FEW020 24/20 Q1021=
2020042914 - SABZ23 SBRJ 291400
2020042914 - METAR SBRJ 291400Z 36005KT 9999 FEW020 25/20 Q1020=
2020042915 - SABZ23 SBRJ 291500
2020042915 - METAR SBRJ 291500Z 03003KT 9999 FEW020 26/20 Q1019=
2020042915 - SPECI SBRJ 291510Z 14007KT 9999 FEW020 26/20 Q1018=
2020042916 - SABZ23 SBRJ 291600
2020042916 - METAR SBRJ 291600Z 15008KT 9999 FEW020 26/20 Q1017=
2020042917 - SABZ23 SBRJ 291700
2020042917 - METAR SBRJ 291700Z 16009KT 9999 FEW020 22/20 Q1017=
2020042918 - SABZ23 SBRJ 291800
2020042918 - METAR SBRJ 291800Z 16007KT 9999 FEW020 27/20 Q1016=
2020042919 - SABZ23 SBRJ 291900
2020042919 - METAR SBRJ 291900Z 14008KT 9999 FEW025 27/20 Q1016=
2020042920 - SABZ23 SBRJ 292000
2020042920 - METAR SBRJ 292000Z 12011KT 9999 FEW030 26/21 Q1016=
2020042921 - SABZ23 SBRJ 292100
2020042921 - METAR SBRJ 292100Z 13010KT CAVOK 25/21 Q1016=
2020042922 - SABZ23 SBRJ 292200
2020042922 - METAR SBRJ 292200Z 18005KT CAVOK 24/20 Q1016=
2020042923 - SABZ23 SBRJ 292300
2020042923 - METAR SBRJ 292300Z 17003KT 130V210 CAVOK 25/20 Q1017=
2020043000 - SABZ23 SBRJ 300000
2020043000 - METAR SBRJ 300000Z VRB02KT CAVOK 25/20 Q1017=
2020043001 - SABZ23 SBRJ 300100
2020043001 - METAR SBRJ 300100Z 01003KT CAVOK 24/21 Q1017=
2020043002 - SABZ23 SBRJ 300200
2020043002 - METAR SBRJ 300200Z VRB01KT CAVOK 24/21 Q1016=
2020043003 - Mensagem METAR de 'SBRJ' para 30/04/2020 as 03(UTC) não localizada na base de dados da REDEMET
2020043004 - Mensagem METAR de 'SBRJ' para 30/04/2020 as 04(UTC) não localizada na base de dados da REDEMET
2020043005 - Mensagem METAR de 'SBRJ' para 30/04/2020 as 05(UTC) não localizada na base de dados da REDEMET
2020043006 - Mensagem METAR de 'SBRJ' para 30/04/2020 as 06(UTC) não localizada na base de dados da REDEMET
2020043007 - Mensagem METAR de 'SBRJ' para 30/04/2020 as 07(UTC) não localizada na base de dados da REDEMET
2020043008 - Mensagem METAR de 'SBRJ' para 30/04/2020 as 08(UTC) não localizada na base de dados da REDEMET
2020043008 - SPECI SBRJ 300850Z 36008KT 7000 FEW008 22/21 Q1015=
2020043009 - SABZ23 SBRJ 300900
2020043009 - METAR SBRJ 300900Z 36008KT 7000 FEW008 22/21 Q1016=
2020043010 - SABZ23 SBRJ 301000
2020043010 - METAR SBRJ 301000Z 36009KT 5000 BR FEW007 22/21 Q1016=
2020043011 - SABZ23 SBRJ 301100
2020043011 - METAR SBRJ 301100Z 36009KT 3000 BR FEW005 22/21 Q1017=
2020043011 - SPECI SBRJ 301130Z 36008KT 8000 FEW005 22/21 Q1017=
2020043012 - SABZ23 SBRJ 301200
2020043012 - METAR SBRJ 301200Z 36008KT 8000 NSC 23/21 Q1017=
2020043013 - SABZ23 SBRJ 301300
2020043013 - METAR SBRJ 301300Z 34005KT CAVOK 25/21 Q1017=
2020043014 - SABZ23 SBRJ 301400
2020043014 - METAR SBRJ 301400Z 01007KT CAVOK 26/21 Q1016=
2020043015 - SABZ23 SBRJ 301500
2020043015 - METAR SBRJ 301500Z 35007KT CAVOK 29/19 Q1015=
2020043016 - SABZ23 SBRJ 301600
2020043016 - METAR SBRJ 301600Z 33011KT CAVOK 32/14 Q1015=
2020043017 - SABZ23 SBRJ 301700
2020043017 - METAR SBRJ 301700Z 34008KT CAVOK 31/16 Q1014=
2020043018 - SABZ23 SBRJ 301800
2020043018 - METAR SBRJ 301800Z 32006KT CAVOK 32/14 Q1013=
2020043018 - SPECI SBRJ 301820Z 15008KT CAVOK 30/15 Q1013=
2020043019 - SABZ23 SBRJ 301900
2020043019 - METAR SBRJ 301900Z 14007KT CAVOK 28/19 Q1014=
2020043020 - SABZ23 SBRJ 302000
2020043020 - METAR SBRJ 302000Z 18006KT CAVOK 29/16 Q1014=
2020043021 - SABZ23 SBRJ 302100
2020043021 - METAR SBRJ 302100Z 11007KT CAVOK 26/20 Q1014=
2020043022 - SABZ23 SBRJ 302200
2020043022 - METAR SBRJ 302200Z 14005KT CAVOK 28/16 Q1014=
2020043023 - SABZ23 SBRJ 302300
2020043023 - METAR SBRJ 302300Z 13007KT CAVOK 27/18 Q1015=
2020050100 - SABZ23 SBRJ 010000
2020050100 - METAR SBRJ 010000Z 15003KT CAVOK 26/18 Q1016=
2020050101 - SABZ23 SBRJ 010100
2020050101 - METAR SBRJ 010100Z 01003KT CAVOK 25/22 Q1016=
2020050102 - SABZ23 SBRJ 010200
2020050102 - METAR SBRJ 010200Z 36005KT CAVOK 25/21 Q1016=
2020050103 - Mensagem METAR de 'SBRJ' para 01/05/2020 as 03(UTC) não localizada na base de dados da REDEMET
2020050104 - Mensagem METAR de 'SBRJ' para 01/05/2020 as 04(UTC) não localizada na base de dados da REDEMET
2020050105 - Mensagem METAR de 'SBRJ' para 01/05/2020 as 05(UTC) não localizada na base de dados da REDEMET
2020050106 - Mensagem METAR de 'SBRJ' para 01/05/2020 as 06(UTC) não localizada na base de dados da REDEMET
2020050107 - Mensagem METAR de 'SBRJ' para 01/05/2020 as 07(UTC) não localizada na base de dados da REDEMET
2020050108 - Mensagem METAR de 'SBRJ' para 01/05/2020 as 08(UTC) não localizada na base de dados da REDEMET
2020050108 - SPECI SBRJ 010850Z 36004KT CAVOK 22/19 Q1016=
2020050109 - SABZ23 SBRJ 010900
2020050109 - METAR SBRJ 010900Z 36003KT CAVOK 22/20 Q1016=
2020050110 - SABZ23 SBRJ 011000
2020050110 - METAR SBRJ 011000Z 02003KT CAVOK 23/19 Q1017=
2020050111 - SABZ23 SBRJ 011100
2020050111 - METAR SBRJ 011100Z 04003KT CAVOK 23/19 Q1018=
2020050112 - SABZ23 SBRJ 011200
2020050112 - METAR SBRJ 011200Z 01004KT 8000 NSC 24/20 Q1018=
2020050113 - SABZ23 SBRJ 011300
2020050113 - METAR SBRJ 011300Z 01005KT 7000 FEW025 25/20 Q1019=
2020050114 - SABZ23 SBRJ 011400
2020050114 - METAR SBRJ 011400Z 02006KT 7000 FEW025 26/19 Q1018=
2020050115 - SABZ23 SBRJ 011500
2020050115 - METAR SBRJ 011500Z 03005KT 9999 SCT025 27/20 Q1017=
2020050116 - SABZ23 SBRJ 011600
2020050116 - METAR SBRJ 011600Z 12006KT 9999 SCT025 28/21 Q1017=
2020050117 - SABZ23 SBRJ 011700
2020050117 - METAR SBRJ 011700Z 18012KT 9999 FEW018 SCT030 27/21 Q1016=
2020050118 - SABZ23 SBRJ 011800
2020050118 - METAR SBRJ 011800Z 17012KT 9999 FEW018 SCT030 27/22 Q1016=
2020050119 - SABZ23 SBRJ 011900
2020050119 - METAR SBRJ 011900Z 18014KT 9999 FEW018 26/22 Q1016=
2020050120 - SABZ23 SBRJ 012000
2020050120 - METAR SBRJ 012000Z 19016KT 9999 FEW015 25/22 Q1016=
2020050121 - SABZ23 SBRJ 012100
2020050121 - METAR SBRJ 012100Z 17011KT 9999 FEW015 24/21 Q1017=
2020050122 - SABZ23 SBRJ 012200
2020050122 - METAR SBRJ 012200Z 17008KT 9999 FEW040 24/20 Q1017=
2020050123 - SABZ23 SBRJ 012300
2020050123 - METAR SBRJ 012300Z 15005KT 9999 SCT040 24/21 Q1017=
