
2020070100 - SABZ23 SBRJ 010000
2020070100 - METAR SBRJ 010000Z 00000KT 9999 FEW030 24/17 Q1010=
2020070101 - SABZ23 SBRJ 010100
2020070101 - METAR SBRJ 010100Z 32005KT 290V360 CAVOK 24/17 Q1010=
2020070102 - SABZ23 SBRJ 010200
2020070102 - METAR SBRJ 010200Z 02014KT CAVOK 24/18 Q1009=
2020070103 - Mensagem METAR de 'SBRJ' para 01/07/2020 as 03(UTC) não localizada na base de dados da REDEMET
2020070104 - Mensagem METAR de 'SBRJ' para 01/07/2020 as 04(UTC) não localizada na base de dados da REDEMET
2020070105 - Mensagem METAR de 'SBRJ' para 01/07/2020 as 05(UTC) não localizada na base de dados da REDEMET
2020070106 - Mensagem METAR de 'SBRJ' para 01/07/2020 as 06(UTC) não localizada na base de dados da REDEMET
2020070107 - Mensagem METAR de 'SBRJ' para 01/07/2020 as 07(UTC) não localizada na base de dados da REDEMET
2020070108 - Mensagem METAR de 'SBRJ' para 01/07/2020 as 08(UTC) não localizada na base de dados da REDEMET
2020070108 - SPECI SBRJ 010850Z 36011KT CAVOK 23/17 Q1006=
2020070109 - SABZ23 SBRJ 010900
2020070109 - METAR SBRJ 010900Z 34010KT CAVOK 23/18 Q1006=
2020070110 - SABZ23 SBRJ 011000
2020070110 - METAR SBRJ 011000Z 35007KT CAVOK 23/18 Q1006=
2020070111 - SABZ23 SBRJ 011100
2020070111 - METAR SBRJ 011100Z 04006KT CAVOK 24/19 Q1007=
2020070112 - SABZ23 SBRJ 011200
2020070112 - METAR SBRJ 011200Z 02006KT CAVOK 25/19 Q1007=
2020070113 - SABZ23 SBRJ 011300
2020070113 - METAR SBRJ 011300Z 31010KT CAVOK 28/16 Q1007=
2020070114 - SABZ23 SBRJ 011400
2020070114 - METAR SBRJ 011400Z 32010KT CAVOK 29/15 Q1007=
2020070115 - SABZ23 SBRJ 011500
2020070115 - METAR SBRJ 011500Z 30008KT 250V340 CAVOK 29/15 Q1007=
2020070116 - SABZ23 SBRJ 011600
2020070116 - METAR SBRJ 011600Z 30010KT 260V330 CAVOK 29/15 Q1005=
2020070117 - SABZ23 SBRJ 011700
2020070117 - METAR SBRJ 011700Z 32009KT CAVOK 30/16 Q1006=
2020070118 - SABZ23 SBRJ 011800
2020070118 - METAR SBRJ 011800Z 34010KT 9999 FEW020 BKN100 28/18 Q1006=
2020070119 - SABZ23 SBRJ 011900
2020070119 - METAR SBRJ 011900Z 31006KT 9999 FEW020 BKN100 29/17 Q1006=
2020070120 - SABZ23 SBRJ 012000
2020070120 - METAR SBRJ 012000Z 19019G30KT 9999 FEW010 SCT020 BKN100 25/19 Q1008=
2020070121 - SABZ23 SBRJ 012100
2020070121 - METAR SBRJ 012100Z 21017G27KT 9999 FEW010 SCT020 BKN100 24/16 Q1009=
2020070122 - SABZ23 SBRJ 012200
2020070122 - METAR SBRJ 012200Z 20013KT 9999 SCT010 SCT020 BKN100 23/15 Q1010=
2020070123 - SABZ23 SBRJ 012300
2020070123 - METAR SBRJ 012300Z 20011KT 9999 SCT020 BKN100 23/12 Q1011=
2020070200 - SABZ23 SBRJ 020000
2020070200 - METAR SBRJ 020000Z 20007KT 9999 FEW020 BKN100 22/13 Q1012=
2020070201 - SABZ23 SBRJ 020100
2020070201 - METAR SBRJ 020100Z 22007KT 9999 FEW020 BKN100 23/12 Q1013=
2020070202 - SABZ23 SBRJ 020200
2020070202 - METAR SBRJ 020200Z 20006KT 9999 FEW020 BKN100 22/14 Q1013=
2020070203 - Mensagem METAR de 'SBRJ' para 02/07/2020 as 03(UTC) não localizada na base de dados da REDEMET
2020070204 - Mensagem METAR de 'SBRJ' para 02/07/2020 as 04(UTC) não localizada na base de dados da REDEMET
2020070205 - Mensagem METAR de 'SBRJ' para 02/07/2020 as 05(UTC) não localizada na base de dados da REDEMET
2020070206 - Mensagem METAR de 'SBRJ' para 02/07/2020 as 06(UTC) não localizada na base de dados da REDEMET
2020070207 - Mensagem METAR de 'SBRJ' para 02/07/2020 as 07(UTC) não localizada na base de dados da REDEMET
2020070208 - Mensagem METAR de 'SBRJ' para 02/07/2020 as 08(UTC) não localizada na base de dados da REDEMET
2020070208 - SPECI SBRJ 020850Z 26001KT 9999 BKN040 21/13 Q1014=
2020070209 - SABZ23 SBRJ 020900
2020070209 - METAR SBRJ 020900Z 25001KT 9999 BKN040 21/14 Q1014=
2020070210 - SABZ23 SBRJ 021000
2020070210 - METAR SBRJ 021000Z 22002KT 9999 BKN040 21/13 Q1015=
2020070211 - SABZ23 SBRJ 021100
2020070211 - METAR SBRJ 021100Z 32003KT 9999 BKN040 21/14 Q1015=
2020070212 - SABZ23 SBRJ 021200
2020070212 - METAR SBRJ 021200Z 33003KT 9999 BKN040 21/15 Q1016=
2020070213 - SABZ23 SBRJ 021300
2020070213 - METAR SBRJ 021300Z 03003KT 9999 SCT020 BKN040 23/15 Q1016=
2020070214 - SABZ23 SBRJ 021400
2020070214 - METAR SBRJ 021400Z 13006KT 9999 SCT020 BKN040 22/15 Q1016=
2020070215 - SABZ23 SBRJ 021500
2020070215 - METAR SBRJ 021500Z 16008KT 9999 SCT020 BKN040 23/15 Q1015=
2020070216 - SABZ23 SBRJ 021600
2020070216 - METAR SBRJ 021600Z 18008KT 9999 SCT025 23/15 Q1015=
2020070217 - SABZ23 SBRJ 021700
2020070217 - METAR SBRJ 021700Z 17009KT 9999 SCT025 23/15 Q1014=
2020070218 - SABZ23 SBRJ 021800
2020070218 - METAR SBRJ 021800Z 18010KT 9999 SCT025 22/15 Q1014=
2020070219 - SABZ23 SBRJ 021900
2020070219 - METAR SBRJ 021900Z 18010KT 9999 SCT025 22/14 Q1014=
2020070220 - SABZ23 SBRJ 022000
2020070220 - METAR SBRJ 022000Z 18008KT 9999 SCT025 SCT040 21/15 Q1015=
2020070221 - SABZ23 SBRJ 022100
2020070221 - METAR SBRJ 022100Z 17008KT 9999 SCT025 BKN040 21/14 Q1015=
2020070222 - SABZ23 SBRJ 022200
2020070222 - METAR SBRJ 022200Z 17008KT 9999 SCT025 BKN040 21/15 Q1016=
2020070223 - SABZ23 SBRJ 022300
2020070223 - METAR SBRJ 022300Z 16006KT 9999 SCT025 BKN045 21/15 Q1016=
2020070300 - SABZ23 SBRJ 030000
2020070300 - METAR SBRJ 030000Z 17006KT 9999 SCT025 BKN045 21/15 Q1016=
2020070301 - SABZ23 SBRJ 030100
2020070301 - METAR SBRJ 030100Z 19007KT 9999 FEW025 BKN045 21/15 Q1017=
2020070302 - SABZ23 SBRJ 030200
2020070302 - METAR SBRJ 030200Z 19007KT 9999 FEW025 BKN045 20/16 Q1017=
2020070303 - Mensagem METAR de 'SBRJ' para 03/07/2020 as 03(UTC) não localizada na base de dados da REDEMET
2020070304 - Mensagem METAR de 'SBRJ' para 03/07/2020 as 04(UTC) não localizada na base de dados da REDEMET
2020070305 - Mensagem METAR de 'SBRJ' para 03/07/2020 as 05(UTC) não localizada na base de dados da REDEMET
2020070306 - Mensagem METAR de 'SBRJ' para 03/07/2020 as 06(UTC) não localizada na base de dados da REDEMET
2020070307 - Mensagem METAR de 'SBRJ' para 03/07/2020 as 07(UTC) não localizada na base de dados da REDEMET
2020070308 - Mensagem METAR de 'SBRJ' para 03/07/2020 as 08(UTC) não localizada na base de dados da REDEMET
2020070308 - SPECI SBRJ 030850Z 31006KT 9999 OVC030 20/16 Q1015=
2020070309 - SABZ23 SBRJ 030900
2020070309 - METAR SBRJ 030900Z 31005KT 9999 OVC035 20/16 Q1015=
2020070310 - SABZ23 SBRJ 031000
2020070310 - METAR SBRJ 031000Z 23003KT 9999 BKN040 20/15 Q1016=
2020070310 - SPECI SBRJ 031035Z 31005KT 9999 BKN040 20/15 Q1017=
2020070311 - SABZ23 SBRJ 031100
2020070311 - METAR SBRJ 031100Z 27004KT 9999 BKN035 21/15 Q1017=
2020070312 - SABZ23 SBRJ 031200
2020070312 - METAR SBRJ 031200Z 20002KT 9999 BKN035 21/15 Q1018=
2020070313 - SABZ23 SBRJ 031300
2020070313 - METAR SBRJ 031300Z 07004KT 9999 SCT030 22/16 Q1018=
2020070314 - SABZ23 SBRJ 031400
2020070314 - METAR SBRJ 031400Z 13001KT 9999 SCT025 BKN040 22/16 Q1017=
2020070315 - SABZ23 SBRJ 031501
2020070315 - METAR SBRJ 031500Z 19010KT 9999 FEW020 SCT030 BKN040 22/16 Q1017=
2020070316 - SABZ23 SBRJ 031600
2020070316 - METAR SBRJ 031600Z 19010KT 9999 FEW020 SCT030 BKN050 22/16 Q1016=
2020070317 - SABZ23 SBRJ 031700
2020070317 - METAR SBRJ 031700Z 19015KT 9999 SCT025 BKN050 22/16 Q1016=
2020070318 - SABZ23 SBRJ 031800
2020070318 - METAR SBRJ 031800Z 19014KT 9999 SCT020 BKN050 22/16 Q1016=
2020070319 - SABZ23 SBRJ 031900
2020070319 - METAR SBRJ 031900Z 19012KT 9999 SCT020 BKN050 22/16 Q1017=
2020070320 - SABZ23 SBRJ 032000
2020070320 - METAR SBRJ 032000Z 19012KT 9999 SCT020 BKN060 21/16 Q1017=
2020070321 - SABZ23 SBRJ 032100
2020070321 - METAR SBRJ 032100Z 19013KT 9999 SCT020 BKN040 21/16 Q1018=
2020070322 - SABZ23 SBRJ 032200
2020070322 - METAR SBRJ 032200Z 19009KT 9999 -RA FEW018 SCT030 BKN060 20/17 Q1018=
2020070323 - SABZ23 SBRJ 032300
2020070323 - METAR SBRJ 032300Z 20007KT 9999 SCT018 BKN040 20/17 Q1019=
2020070400 - SABZ23 SBRJ 040000
2020070400 - METAR SBRJ 040000Z 15005KT 7000 -RA SCT015 OVC020 20/17 Q1020=
2020070401 - SABZ23 SBRJ 040100
2020070401 - METAR SBRJ 040100Z 11007KT 8000 -RA SCT015 OVC025 19/17 Q1020=
2020070402 - SABZ23 SBRJ 040200
2020070402 - METAR SBRJ 040200Z 18005KT 9999 FEW015 SCT030 OVC080 19/17 Q1020=
2020070403 - Mensagem METAR de 'SBRJ' para 04/07/2020 as 03(UTC) não localizada na base de dados da REDEMET
2020070404 - Mensagem METAR de 'SBRJ' para 04/07/2020 as 04(UTC) não localizada na base de dados da REDEMET
2020070405 - Mensagem METAR de 'SBRJ' para 04/07/2020 as 05(UTC) não localizada na base de dados da REDEMET
2020070406 - Mensagem METAR de 'SBRJ' para 04/07/2020 as 06(UTC) não localizada na base de dados da REDEMET
2020070407 - Mensagem METAR de 'SBRJ' para 04/07/2020 as 07(UTC) não localizada na base de dados da REDEMET
2020070408 - Mensagem METAR de 'SBRJ' para 04/07/2020 as 08(UTC) não localizada na base de dados da REDEMET
2020070408 - SPECI SBRJ 040850Z 31006KT 6000 -RA BKN012 OVC040 19/17 Q1019=
2020070409 - SABZ23 SBRJ 040900
2020070409 - METAR SBRJ 040900Z 32006KT 6000 -RA BKN012 OVC040 19/17 Q1019=
2020070410 - SABZ23 SBRJ 041000
2020070410 - METAR SBRJ 041000Z 03006KT 8000 BKN010 BKN045 19/17 Q1020=
2020070411 - SABZ23 SBRJ 041100
2020070411 - METAR SBRJ 041100Z 02003KT 340V050 9999 SCT015 BKN035 19/17 Q1020=
2020070412 - SABZ23 SBRJ 041200
2020070412 - METAR SBRJ 041200Z VRB02KT 9999 SCT020 BKN040 20/17 Q1021=
2020070413 - SABZ23 SBRJ 041300
2020070413 - METAR SBRJ 041300Z VRB02KT 9999 FEW020 BKN040 21/17 Q1021=
2020070414 - SABZ23 SBRJ 041400
2020070414 - METAR SBRJ 041400Z 18004KT 150V210 9999 BKN030 21/17 Q1021=
2020070415 - SABZ23 SBRJ 041500
2020070415 - METAR SBRJ 041500Z 14007KT 9999 SCT020 BKN035 21/17 Q1020=
2020070416 - SABZ23 SBRJ 041600
2020070416 - METAR SBRJ 041600Z 11008KT 9999 FEW025 BKN040 22/17 Q1019=
2020070417 - SABZ23 SBRJ 041700
2020070417 - METAR SBRJ 041700Z 12007KT 9999 FEW020 BKN040 22/17 Q1018=
2020070418 - SABZ23 SBRJ 041800
2020070418 - METAR SBRJ 041800Z 11008KT 9999 FEW025 BKN040 22/17 Q1018=
2020070419 - SABZ23 SBRJ 041900
2020070419 - METAR SBRJ 041900Z 11008KT 9999 FEW030 22/17 Q1018=
2020070420 - SABZ23 SBRJ 042000
2020070420 - METAR SBRJ 042000Z 10007KT 9999 FEW030 22/17 Q1018=
2020070421 - SABZ23 SBRJ 042100
2020070421 - METAR SBRJ 042100Z 08005KT 9999 FEW035 21/17 Q1018=
2020070422 - SABZ23 SBRJ 042200
2020070422 - METAR SBRJ 042200Z 08003KT 360V160 9999 FEW035 21/16 Q1018=
2020070423 - SABZ23 SBRJ 042300
2020070423 - METAR SBRJ 042300Z 06012KT 9999 FEW020 21/17 Q1018=
2020070500 - SABZ23 SBRJ 050000
2020070500 - METAR SBRJ 050000Z 07009KT 9999 FEW020 21/17 Q1018=
2020070501 - SABZ23 SBRJ 050100
2020070501 - METAR SBRJ 050100Z 12003KT CAVOK 21/17 Q1019=
2020070502 - SABZ23 SBRJ 050200
2020070502 - METAR SBRJ 050200Z 23003KT CAVOK 20/16 Q1019=
2020070503 - Mensagem METAR de 'SBRJ' para 05/07/2020 as 03(UTC) não localizada na base de dados da REDEMET
2020070504 - Mensagem METAR de 'SBRJ' para 05/07/2020 as 04(UTC) não localizada na base de dados da REDEMET
2020070505 - Mensagem METAR de 'SBRJ' para 05/07/2020 as 05(UTC) não localizada na base de dados da REDEMET
2020070506 - Mensagem METAR de 'SBRJ' para 05/07/2020 as 06(UTC) não localizada na base de dados da REDEMET
2020070507 - Mensagem METAR de 'SBRJ' para 05/07/2020 as 07(UTC) não localizada na base de dados da REDEMET
2020070508 - Mensagem METAR de 'SBRJ' para 05/07/2020 as 08(UTC) não localizada na base de dados da REDEMET
2020070508 - SPECI SBRJ 050850Z 36004KT 7000 FEW020 19/16 Q1019=
2020070509 - SABZ23 SBRJ 050900
2020070509 - METAR SBRJ 050900Z 01004KT 7000 FEW010 SCT020 19/17 Q1019=
2020070510 - SABZ23 SBRJ 051000
2020070510 - METAR SBRJ 051000Z 32003KT 7000 FEW007 SCT020 19/18 Q1019=
2020070511 - SABZ23 SBRJ 051100
2020070511 - METAR SBRJ 051100Z 01004KT 5000 BR FEW007 SCT020 19/18 Q1019=
2020070512 - SABZ23 SBRJ 051200
2020070512 - METAR SBRJ 051200Z 01005KT 5000 BR FEW007 SCT020 20/18 Q1020=
2020070513 - SABZ23 SBRJ 051300
2020070513 - METAR SBRJ 051300Z 01005KT 5000 BR FEW020 20/18 Q1020=
2020070514 - SABZ23 SBRJ 051400
2020070514 - METAR SBRJ 051400Z 33007KT 7000 NSC 22/18 Q1019=
2020070515 - SABZ23 SBRJ 051500
2020070515 - METAR SBRJ 051500Z 34006KT CAVOK 23/18 Q1018=
2020070516 - SABZ23 SBRJ 051600
2020070516 - METAR SBRJ 051600Z 34005KT CAVOK 24/18 Q1017=
2020070517 - SABZ23 SBRJ 051700
2020070517 - METAR SBRJ 051700Z 33004KT CAVOK 26/18 Q1016=
2020070518 - SABZ23 SBRJ 051800
2020070518 - METAR SBRJ 051800Z 34003KT 320V020 CAVOK 26/17 Q1015=
2020070519 - SABZ23 SBRJ 051900
2020070519 - METAR SBRJ 051900Z 34003KT CAVOK 27/17 Q1015=
2020070520 - SABZ23 SBRJ 052000
2020070520 - METAR SBRJ 052000Z 32004KT CAVOK 26/16 Q1015=
2020070521 - SABZ23 SBRJ 052100
2020070521 - METAR SBRJ 052100Z 30005KT CAVOK 26/16 Q1015=
2020070522 - SABZ23 SBRJ 052200
2020070522 - METAR SBRJ 052200Z 31003KT CAVOK 25/17 Q1015=
2020070523 - SABZ23 SBRJ 052300
2020070523 - METAR SBRJ 052300Z 02003KT 320V040 CAVOK 24/19 Q1015=
2020070600 - SABZ23 SBRJ 060000
2020070600 - METAR SBRJ 060000Z 34004KT 300V010 CAVOK 23/19 Q1015=
2020070601 - SABZ23 SBRJ 060100
2020070601 - METAR SBRJ 060100Z 29006KT 260V340 CAVOK 23/18 Q1016=
2020070602 - SABZ23 SBRJ 060200
2020070602 - METAR SBRJ 060200Z 32005KT CAVOK 23/17 Q1016=
2020070603 - Mensagem METAR de 'SBRJ' para 06/07/2020 as 03(UTC) não localizada na base de dados da REDEMET
2020070604 - Mensagem METAR de 'SBRJ' para 06/07/2020 as 04(UTC) não localizada na base de dados da REDEMET
2020070605 - Mensagem METAR de 'SBRJ' para 06/07/2020 as 05(UTC) não localizada na base de dados da REDEMET
2020070606 - Mensagem METAR de 'SBRJ' para 06/07/2020 as 06(UTC) não localizada na base de dados da REDEMET
2020070607 - Mensagem METAR de 'SBRJ' para 06/07/2020 as 07(UTC) não localizada na base de dados da REDEMET
2020070608 - Mensagem METAR de 'SBRJ' para 06/07/2020 as 08(UTC) não localizada na base de dados da REDEMET
2020070608 - SPECI SBRJ 060850Z 32007KT CAVOK 21/19 Q1014=
2020070609 - SABZ23 SBRJ 060900
2020070609 - METAR SBRJ 060900Z 32006KT CAVOK 21/19 Q1014=
2020070610 - SABZ23 SBRJ 061000
2020070610 - METAR SBRJ 061000Z 34008KT CAVOK 21/18 Q1015=
2020070611 - SABZ23 SBRJ 061100
2020070611 - METAR SBRJ 061100Z 34007KT CAVOK 21/19 Q1015=
2020070612 - SABZ23 SBRJ 061200
2020070612 - METAR SBRJ 061200Z 36009KT CAVOK 22/19 Q1016=
2020070613 - SABZ23 SBRJ 061300
2020070613 - METAR SBRJ 061300Z 36007KT CAVOK 23/18 Q1016=
2020070614 - SABZ23 SBRJ 061400
2020070614 - METAR SBRJ 061400Z 01007KT CAVOK 24/18 Q1016=
2020070615 - SABZ23 SBRJ 061500
2020070615 - METAR SBRJ 061500Z 36005KT CAVOK 25/19 Q1015=
2020070616 - SABZ23 SBRJ 061600
2020070616 - METAR SBRJ 061600Z VRB02KT CAVOK 28/18 Q1014=
2020070617 - SABZ23 SBRJ 061700
2020070617 - METAR SBRJ 061700Z 16008KT CAVOK 27/19 Q1014=
2020070618 - SABZ23 SBRJ 061800
2020070618 - METAR SBRJ 061800Z 16007KT CAVOK 28/18 Q1014=
2020070619 - SABZ23 SBRJ 061900
2020070619 - METAR SBRJ 061900Z 20008KT CAVOK 29/15 Q1014=
2020070620 - SABZ23 SBRJ 062000
2020070620 - METAR SBRJ 062000Z 19007KT CAVOK 26/17 Q1015=
2020070621 - SABZ23 SBRJ 062100
2020070621 - METAR SBRJ 062100Z 20004KT CAVOK 25/18 Q1016=
2020070622 - SABZ23 SBRJ 062200
2020070622 - METAR SBRJ 062200Z 13003KT CAVOK 25/18 Q1016=
2020070623 - SABZ23 SBRJ 062300
2020070623 - METAR SBRJ 062300Z 20002KT CAVOK 23/18 Q1017=
2020070700 - SABZ23 SBRJ 070000
2020070700 - METAR SBRJ 070000Z 19006KT CAVOK 23/19 Q1018=
2020070701 - SABZ23 SBRJ 070100
2020070701 - METAR SBRJ 070100Z 21004KT CAVOK 23/19 Q1018=
2020070702 - SABZ23 SBRJ 070200
2020070702 - METAR SBRJ 070200Z 19004KT CAVOK 23/20 Q1018=
2020070703 - Mensagem METAR de 'SBRJ' para 07/07/2020 as 03(UTC) não localizada na base de dados da REDEMET
2020070704 - Mensagem METAR de 'SBRJ' para 07/07/2020 as 04(UTC) não localizada na base de dados da REDEMET
2020070705 - Mensagem METAR de 'SBRJ' para 07/07/2020 as 05(UTC) não localizada na base de dados da REDEMET
2020070706 - Mensagem METAR de 'SBRJ' para 07/07/2020 as 06(UTC) não localizada na base de dados da REDEMET
2020070707 - Mensagem METAR de 'SBRJ' para 07/07/2020 as 07(UTC) não localizada na base de dados da REDEMET
2020070708 - Mensagem METAR de 'SBRJ' para 07/07/2020 as 08(UTC) não localizada na base de dados da REDEMET
2020070708 - SPECI SBRJ 070850Z 36005KT 4000 BR BKN010 21/20 Q1017=
2020070709 - SABZ23 SBRJ 070900
2020070709 - METAR SBRJ 070900Z 01005KT 4000 BR BKN010 21/19 Q1017=
2020070709 - SPECI SBRJ 070915Z 36005KT 5000 BR BKN010 21/19 Q1017=
2020070710 - SABZ23 SBRJ 071000
2020070710 - METAR SBRJ 071000Z 02005KT 5000 BR BKN010 BKN015 21/19 Q1018=
2020070711 - SABZ23 SBRJ 071100
2020070711 - METAR SBRJ 071100Z 03004KT 5000 BR BKN010 BKN020 21/19 Q1018=
2020070712 - SABZ23 SBRJ 071200
2020070712 - METAR SBRJ 071200Z 34003KT 310V010 5000 BR FEW020 22/19 Q1018=
2020070713 - SABZ23 SBRJ 071300
2020070713 - METAR SBRJ 071300Z 35004KT 5000 BR FEW020 23/19 Q1018=
2020070714 - SABZ23 SBRJ 071400
2020070714 - METAR SBRJ 071400Z 34004KT 5000 HZ FEW012 24/20 Q1017=
2020070715 - SABZ23 SBRJ 071500
2020070715 - METAR SBRJ 071500Z 02003KT 350V050 5000 HZ NSC 25/19 Q1016=
2020070715 - SPECI SBRJ 071525Z 13003KT 6000 NSC 25/19 Q1015=
2020070716 - SABZ23 SBRJ 071600
2020070716 - METAR SBRJ 071600Z 14005KT 6000 NSC 24/20 Q1015=
2020070717 - SABZ23 SBRJ 071700
2020070717 - METAR SBRJ 071700Z 15009KT 9000 NSC 24/20 Q1014=
2020070718 - SABZ23 SBRJ 071800
2020070718 - METAR SBRJ 071800Z 16005KT CAVOK 24/20 Q1013=
2020070719 - SABZ23 SBRJ 071900
2020070719 - METAR SBRJ 071900Z 16009KT CAVOK 24/21 Q1012=
2020070720 - SABZ23 SBRJ 072000
2020070720 - METAR SBRJ 072000Z 17009KT CAVOK 23/20 Q1012=
2020070721 - SABZ23 SBRJ 072100
2020070721 - METAR SBRJ 072100Z 19012KT CAVOK 23/21 Q1013=
2020070722 - SABZ23 SBRJ 072200
2020070722 - METAR SBRJ 072200Z 18009KT CAVOK 22/21 Q1013=
2020070723 - SABZ23 SBRJ 072300
2020070723 - METAR SBRJ 072300Z 15003KT CAVOK 22/21 Q1013=
2020070800 - SABZ23 SBRJ 080000
2020070800 - METAR SBRJ 080000Z VRB02KT CAVOK 22/21 Q1013=
2020070801 - SABZ23 SBRJ 080100
2020070801 - METAR SBRJ 080100Z 11002KT CAVOK 22/21 Q1013=
2020070802 - SABZ23 SBRJ 080200
2020070802 - METAR SBRJ 080200Z VRB02KT CAVOK 22/21 Q1013=
2020070803 - Mensagem METAR de 'SBRJ' para 08/07/2020 as 03(UTC) não localizada na base de dados da REDEMET
2020070804 - Mensagem METAR de 'SBRJ' para 08/07/2020 as 04(UTC) não localizada na base de dados da REDEMET
2020070805 - Mensagem METAR de 'SBRJ' para 08/07/2020 as 05(UTC) não localizada na base de dados da REDEMET
2020070806 - Mensagem METAR de 'SBRJ' para 08/07/2020 as 06(UTC) não localizada na base de dados da REDEMET
2020070807 - Mensagem METAR de 'SBRJ' para 08/07/2020 as 07(UTC) não localizada na base de dados da REDEMET
2020070808 - Mensagem METAR de 'SBRJ' para 08/07/2020 as 08(UTC) não localizada na base de dados da REDEMET
2020070808 - SPECI SBRJ 080850Z 34005KT CAVOK 21/20 Q1012=
2020070809 - SABZ23 SBRJ 080900
2020070809 - METAR SBRJ 080900Z 33004KT CAVOK 21/20 Q1012=
2020070810 - SABZ23 SBRJ 081000
2020070810 - METAR SBRJ 081000Z 35006KT CAVOK 21/19 Q1012=
2020070811 - SABZ23 SBRJ 081100
2020070811 - METAR SBRJ 081100Z 01003KT CAVOK 22/18 Q1012=
2020070812 - SABZ23 SBRJ 081200
2020070812 - METAR SBRJ 081200Z 36006KT CAVOK 24/19 Q1013=
2020070813 - SABZ23 SBRJ 081300
2020070813 - METAR SBRJ 081300Z 02006KT CAVOK 25/18 Q1013=
2020070814 - SABZ23 SBRJ 081400
2020070814 - METAR SBRJ 081400Z 01009KT CAVOK 27/18 Q1012=
2020070815 - SABZ23 SBRJ 081500
2020070815 - METAR SBRJ 081500Z 34011KT CAVOK 30/14 Q1011=
2020070816 - SABZ23 SBRJ 081600
2020070816 - METAR SBRJ 081600Z 34009KT CAVOK 30/15 Q1010=
2020070817 - SABZ23 SBRJ 081700
2020070817 - METAR SBRJ 081700Z 02005KT CAVOK 29/18 Q1010=
2020070818 - SABZ23 SBRJ 081800
2020070818 - METAR SBRJ 081800Z 05006KT CAVOK 28/17 Q1010=
2020070819 - SABZ23 SBRJ 081900
2020070819 - METAR SBRJ 081900Z 17006KT 040V190 CAVOK 28/17 Q1010=
2020070820 - SABZ23 SBRJ 082000
2020070820 - METAR SBRJ 082000Z 21009KT CAVOK 28/16 Q1010=
2020070821 - SABZ23 SBRJ 082100
2020070821 - METAR SBRJ 082100Z 19009KT CAVOK 25/18 Q1011=
2020070822 - SABZ23 SBRJ 082200
2020070822 - METAR SBRJ 082200Z 18008KT CAVOK 23/18 Q1011=
2020070823 - SABZ23 SBRJ 082300
2020070823 - METAR SBRJ 082300Z 19006KT CAVOK 24/16 Q1011=
2020070900 - SABZ23 SBRJ 090000
2020070900 - METAR SBRJ 090000Z 13004KT 090V160 CAVOK 23/19 Q1012=
2020070901 - SABZ23 SBRJ 090100
2020070901 - METAR SBRJ 090100Z VRB01KT CAVOK 24/16 Q1012=
2020070901 - SPECI SBRJ 090120Z 34004KT CAVOK 24/17 Q1012=
2020070902 - SABZ23 SBRJ 090200
2020070902 - METAR SBRJ 090200Z 32005KT CAVOK 24/18 Q1012=
2020070903 - Mensagem METAR de 'SBRJ' para 09/07/2020 as 03(UTC) não localizada na base de dados da REDEMET
2020070904 - Mensagem METAR de 'SBRJ' para 09/07/2020 as 04(UTC) não localizada na base de dados da REDEMET
2020070905 - Mensagem METAR de 'SBRJ' para 09/07/2020 as 05(UTC) não localizada na base de dados da REDEMET
2020070906 - Mensagem METAR de 'SBRJ' para 09/07/2020 as 06(UTC) não localizada na base de dados da REDEMET
2020070907 - Mensagem METAR de 'SBRJ' para 09/07/2020 as 07(UTC) não localizada na base de dados da REDEMET
2020070908 - Mensagem METAR de 'SBRJ' para 09/07/2020 as 08(UTC) não localizada na base de dados da REDEMET
2020070908 - SPECI SBRJ 090850Z 32006KT CAVOK 21/18 Q1013=
2020070909 - SABZ23 SBRJ 090900
2020070909 - METAR SBRJ 090900Z 32006KT CAVOK 21/18 Q1013=
2020070910 - SABZ23 SBRJ 091000
2020070910 - METAR SBRJ 091000Z 34009KT CAVOK 21/18 Q1014=
2020070911 - SABZ23 SBRJ 091100
2020070911 - METAR SBRJ 091100Z 06007KT CAVOK 23/18 Q1015=
2020070912 - SABZ23 SBRJ 091200
2020070912 - METAR SBRJ 091200Z 04010KT CAVOK 24/19 Q1016 WS R02=
2020070913 - SABZ23 SBRJ 091300
2020070913 - METAR SBRJ 091300Z 06007KT CAVOK 26/20 Q1017=
2020070913 - SPECI SBRJ 091340Z 19011KT 150V210 CAVOK 27/18 Q1018=
2020070914 - SABZ23 SBRJ 091400
2020070914 - METAR SBRJ 091400Z 19010KT 9999 FEW030 SCT100 26/17 Q1018=
2020070915 - SABZ23 SBRJ 091500
2020070915 - METAR SBRJ 091500Z 19013KT 9999 FEW030 SCT100 26/19 Q1018=
2020070916 - SABZ23 SBRJ 091600
2020070916 - METAR SBRJ 091600Z 20018KT 9999 SCT015 SCT090 25/19 Q1018=
2020070917 - SABZ23 SBRJ 091700
2020070917 - METAR SBRJ 091700Z 20017KT 9999 FEW015 BKN035 BKN090 24/18 Q1018=