
2020050100 - SABZ23 SBRJ 010000
2020050100 - METAR SBRJ 010000Z 15003KT CAVOK 26/18 Q1016=
2020050101 - SABZ23 SBRJ 010100
2020050101 - METAR SBRJ 010100Z 01003KT CAVOK 25/22 Q1016=
2020050102 - SABZ23 SBRJ 010200
2020050102 - METAR SBRJ 010200Z 36005KT CAVOK 25/21 Q1016=
2020050103 - Mensagem METAR de 'SBRJ' para 01/05/2020 as 03(UTC) não localizada na base de dados da REDEMET
2020050104 - Mensagem METAR de 'SBRJ' para 01/05/2020 as 04(UTC) não localizada na base de dados da REDEMET
2020050105 - Mensagem METAR de 'SBRJ' para 01/05/2020 as 05(UTC) não localizada na base de dados da REDEMET
2020050106 - Mensagem METAR de 'SBRJ' para 01/05/2020 as 06(UTC) não localizada na base de dados da REDEMET
2020050107 - Mensagem METAR de 'SBRJ' para 01/05/2020 as 07(UTC) não localizada na base de dados da REDEMET
2020050108 - Mensagem METAR de 'SBRJ' para 01/05/2020 as 08(UTC) não localizada na base de dados da REDEMET
2020050108 - SPECI SBRJ 010850Z 36004KT CAVOK 22/19 Q1016=
2020050109 - SABZ23 SBRJ 010900
2020050109 - METAR SBRJ 010900Z 36003KT CAVOK 22/20 Q1016=
2020050110 - SABZ23 SBRJ 011000
2020050110 - METAR SBRJ 011000Z 02003KT CAVOK 23/19 Q1017=
2020050111 - SABZ23 SBRJ 011100
2020050111 - METAR SBRJ 011100Z 04003KT CAVOK 23/19 Q1018=
2020050112 - SABZ23 SBRJ 011200
2020050112 - METAR SBRJ 011200Z 01004KT 8000 NSC 24/20 Q1018=
2020050113 - SABZ23 SBRJ 011300
2020050113 - METAR SBRJ 011300Z 01005KT 7000 FEW025 25/20 Q1019=
2020050114 - SABZ23 SBRJ 011400
2020050114 - METAR SBRJ 011400Z 02006KT 7000 FEW025 26/19 Q1018=
2020050115 - SABZ23 SBRJ 011500
2020050115 - METAR SBRJ 011500Z 03005KT 9999 SCT025 27/20 Q1017=
2020050116 - SABZ23 SBRJ 011600
2020050116 - METAR SBRJ 011600Z 12006KT 9999 SCT025 28/21 Q1017=
2020050117 - SABZ23 SBRJ 011700
2020050117 - METAR SBRJ 011700Z 18012KT 9999 FEW018 SCT030 27/21 Q1016=
2020050118 - SABZ23 SBRJ 011800
2020050118 - METAR SBRJ 011800Z 17012KT 9999 FEW018 SCT030 27/22 Q1016=
2020050119 - SABZ23 SBRJ 011900
2020050119 - METAR SBRJ 011900Z 18014KT 9999 FEW018 26/22 Q1016=
2020050120 - SABZ23 SBRJ 012000
2020050120 - METAR SBRJ 012000Z 19016KT 9999 FEW015 25/22 Q1016=
2020050121 - SABZ23 SBRJ 012100
2020050121 - METAR SBRJ 012100Z 17011KT 9999 FEW015 24/21 Q1017=
2020050122 - SABZ23 SBRJ 012200
2020050122 - METAR SBRJ 012200Z 17008KT 9999 FEW040 24/20 Q1017=
2020050123 - SABZ23 SBRJ 012300
2020050123 - METAR SBRJ 012300Z 15005KT 9999 SCT040 24/21 Q1017=
2020050200 - SABZ23 SBRJ 020000
2020050200 - METAR SBRJ 020000Z 17002KT 9999 SCT040 24/21 Q1017=
2020050201 - SABZ23 SBRJ 020100
2020050201 - METAR SBRJ 020100Z 15005KT CAVOK 24/21 Q1017=
2020050202 - SABZ23 SBRJ 020200
2020050202 - METAR SBRJ 020200Z 17004KT CAVOK 23/20 Q1017=
2020050203 - Mensagem METAR de 'SBRJ' para 02/05/2020 as 03(UTC) não localizada na base de dados da REDEMET
2020050204 - Mensagem METAR de 'SBRJ' para 02/05/2020 as 04(UTC) não localizada na base de dados da REDEMET
2020050205 - Mensagem METAR de 'SBRJ' para 02/05/2020 as 05(UTC) não localizada na base de dados da REDEMET
2020050206 - Mensagem METAR de 'SBRJ' para 02/05/2020 as 06(UTC) não localizada na base de dados da REDEMET
2020050207 - Mensagem METAR de 'SBRJ' para 02/05/2020 as 07(UTC) não localizada na base de dados da REDEMET
2020050208 - Mensagem METAR de 'SBRJ' para 02/05/2020 as 08(UTC) não localizada na base de dados da REDEMET
2020050208 - SPECI SBRJ 020850Z 01007KT 6000 BKN010 22/21 Q1014=
2020050209 - SABZ23 SBRJ 020900
2020050209 - METAR SBRJ 020900Z 01006KT 5000 BR FEW007 BKN010 22/21 Q1015=
2020050210 - SABZ23 SBRJ 021000
2020050210 - METAR SBRJ 021000Z 35005KT 5000 BR FEW007 BKN010 22/21 Q1014=
2020050211 - SABZ23 SBRJ 021100
2020050211 - METAR SBRJ 021100Z 35004KT 7000 FEW010 BKN018 23/21 Q1014=
2020050212 - SABZ23 SBRJ 021200
2020050212 - METAR SBRJ 021200Z 02003KT 7000 FEW020 24/21 Q1014=
2020050213 - SABZ23 SBRJ 021300
2020050213 - METAR SBRJ 021300Z 03003KT 7000 FEW020 25/21 Q1014=
2020050214 - SABZ23 SBRJ 021400
2020050214 - METAR SBRJ 021400Z 13005KT 7000 FEW020 26/22 Q1014=
2020050214 - SPECI SBRJ 021430Z 17015KT 7000 FEW020 26/21 Q1014=
2020050215 - SABZ23 SBRJ 021500
2020050215 - METAR SBRJ 021500Z 17016KT 9000 FEW012 26/21 Q1014=
2020050216 - SABZ23 SBRJ 021600
2020050216 - METAR SBRJ 021600Z 17014KT 9999 FEW012 26/21 Q1013=
2020050217 - SABZ23 SBRJ 021700
2020050217 - METAR SBRJ 021700Z 16014KT 9999 FEW012 26/22 Q1012=
2020050218 - SABZ23 SBRJ 021800
2020050218 - METAR SBRJ 021800Z 16011KT 9999 FEW012 25/21 Q1012=
2020050219 - SABZ23 SBRJ 021900
2020050219 - METAR SBRJ 021900Z 15008KT 9999 FEW012 BKN040 25/21 Q1012=
2020050220 - SABZ23 SBRJ 022000
2020050220 - METAR SBRJ 022000Z 18010KT 9000 FEW012 BKN050 25/21 Q1013=
2020050221 - SABZ23 SBRJ 022100
2020050221 - METAR SBRJ 022100Z 17012KT 9999 -RA SCT015 BKN045 24/21 Q1013=
2020050221 - SPECI SBRJ 022138Z 19008KT 7000 -RA VCTS BKN015 FEW030CB OVC040 24/21 Q1014=
2020050222 - SABZ23 SBRJ 022200
2020050222 - METAR SBRJ 022200Z 18017KT 6000 -RA VCTS BKN010 FEW030CB OVC040 22/20 Q1015=
2020050222 - SPECI SBRJ 022215Z 19015KT 5000 RA VCTS BR BKN009 FEW030CB OVC040 22/21 Q1015=
2020050223 - SABZ23 SBRJ 022300
2020050223 - METAR SBRJ 022300Z 16012KT 6000 -RA VCTS BKN010 FEW030CB OVC040 22/20 Q1015 RERA=
2020050223 - SPECI SBRJ 022320Z 16013KT 5000 -TSRA BR BKN010 FEW030CB OVC040 22/20 Q1015=
2020050300 - SABZ23 SBRJ 030000
2020050300 - METAR SBRJ 030000Z 19013KT 6000 -TSRA BKN010 FEW030CB OVC040 22/20 Q1016=
2020050300 - SPECI SBRJ 030035Z 18008KT 8000 -RA VCTS SCT012 FEW030CB BKN050 21/19 Q1016 RETS=
2020050301 - SABZ23 SBRJ 030100
2020050301 - METAR SBRJ 030100Z 16006KT 9999 -RA SCT015 BKN050 21/19 Q1016 RETS=
2020050302 - SABZ23 SBRJ 030200
2020050302 - METAR SBRJ 030200Z 23002KT 8000 -RA BKN015 BKN050 22/20 Q1016=
2020050303 - Mensagem METAR de 'SBRJ' para 03/05/2020 as 03(UTC) não localizada na base de dados da REDEMET
2020050304 - Mensagem METAR de 'SBRJ' para 03/05/2020 as 04(UTC) não localizada na base de dados da REDEMET
2020050305 - Mensagem METAR de 'SBRJ' para 03/05/2020 as 05(UTC) não localizada na base de dados da REDEMET
2020050306 - Mensagem METAR de 'SBRJ' para 03/05/2020 as 06(UTC) não localizada na base de dados da REDEMET
2020050307 - Mensagem METAR de 'SBRJ' para 03/05/2020 as 07(UTC) não localizada na base de dados da REDEMET
2020050308 - Mensagem METAR de 'SBRJ' para 03/05/2020 as 08(UTC) não localizada na base de dados da REDEMET
2020050308 - SPECI SBRJ 030850Z 32006KT 9999 FEW020 BKN040 21/19 Q1016=
2020050309 - SABZ23 SBRJ 030900
2020050309 - METAR SBRJ 030900Z 31007KT 9999 FEW020 BKN045 21/19 Q1017=
2020050310 - SABZ23 SBRJ 031000
2020050310 - METAR SBRJ 031000Z 31006KT 9999 FEW020 SCT050 BKN080 22/19 Q1017=
2020050311 - SABZ23 SBRJ 031100
2020050311 - METAR SBRJ 031100Z 32008KT 9999 FEW020 SCT050 BKN080 22/19 Q1018=
2020050312 - SABZ23 SBRJ 031200
2020050312 - METAR SBRJ 031200Z 32006KT 9999 FEW020 BKN060 22/19 Q1018=
2020050313 - SABZ23 SBRJ 031300
2020050313 - METAR SBRJ 031300Z 22008KT 190V270 9999 BKN020 BKN040 23/17 Q1019=
2020050314 - SABZ23 SBRJ 031400
2020050314 - METAR SBRJ 031400Z 28006KT 250V320 9999 BKN030 22/16 Q1018=
2020050315 - SABZ23 SBRJ 031500
2020050315 - METAR SBRJ 031500Z 31006KT 9999 SCT025 BKN050 21/18 Q1018=
2020050315 - SPECI SBRJ 031530Z 21004KT 9999 SCT025 BKN060 22/17 Q1018=
2020050316 - SABZ23 SBRJ 031600
2020050316 - METAR SBRJ 031600Z 25004KT 9999 SCT025 BKN050 22/18 Q1018=
2020050317 - SABZ23 SBRJ 031700
2020050317 - METAR SBRJ 031700Z 20010KT 8000 -RA BKN025 BKN050 21/17 Q1017=
2020050318 - SABZ23 SBRJ 031800
2020050318 - METAR SBRJ 031800Z 25002KT 9999 SCT025 BKN050 23/16 Q1017=
2020050318 - SPECI SBRJ 031825Z 32004KT 9999 -RA SCT025 BKN050 23/17 Q1017=
2020050319 - SABZ23 SBRJ 031900
2020050319 - METAR SBRJ 031900Z 00000KT 9999 SCT025 BKN050 23/16 Q1017=
2020050320 - SABZ23 SBRJ 032000
2020050320 - METAR SBRJ 032000Z 19003KT 9999 SCT025 SCT050 22/16 Q1017=
2020050321 - SABZ23 SBRJ 032100
2020050321 - METAR SBRJ 032100Z 25003KT 9999 FEW025 21/17 Q1018=
2020050322 - SABZ23 SBRJ 032200
2020050322 - METAR SBRJ 032200Z 00000KT 9999 FEW025 21/17 Q1018=
2020050323 - SABZ23 SBRJ 032300
2020050323 - METAR SBRJ 032300Z 28003KT 9999 FEW025 21/17 Q1018=
2020050400 - SABZ23 SBRJ 040000
2020050400 - METAR SBRJ 040000Z 29005KT 9999 FEW020 SCT040 21/17 Q1019=
2020050401 - SABZ23 SBRJ 040100
2020050401 - METAR SBRJ 040100Z 31004KT 9999 FEW020 BKN035 21/18 Q1019=
2020050402 - SABZ23 SBRJ 040200
2020050402 - METAR SBRJ 040200Z 33005KT 9999 FEW030 21/18 Q1018=
2020050403 - Mensagem METAR de 'SBRJ' para 04/05/2020 as 03(UTC) não localizada na base de dados da REDEMET
2020050404 - Mensagem METAR de 'SBRJ' para 04/05/2020 as 04(UTC) não localizada na base de dados da REDEMET
2020050405 - Mensagem METAR de 'SBRJ' para 04/05/2020 as 05(UTC) não localizada na base de dados da REDEMET
2020050406 - Mensagem METAR de 'SBRJ' para 04/05/2020 as 06(UTC) não localizada na base de dados da REDEMET
2020050407 - Mensagem METAR de 'SBRJ' para 04/05/2020 as 07(UTC) não localizada na base de dados da REDEMET
2020050408 - Mensagem METAR de 'SBRJ' para 04/05/2020 as 08(UTC) não localizada na base de dados da REDEMET
2020050408 - SPECI SBRJ 040850Z 01005KT 9999 SCT025 19/17 Q1017=
2020050409 - SABZ23 SBRJ 040900
2020050409 - METAR SBRJ 040900Z 01005KT 9999 SCT025 19/17 Q1017=
2020050410 - SABZ23 SBRJ 041000
2020050410 - METAR SBRJ 041000Z 02006KT 9999 FEW010 19/17 Q1017=
2020050411 - SABZ23 SBRJ 041100
2020050411 - METAR SBRJ 041100Z 02006KT 9999 FEW015 20/17 Q1018=
2020050412 - SABZ23 SBRJ 041200
2020050412 - METAR SBRJ 041200Z 35005KT 9999 FEW018 21/17 Q1018=
2020050413 - SABZ23 SBRJ 041300
2020050413 - METAR SBRJ 041300Z 35006KT 9999 FEW020 22/18 Q1019=
2020050414 - SABZ23 SBRJ 041400
2020050414 - METAR SBRJ 041400Z 35005KT 9999 FEW025 23/18 Q1018=
2020050415 - SABZ23 SBRJ 041500
2020050415 - METAR SBRJ 041500Z 03003KT 9999 FEW025 24/17 Q1017=
2020050416 - SABZ23 SBRJ 041600
2020050416 - METAR SBRJ 041600Z 14005KT 9999 FEW025 SCT070 25/15 Q1016=
2020050417 - SABZ23 SBRJ 041700
2020050417 - METAR SBRJ 041700Z 16008KT 9999 FEW025 BKN070 24/16 Q1015=
2020050418 - SABZ23 SBRJ 041800
2020050418 - METAR SBRJ 041800Z 14008KT 9999 FEW020 SCT070 24/16 Q1015=
2020050419 - SABZ23 SBRJ 041900
2020050419 - METAR SBRJ 041900Z 16010KT 9999 FEW020 24/17 Q1014=
2020050420 - SABZ23 SBRJ 042000
2020050420 - METAR SBRJ 042000Z 15008KT 9999 FEW020 23/17 Q1014=
2020050421 - SABZ23 SBRJ 042100
2020050421 - METAR SBRJ 042100Z 13008KT CAVOK 23/18 Q1015=
2020050422 - SABZ23 SBRJ 042200
2020050422 - METAR SBRJ 042200Z 11005KT CAVOK 22/18 Q1015=
2020050423 - SABZ23 SBRJ 042300
2020050423 - METAR SBRJ 042300Z 08003KT CAVOK 22/18 Q1015=
2020050500 - SABZ23 SBRJ 050000
2020050500 - METAR SBRJ 050000Z 13004KT CAVOK 22/17 Q1015=
2020050501 - SABZ23 SBRJ 050100
2020050501 - METAR SBRJ 050100Z 12003KT CAVOK 22/16 Q1015=
2020050502 - SABZ23 SBRJ 050200
2020050502 - METAR SBRJ 050200Z 10004KT CAVOK 21/17 Q1015=
2020050503 - Mensagem METAR de 'SBRJ' para 05/05/2020 as 03(UTC) não localizada na base de dados da REDEMET
2020050504 - Mensagem METAR de 'SBRJ' para 05/05/2020 as 04(UTC) não localizada na base de dados da REDEMET
2020050505 - Mensagem METAR de 'SBRJ' para 05/05/2020 as 05(UTC) não localizada na base de dados da REDEMET
2020050506 - Mensagem METAR de 'SBRJ' para 05/05/2020 as 06(UTC) não localizada na base de dados da REDEMET
2020050507 - Mensagem METAR de 'SBRJ' para 05/05/2020 as 07(UTC) não localizada na base de dados da REDEMET
2020050508 - Mensagem METAR de 'SBRJ' para 05/05/2020 as 08(UTC) não localizada na base de dados da REDEMET
2020050508 - SPECI SBRJ 050850Z 03003KT CAVOK 20/17 Q1013=
2020050509 - SABZ23 SBRJ 050900
2020050509 - METAR SBRJ 050900Z 04003KT CAVOK 20/17 Q1013=
2020050510 - SABZ23 SBRJ 051000
2020050510 - METAR SBRJ 051000Z 02006KT CAVOK 20/17 Q1014=
2020050511 - SABZ23 SBRJ 051100
2020050511 - METAR SBRJ 051100Z 04003KT CAVOK 21/17 Q1014=
2020050512 - SABZ23 SBRJ 051200
2020050512 - METAR SBRJ 051200Z 36005KT CAVOK 21/18 Q1014=
2020050513 - SABZ23 SBRJ 051300
2020050513 - METAR SBRJ 051300Z 34005KT CAVOK 23/18 Q1014=
2020050514 - SABZ23 SBRJ 051400
2020050514 - METAR SBRJ 051400Z 36006KT CAVOK 24/19 Q1013=
2020050515 - SABZ23 SBRJ 051500
2020050515 - METAR SBRJ 051500Z 36005KT CAVOK 25/18 Q1012=
2020050516 - SABZ23 SBRJ 051600
2020050516 - METAR SBRJ 051600Z 02004KT CAVOK 26/18 Q1011=
2020050517 - SABZ23 SBRJ 051700
2020050517 - METAR SBRJ 051700Z 02004KT CAVOK 27/19 Q1010=
2020050518 - SABZ23 SBRJ 051800
2020050518 - METAR SBRJ 051800Z 03008KT CAVOK 27/20 Q1009=
2020050518 - SPECI SBRJ 051845Z 17005KT CAVOK 27/21 Q1010=
2020050519 - SABZ23 SBRJ 051900
2020050519 - METAR SBRJ 051900Z 17007KT CAVOK 26/20 Q1010=
2020050520 - SABZ23 SBRJ 052000
2020050520 - METAR SBRJ 052000Z 18008KT CAVOK 26/20 Q1010=
2020050521 - SABZ23 SBRJ 052100
2020050521 - METAR SBRJ 052100Z 19006KT CAVOK 25/20 Q1010=
2020050522 - SABZ23 SBRJ 052200
2020050522 - METAR SBRJ 052200Z 19005KT CAVOK 25/20 Q1011=
2020050523 - SABZ23 SBRJ 052300
2020050523 - METAR SBRJ 052300Z 12001KT CAVOK 25/22 Q1011=
2020050600 - SABZ23 SBRJ 060000
2020050600 - METAR SBRJ 060000Z 02003KT CAVOK 24/21 Q1012=
2020050601 - SABZ23 SBRJ 060100
2020050601 - METAR SBRJ 060100Z 33004KT CAVOK 24/21 Q1012=
2020050602 - SABZ23 SBRJ 060200
2020050602 - METAR SBRJ 060200Z 02003KT CAVOK 24/22 Q1012=
2020050603 - Mensagem METAR de 'SBRJ' para 06/05/2020 as 03(UTC) não localizada na base de dados da REDEMET
2020050604 - Mensagem METAR de 'SBRJ' para 06/05/2020 as 04(UTC) não localizada na base de dados da REDEMET
2020050605 - Mensagem METAR de 'SBRJ' para 06/05/2020 as 05(UTC) não localizada na base de dados da REDEMET
2020050606 - Mensagem METAR de 'SBRJ' para 06/05/2020 as 06(UTC) não localizada na base de dados da REDEMET
2020050607 - Mensagem METAR de 'SBRJ' para 06/05/2020 as 07(UTC) não localizada na base de dados da REDEMET
2020050608 - Mensagem METAR de 'SBRJ' para 06/05/2020 as 08(UTC) não localizada na base de dados da REDEMET
2020050608 - SPECI SBRJ 060850Z 30003KT 7000 NSC 23/21 Q1011=
2020050609 - SABZ23 SBRJ 060900
2020050609 - METAR SBRJ 060900Z 31002KT 6000 NSC 23/21 Q1011=
2020050610 - SABZ23 SBRJ 061000
2020050610 - METAR SBRJ 061000Z 05004KT 6000 NSC 23/21 Q1012=
2020050611 - SABZ23 SBRJ 061100
2020050611 - METAR SBRJ 061100Z 02004KT 7000 FEW035 SCT100 23/22 Q1013=
2020050612 - SABZ23 SBRJ 061200
2020050612 - METAR SBRJ 061200Z 35007KT 9000 FEW035 SCT100 23/21 Q1013=
2020050613 - SABZ23 SBRJ 061300
2020050613 - METAR SBRJ 061300Z 03007KT CAVOK 24/21 Q1013=
2020050614 - SABZ23 SBRJ 061400
2020050614 - METAR SBRJ 061400Z 01008KT CAVOK 26/22 Q1012=
2020050615 - SABZ23 SBRJ 061500
2020050615 - METAR SBRJ 061500Z 02007KT CAVOK 25/21 Q1011=
2020050616 - SABZ23 SBRJ 061600
2020050616 - METAR SBRJ 061600Z 35004KT CAVOK 26/20 Q1010=
2020050617 - SABZ23 SBRJ 061700
2020050617 - METAR SBRJ 061700Z 02001KT CAVOK 27/19 Q1009=
2020050618 - SABZ23 SBRJ 061800
2020050618 - METAR SBRJ 061800Z 15005KT CAVOK 28/20 Q1009=
2020050619 - SABZ23 SBRJ 061900
2020050619 - METAR SBRJ 061900Z 15008KT CAVOK 27/21 Q1009=
2020050620 - SABZ23 SBRJ 062000
2020050620 - METAR SBRJ 062000Z 16009KT CAVOK 26/20 Q1009=
2020050621 - SABZ23 SBRJ 062100
2020050621 - METAR SBRJ 062100Z 20013KT 9999 FEW030 BKN100 27/19 Q1010=
2020050622 - SABZ23 SBRJ 062200
2020050622 - METAR SBRJ 062200Z 23011KT 170V290 9999 FEW030 BKN100 26/18 Q1011=
2020050623 - SABZ23 SBRJ 062300
2020050623 - METAR SBRJ 062300Z 23008KT 180V290 9999 FEW030 SCT060 BKN100 26/20 Q1012=
2020050700 - SABZ23 SBRJ 070000
2020050700 - METAR SBRJ 070000Z 22007KT 130V260 9999 SCT030 BKN100 25/19 Q1013=
2020050701 - SABZ23 SBRJ 070100
2020050701 - METAR SBRJ 070100Z 20006KT 180V270 9999 SCT023 BKN100 25/19 Q1013=
2020050702 - SABZ23 SBRJ 070200
2020050702 - METAR SBRJ 070200Z 21008G18KT 170V230 9999 BKN017 BKN060 24/20 Q1013=
2020050703 - Mensagem METAR de 'SBRJ' para 07/05/2020 as 03(UTC) não localizada na base de dados da REDEMET
2020050704 - Mensagem METAR de 'SBRJ' para 07/05/2020 as 04(UTC) não localizada na base de dados da REDEMET
2020050705 - Mensagem METAR de 'SBRJ' para 07/05/2020 as 05(UTC) não localizada na base de dados da REDEMET
2020050706 - Mensagem METAR de 'SBRJ' para 07/05/2020 as 06(UTC) não localizada na base de dados da REDEMET
2020050707 - Mensagem METAR de 'SBRJ' para 07/05/2020 as 07(UTC) não localizada na base de dados da REDEMET
2020050708 - Mensagem METAR de 'SBRJ' para 07/05/2020 as 08(UTC) não localizada na base de dados da REDEMET
2020050708 - SPECI SBRJ 070850Z 30003KT 5000 -RA BR BKN010 BKN020 OVC080 19/17 Q1016=
2020050709 - SABZ23 SBRJ 070900
2020050709 - METAR SBRJ 070900Z 21003KT 5000 -RA BR BKN010 BKN020 OVC080 20/17 Q1016=
2020050709 - SPECI SBRJ 070920Z 32009KT 5000 -RA BR BKN010 BKN020 OVC080 19/17 Q1016=
2020050710 - SABZ23 SBRJ 071000
2020050710 - METAR SBRJ 071000Z 26004KT 3000 -RA BR BKN007 BKN010 OVC070 19/18 Q1017=
2020050710 - SPECI SBRJ 071020Z 18002KT 5000 -RA BR SCT007 BKN010 OVC070 19/18 Q1017=
2020050711 - SABZ23 SBRJ 071100
2020050711 - METAR SBRJ 071100Z 34003KT 5000 -RA BR BKN010 BKN020 OVC070 19/18 Q1018=
2020050712 - SABZ23 SBRJ 071200
2020050712 - METAR SBRJ 071200Z 28005KT 8000 -RA BKN010 BKN020 OVC070 20/16 Q1018=
2020050713 - SABZ23 SBRJ 071300
2020050713 - METAR SBRJ 071300Z 30006KT 5000 -RA BR BKN010 BKN020 OVC070 19/17 Q1019=
2020050714 - SABZ23 SBRJ 071400
2020050714 - METAR SBRJ 071400Z 31008KT 6000 BKN010 BKN020 OVC070 20/17 Q1019=
2020050714 - SPECI SBRJ 071415Z 31008KT 7000 SCT010 BKN020 OVC070 20/18 Q1019=
2020050715 - SABZ23 SBRJ 071500
2020050715 - METAR SBRJ 071500Z 29007KT 260V320 8000 SCT015 BKN025 OVC050 20/17 Q1018=
2020050716 - SABZ23 SBRJ 071600
2020050716 - METAR SBRJ 071600Z 30005KT 250V320 9000 SCT015 BKN030 OVC080 20/17 Q1018=
2020050717 - SABZ23 SBRJ 071700
2020050717 - METAR SBRJ 071700Z 32009KT 9999 SCT015 BKN025 OVC070 20/17 Q1018=
2020050717 - SPECI SBRJ 071750Z 18012KT 9000 4000S -RA BKN012 OVC030 20/17 Q1018=
2020050718 - SABZ23 SBRJ 071800
2020050718 - METAR SBRJ 071800Z 19014KT 4000 -RA BR BKN012 OVC025 19/17 Q1018=
2020050718 - SPECI SBRJ 071830Z 28005KT 230V330 9000 FEW012 BKN025 OVC035 20/16 Q1018=
2020050719 - SABZ23 SBRJ 071900
2020050719 - METAR SBRJ 071900Z 00000KT 9999 FEW020 BKN030 BKN060 20/17 Q1018=
2020050720 - SABZ23 SBRJ 072000
2020050720 - METAR SBRJ 072000Z 31008KT 9999 FEW015 BKN035 BKN070 20/17 Q1018=
2020050721 - SABZ23 SBRJ 072100
2020050721 - METAR SBRJ 072100Z 29007KT 9999 FEW020 BKN040 BKN070 20/17 Q1019=
2020050722 - SABZ23 SBRJ 072200
2020050722 - METAR SBRJ 072200Z 30003KT 9999 SCT020 BKN040 BKN070 20/17 Q1019=
2020050722 - SPECI SBRJ 072240Z 20003KT 6000 RA BKN013 OVC040 20/17 Q1020=
2020050723 - SABZ23 SBRJ 072300
2020050723 - METAR SBRJ 072300Z 32003KT 8000 -RA FEW013 SCT020 OVC040 19/17 Q1020 RERA=
2020050800 - SABZ23 SBRJ 080000
2020050800 - METAR SBRJ 080000Z 32007KT 9000 -RA SCT020 OVC040 20/17 Q1021=
2020050801 - SABZ23 SBRJ 080100
2020050801 - METAR SBRJ 080100Z 30006KT 9999 SCT025 OVC050 20/17 Q1021=
2020050802 - SABZ23 SBRJ 080200
2020050802 - METAR SBRJ 080200Z 30006KT 9999 FEW025 BKN040 BKN090 19/17 Q1021=
2020050803 - Mensagem METAR de 'SBRJ' para 08/05/2020 as 03(UTC) não localizada na base de dados da REDEMET
2020050804 - Mensagem METAR de 'SBRJ' para 08/05/2020 as 04(UTC) não localizada na base de dados da REDEMET
2020050805 - Mensagem METAR de 'SBRJ' para 08/05/2020 as 05(UTC) não localizada na base de dados da REDEMET
2020050806 - Mensagem METAR de 'SBRJ' para 08/05/2020 as 06(UTC) não localizada na base de dados da REDEMET
2020050807 - Mensagem METAR de 'SBRJ' para 08/05/2020 as 07(UTC) não localizada na base de dados da REDEMET
2020050808 - Mensagem METAR de 'SBRJ' para 08/05/2020 as 08(UTC) não localizada na base de dados da REDEMET
2020050808 - SPECI SBRJ 080850Z 29007KT 9999 BKN011 18/16 Q1021=
2020050809 - SABZ23 SBRJ 080900
2020050809 - METAR SBRJ 080900Z 29006KT 9999 SCT015 18/16 Q1021=
2020050810 - SABZ23 SBRJ 081000
2020050810 - METAR SBRJ 081000Z 30005KT 9999 FEW015 SCT100 18/16 Q1022=
2020050811 - SABZ23 SBRJ 081100
2020050811 - METAR SBRJ 081100Z 28004KT 9999 FEW020 20/16 Q1022=
2020050812 - SABZ23 SBRJ 081200
2020050812 - METAR SBRJ 081200Z 32007KT 9999 FEW020 21/16 Q1023=
2020050813 - SABZ23 SBRJ 081300
2020050813 - METAR SBRJ 081300Z 36006KT 9999 SCT020 21/17 Q1024=
2020050814 - SABZ23 SBRJ 081400
2020050814 - METAR SBRJ 081400Z 04004KT 9999 SCT025 SCT060 22/17 Q1024=
2020050814 - SPECI SBRJ 081425Z 15009KT 9999 VCSH SCT025 SCT060 22/17 Q1023=
2020050815 - SABZ23 SBRJ 081500
2020050815 - METAR SBRJ 081500Z 19004KT 9999 SCT025 SCT050 22/17 Q1023=
2020050816 - SABZ23 SBRJ 081600
2020050816 - METAR SBRJ 081600Z 23004KT 9999 SCT025 BKN060 22/15 Q1022=
2020050817 - SABZ23 SBRJ 081700
2020050817 - METAR SBRJ 081700Z 20003KT 9999 SCT025 BKN080 23/17 Q1022=
2020050818 - SABZ23 SBRJ 081800
2020050818 - METAR SBRJ 081800Z 08002KT 9999 SCT025 SCT080 23/15 Q1021=
2020050819 - SABZ23 SBRJ 081900
2020050819 - METAR SBRJ 081900Z 16006KT 9999 FEW025 SCT080 22/15 Q1021=
2020050820 - SABZ23 SBRJ 082000
2020050820 - METAR SBRJ 082000Z 18009KT 9999 FEW025 SCT090 22/15 Q1022=
2020050821 - SABZ23 SBRJ 082100
2020050821 - METAR SBRJ 082100Z 19008KT 9999 FEW025 SCT080 21/16 Q1022=
2020050822 - SABZ23 SBRJ 082200
2020050822 - METAR SBRJ 082200Z 20007KT CAVOK 21/16 Q1023=
2020050823 - SABZ23 SBRJ 082300
2020050823 - METAR SBRJ 082300Z 20006KT CAVOK 20/16 Q1023=
2020050900 - SABZ23 SBRJ 090000
2020050900 - METAR SBRJ 090000Z 19005KT CAVOK 20/16 Q1023=
2020050901 - SABZ23 SBRJ 090100
2020050901 - METAR SBRJ 090100Z 23002KT CAVOK 20/16 Q1024=
2020050902 - SABZ23 SBRJ 090200
2020050902 - METAR SBRJ 090200Z 32004KT CAVOK 20/16 Q1024=
2020050903 - Mensagem METAR de 'SBRJ' para 09/05/2020 as 03(UTC) não localizada na base de dados da REDEMET
2020050904 - Mensagem METAR de 'SBRJ' para 09/05/2020 as 04(UTC) não localizada na base de dados da REDEMET
2020050905 - Mensagem METAR de 'SBRJ' para 09/05/2020 as 05(UTC) não localizada na base de dados da REDEMET
2020050906 - Mensagem METAR de 'SBRJ' para 09/05/2020 as 06(UTC) não localizada na base de dados da REDEMET
2020050907 - Mensagem METAR de 'SBRJ' para 09/05/2020 as 07(UTC) não localizada na base de dados da REDEMET
2020050908 - Mensagem METAR de 'SBRJ' para 09/05/2020 as 08(UTC) não localizada na base de dados da REDEMET
2020050908 - SPECI SBRJ 090850Z 01004KT 9999 FEW008 19/17 Q1023=
2020050909 - SABZ23 SBRJ 090900
2020050909 - METAR SBRJ 090900Z 03006KT 9999 FEW008 19/17 Q1023=
2020050910 - SABZ23 SBRJ 091000
2020050910 - METAR SBRJ 091000Z 31003KT 9999 SCT008 18/16 Q1023=
2020050911 - SABZ23 SBRJ 091100
2020050911 - METAR SBRJ 091100Z 32006KT 9999 FEW010 19/17 Q1024=
2020050912 - SABZ23 SBRJ 091200
2020050912 - METAR SBRJ 091200Z 01006KT 8000 SCT007 20/18 Q1024=
2020050913 - SABZ23 SBRJ 091300
2020050913 - METAR SBRJ 091300Z 36004KT 9000 FEW015 20/18 Q1025=
2020050914 - SABZ23 SBRJ 091400
2020050914 - METAR SBRJ 091400Z 35005KT 9999 FEW020 21/18 Q1024=
2020050915 - SABZ23 SBRJ 091500
2020050915 - METAR SBRJ 091500Z 33005KT 9999 FEW020 23/15 Q1023=
2020050916 - SABZ23 SBRJ 091600 CCA
2020050916 - METAR COR SBRJ 091600Z 11003KT 9999 FEW020 24/14 Q1023=
2020050917 - SABZ23 SBRJ 091700
2020050917 - METAR SBRJ 091700Z 16009KT 9999 FEW020 24/16 Q1022=
2020050918 - SABZ23 SBRJ 091800
2020050918 - METAR SBRJ 091800Z 16011KT 9999 FEW020 23/16 Q1021=
2020050919 - SABZ23 SBRJ 091900
2020050919 - METAR SBRJ 091900Z 16011KT 9999 FEW025 23/17 Q1021=
2020050920 - SABZ23 SBRJ 092000
2020050920 - METAR SBRJ 092000Z 13009KT 9999 FEW025 23/17 Q1021=
2020050921 - SABZ23 SBRJ 092100
2020050921 - METAR SBRJ 092100Z 13007KT 9999 FEW020 22/17 Q1022=
2020050922 - SABZ23 SBRJ 092200
2020050922 - METAR SBRJ 092200Z 12007KT 9999 FEW020 SCT050 22/17 Q1022=
2020050923 - SABZ23 SBRJ 092300
2020050923 - METAR SBRJ 092300Z 09005KT 9999 FEW020 SCT050 22/16 Q1023=
2020051000 - SABZ23 SBRJ 100000
2020051000 - METAR SBRJ 100000Z 10004KT 9999 FEW040 22/15 Q1023=
2020051001 - SABZ23 SBRJ 100100
2020051001 - METAR SBRJ 100100Z 10003KT CAVOK 21/15 Q1024=
2020051002 - SABZ23 SBRJ 100200
2020051002 - METAR SBRJ 100200Z 02002KT CAVOK 21/16 Q1023=
2020051003 - Mensagem METAR de 'SBRJ' para 10/05/2020 as 03(UTC) não localizada na base de dados da REDEMET
2020051004 - Mensagem METAR de 'SBRJ' para 10/05/2020 as 04(UTC) não localizada na base de dados da REDEMET
2020051005 - Mensagem METAR de 'SBRJ' para 10/05/2020 as 05(UTC) não localizada na base de dados da REDEMET
2020051006 - Mensagem METAR de 'SBRJ' para 10/05/2020 as 06(UTC) não localizada na base de dados da REDEMET
2020051007 - Mensagem METAR de 'SBRJ' para 10/05/2020 as 07(UTC) não localizada na base de dados da REDEMET
2020051008 - Mensagem METAR de 'SBRJ' para 10/05/2020 as 08(UTC) não localizada na base de dados da REDEMET
2020051008 - SPECI SBRJ 100850Z 35004KT CAVOK 19/16 Q1021=
2020051009 - SABZ23 SBRJ 100900
2020051009 - METAR SBRJ 100900Z 36004KT CAVOK 19/17 Q1021=
2020051010 - SABZ23 SBRJ 101000
2020051010 - METAR SBRJ 101000Z 05007KT 9999 FEW010 19/17 Q1022=
2020051011 - SABZ23 SBRJ 101100
2020051011 - METAR SBRJ 101100Z 02007KT 9999 FEW012 19/17 Q1022=
2020051012 - SABZ23 SBRJ 101200
2020051012 - METAR SBRJ 101200Z 34006KT CAVOK 20/16 Q1023=
2020051013 - SABZ23 SBRJ 101300
2020051013 - METAR SBRJ 101300Z 36004KT CAVOK 21/16 Q1023=
2020051014 - SABZ23 SBRJ 101400
2020051014 - METAR SBRJ 101400Z 34005KT CAVOK 23/16 Q1022=
2020051015 - SABZ23 SBRJ 101500
2020051015 - METAR SBRJ 101500Z 01003KT 9999 FEW040 24/15 Q1021=
2020051016 - SABZ23 SBRJ 101600
2020051016 - METAR SBRJ 101600Z 10003KT 9999 FEW025 25/15 Q1020=
2020051017 - SABZ23 SBRJ 101700
2020051017 - METAR SBRJ 101700Z 16009KT 9999 FEW030 25/15 Q1019=
2020051018 - SABZ23 SBRJ 101800
2020051018 - METAR SBRJ 101800Z 16009KT 9999 FEW030 25/15 Q1019=
2020051019 - SABZ23 SBRJ 101900
2020051019 - METAR SBRJ 101900Z 17009KT 9999 FEW030 25/15 Q1019=
2020051020 - SABZ23 SBRJ 102000
2020051020 - METAR SBRJ 102000Z 15006KT 9999 FEW030 24/16 Q1019=
2020051021 - SABZ23 SBRJ 102100
2020051021 - METAR SBRJ 102100Z 14006KT CAVOK 23/18 Q1019=
2020051022 - SABZ23 SBRJ 102200
2020051022 - METAR SBRJ 102200Z 08005KT CAVOK 23/17 Q1019=
2020051023 - SABZ23 SBRJ 102300
2020051023 - METAR SBRJ 102300Z 11004KT CAVOK 23/16 Q1020=
2020051100 - SABZ23 SBRJ 110000
2020051100 - METAR SBRJ 110000Z 00000KT CAVOK 22/17 Q1020=
2020051101 - SABZ23 SBRJ 110100
2020051101 - METAR SBRJ 110100Z 21001KT CAVOK 21/16 Q1020=
2020051102 - SABZ23 SBRJ 110200
2020051102 - METAR SBRJ 110200Z 21002KT CAVOK 21/16 Q1020=
2020051103 - Mensagem METAR de 'SBRJ' para 11/05/2020 as 03(UTC) não localizada na base de dados da REDEMET
2020051104 - Mensagem METAR de 'SBRJ' para 11/05/2020 as 04(UTC) não localizada na base de dados da REDEMET
2020051105 - Mensagem METAR de 'SBRJ' para 11/05/2020 as 05(UTC) não localizada na base de dados da REDEMET
2020051106 - Mensagem METAR de 'SBRJ' para 11/05/2020 as 06(UTC) não localizada na base de dados da REDEMET
2020051107 - Mensagem METAR de 'SBRJ' para 11/05/2020 as 07(UTC) não localizada na base de dados da REDEMET
2020051108 - Mensagem METAR de 'SBRJ' para 11/05/2020 as 08(UTC) não localizada na base de dados da REDEMET
2020051108 - SPECI SBRJ 110850Z 35002KT CAVOK 20/14 Q1018=
2020051109 - SABZ23 SBRJ 110900
2020051109 - METAR SBRJ 110900Z 01003KT CAVOK 20/16 Q1018=
2020051110 - SABZ23 SBRJ 111000
2020051110 - METAR SBRJ 111000Z 02006KT CAVOK 20/17 Q1019=
2020051111 - SABZ23 SBRJ 111100
2020051111 - METAR SBRJ 111100Z 35004KT CAVOK 20/17 Q1019=
2020051112 - SABZ23 SBRJ 111200
2020051112 - METAR SBRJ 111200Z 01005KT CAVOK 21/17 Q1020=
2020051113 - SABZ23 SBRJ 111300
2020051113 - METAR SBRJ 111300Z 05002KT CAVOK 24/16 Q1020=
2020051114 - SABZ23 SBRJ 111400
2020051114 - METAR SBRJ 111400Z 11003KT CAVOK 24/16 Q1020=
2020051115 - SABZ23 SBRJ 111500
2020051115 - METAR SBRJ 111500Z 14007KT CAVOK 25/15 Q1019=
2020051116 - SABZ23 SBRJ 111600
2020051116 - METAR SBRJ 111600Z 16010KT CAVOK 25/16 Q1018=
2020051117 - SABZ23 SBRJ 111700
2020051117 - METAR SBRJ 111700Z 16010KT CAVOK 25/16 Q1018=
2020051118 - SABZ23 SBRJ 111800
2020051118 - METAR SBRJ 111800Z 17010KT CAVOK 25/18 Q1017=
2020051119 - SABZ23 SBRJ 111900
2020051119 - METAR SBRJ 111900Z 17010KT CAVOK 25/16 Q1017=
2020051120 - SABZ23 SBRJ 112000
2020051120 - METAR SBRJ 112000Z 18012KT CAVOK 24/16 Q1018=
2020051121 - SABZ23 SBRJ 112100
2020051121 - METAR SBRJ 112100Z 17009KT CAVOK 23/15 Q1018=
2020051122 - SABZ23 SBRJ 112200
2020051122 - METAR SBRJ 112200Z 19007KT CAVOK 23/16 Q1018=
2020051123 - SABZ23 SBRJ 112300
2020051123 - METAR SBRJ 112300Z 21004KT CAVOK 23/16 Q1018=
2020051200 - SABZ23 SBRJ 120000
2020051200 - METAR SBRJ 120000Z 32002KT CAVOK 23/17 Q1019=
2020051201 - SABZ23 SBRJ 120100
2020051201 - METAR SBRJ 120100Z 34003KT CAVOK 22/18 Q1019=
2020051202 - SABZ23 SBRJ 120200
2020051202 - METAR SBRJ 120200Z 01005KT CAVOK 22/18 Q1019=
2020051203 - Mensagem METAR de 'SBRJ' para 12/05/2020 as 03(UTC) não localizada na base de dados da REDEMET
2020051204 - Mensagem METAR de 'SBRJ' para 12/05/2020 as 04(UTC) não localizada na base de dados da REDEMET
2020051205 - Mensagem METAR de 'SBRJ' para 12/05/2020 as 05(UTC) não localizada na base de dados da REDEMET
2020051206 - Mensagem METAR de 'SBRJ' para 12/05/2020 as 06(UTC) não localizada na base de dados da REDEMET
2020051207 - Mensagem METAR de 'SBRJ' para 12/05/2020 as 07(UTC) não localizada na base de dados da REDEMET
2020051208 - Mensagem METAR de 'SBRJ' para 12/05/2020 as 08(UTC) não localizada na base de dados da REDEMET
2020051208 - SPECI SBRJ 120850Z 34005KT CAVOK 19/17 Q1017=
2020051209 - SABZ24 SBCW 120903
2020051209 - METAR SBRJ 120900Z 36006KT CAVOK 20/17 Q1017=
2020051210 - SABZ24 SBCW 120951
2020051210 - METAR SBRJ 121000Z 34005KT CAVOK 20/17 Q1018=
2020051211 - SABZ24 SBPA 121052
2020051211 - METAR SBRJ 121100Z 35005KT CAVOK 20/17 Q1018=
2020051212 - SABZ24 SBPA 121155
2020051212 - METAR SBRJ 121200Z 34006KT CAVOK 21/18 Q1018=
2020051213 - SABZ23 SBRJ 121300
2020051213 - METAR SBRJ 121300Z 35006KT CAVOK 22/18 Q1018=
2020051214 - Mensagem METAR de 'SBRJ' para 12/05/2020 as 14(UTC) não localizada na base de dados da REDEMET
2020051215 - Mensagem METAR de 'SBRJ' para 12/05/2020 as 15(UTC) não localizada na base de dados da REDEMET
2020051216 - Mensagem METAR de 'SBRJ' para 12/05/2020 as 16(UTC) não localizada na base de dados da REDEMET
2020051217 - Mensagem METAR de 'SBRJ' para 12/05/2020 as 17(UTC) não localizada na base de dados da REDEMET
2020051218 - Mensagem METAR de 'SBRJ' para 12/05/2020 as 18(UTC) não localizada na base de dados da REDEMET
2020051219 - Mensagem METAR de 'SBRJ' para 12/05/2020 as 19(UTC) não localizada na base de dados da REDEMET
2020051220 - Mensagem METAR de 'SBRJ' para 12/05/2020 as 20(UTC) não localizada na base de dados da REDEMET
2020051221 - Mensagem METAR de 'SBRJ' para 12/05/2020 as 21(UTC) não localizada na base de dados da REDEMET
2020051222 - Mensagem METAR de 'SBRJ' para 12/05/2020 as 22(UTC) não localizada na base de dados da REDEMET
2020051223 - Mensagem METAR de 'SBRJ' para 12/05/2020 as 23(UTC) não localizada na base de dados da REDEMET
2020051300 - SABZ23 SBRJ 130000
2020051300 - METAR SBRJ 130000Z VRB02KT CAVOK 23/19 Q1015=
2020051301 - SABZ23 SBRJ 130100
2020051301 - METAR SBRJ 130100Z 04003KT CAVOK 23/19 Q1015=
2020051302 - SABZ23 SBRJ 130200
2020051302 - METAR SBRJ 130200Z 35005KT CAVOK 22/19 Q1015=
2020051303 - Mensagem METAR de 'SBRJ' para 13/05/2020 as 03(UTC) não localizada na base de dados da REDEMET
2020051304 - Mensagem METAR de 'SBRJ' para 13/05/2020 as 04(UTC) não localizada na base de dados da REDEMET
2020051305 - Mensagem METAR de 'SBRJ' para 13/05/2020 as 05(UTC) não localizada na base de dados da REDEMET
2020051306 - Mensagem METAR de 'SBRJ' para 13/05/2020 as 06(UTC) não localizada na base de dados da REDEMET
2020051307 - Mensagem METAR de 'SBRJ' para 13/05/2020 as 07(UTC) não localizada na base de dados da REDEMET
2020051308 - Mensagem METAR de 'SBRJ' para 13/05/2020 as 08(UTC) não localizada na base de dados da REDEMET
2020051308 - SPECI SBRJ 130850Z 33006KT CAVOK 21/18 Q1013=
2020051309 - SABZ23 SBRJ 130900
2020051309 - METAR SBRJ 130900Z 34007KT CAVOK 20/18 Q1013=
2020051310 - SABZ23 SBRJ 131000
2020051310 - METAR SBRJ 131000Z 36006KT CAVOK 20/17 Q1014=
2020051311 - SABZ23 SBRJ 131100
2020051311 - METAR SBRJ 131100Z 01005KT CAVOK 21/18 Q1015=
2020051312 - SABZ23 SBRJ 131200
2020051312 - METAR SBRJ 131200Z 01004KT CAVOK 22/19 Q1014=
2020051313 - SABZ23 SBRJ 131300
2020051313 - METAR SBRJ 131300Z 33004KT CAVOK 24/18 Q1014=
2020051314 - SABZ23 SBRJ 131400
2020051314 - METAR SBRJ 131400Z 01005KT CAVOK 24/18 Q1014=
2020051315 - SABZ23 SBRJ 131500
2020051315 - METAR SBRJ 131500Z 06003KT CAVOK 26/17 Q1013=
2020051315 - SPECI SBRJ 131510Z 13004KT CAVOK 26/19 Q1013=
2020051316 - SABZ23 SBRJ 131600
2020051316 - METAR SBRJ 131600Z 13006KT 9999 FEW025 27/19 Q1012=
2020051317 - SABZ23 SBRJ 131700
2020051317 - METAR SBRJ 131700Z 15010KT 9999 FEW025 25/20 Q1011=
2020051318 - SABZ23 SBRJ 131800
2020051318 - METAR SBRJ 131800Z 15013KT 9999 FEW025 25/20 Q1011=
2020051319 - SABZ23 SBRJ 131900
2020051319 - METAR SBRJ 131900Z 16011KT 9999 FEW025 SCT100 24/21 Q1011=
2020051320 - SABZ23 SBRJ 132000
2020051320 - METAR SBRJ 132000Z 19009KT CAVOK 24/20 Q1011=
2020051321 - SABZ23 SBRJ 132100
2020051321 - METAR SBRJ 132100Z 17008KT CAVOK 24/19 Q1012=
2020051322 - SABZ23 SBRJ 132200
2020051322 - METAR SBRJ 132200Z 19006KT CAVOK 24/19 Q1012=
2020051323 - SABZ23 SBRJ 132300
2020051323 - METAR SBRJ 132300Z 14002KT CAVOK 25/20 Q1012=
2020051400 - SABZ23 SBRJ 140000
2020051400 - METAR SBRJ 140000Z 32002KT CAVOK 25/19 Q1012=
2020051401 - SABZ23 SBRJ 140100
2020051401 - METAR SBRJ 140100Z 34004KT CAVOK 23/20 Q1012=
2020051402 - SABZ23 SBRJ 140200
2020051402 - METAR SBRJ 140200Z 33003KT CAVOK 24/22 Q1012=
2020051403 - Mensagem METAR de 'SBRJ' para 14/05/2020 as 03(UTC) não localizada na base de dados da REDEMET
2020051404 - Mensagem METAR de 'SBRJ' para 14/05/2020 as 04(UTC) não localizada na base de dados da REDEMET
2020051405 - Mensagem METAR de 'SBRJ' para 14/05/2020 as 05(UTC) não localizada na base de dados da REDEMET
2020051406 - Mensagem METAR de 'SBRJ' para 14/05/2020 as 06(UTC) não localizada na base de dados da REDEMET
2020051407 - Mensagem METAR de 'SBRJ' para 14/05/2020 as 07(UTC) não localizada na base de dados da REDEMET
2020051408 - Mensagem METAR de 'SBRJ' para 14/05/2020 as 08(UTC) não localizada na base de dados da REDEMET
2020051408 - SPECI SBRJ 140850Z 34008KT CAVOK 22/20 Q1011=
2020051409 - SABZ23 SBRJ 140900
2020051409 - METAR SBRJ 140900Z 35008KT 9000 FEW025 SCT100 22/20 Q1011=
2020051410 - SABZ23 SBRJ 141000
2020051410 - METAR SBRJ 141000Z 33008KT 8000 FEW030 BKN100 23/21 Q1012=
2020051411 - SABZ23 SBRJ 141100
2020051411 - METAR SBRJ 141100Z 20005KT 8000 FEW030 BKN090 23/20 Q1013=
2020051411 - SPECI SBRJ 141142Z 02005KT 8000 FEW030 BKN090 23/21 Q1014=
2020051412 - SABZ23 SBRJ 141200
2020051412 - METAR SBRJ 141200Z 35004KT 9000 FEW030 OVC090 23/21 Q1014=
2020051413 - SABZ23 SBRJ 141300
2020051413 - METAR SBRJ 141300Z 03008KT 9000 FEW030 BKN100 24/21 Q1014=
2020051414 - SABZ23 SBRJ 141400
2020051414 - METAR SBRJ 141400Z 07006KT 9999 FEW025 BKN100 25/21 Q1014=
2020051415 - SABZ23 SBRJ 141500
2020051415 - METAR SBRJ 141500Z 18009KT 9999 FEW020 BKN100 27/21 Q1013=
2020051416 - SABZ23 SBRJ 141600
2020051416 - METAR SBRJ 141600Z 18013KT 9999 FEW020 BKN100 26/20 Q1013=
2020051417 - SABZ23 SBRJ 141700
2020051417 - METAR SBRJ 141700Z 19016KT 9999 FEW020 BKN080 26/19 Q1013=
2020051418 - SABZ23 SBRJ 141800
2020051418 - METAR SBRJ 141800Z 19012KT 9999 FEW020 SCT035 BKN100 25/20 Q1013=
2020051419 - SABZ23 SBRJ 141900
2020051419 - METAR SBRJ 141900Z 20010KT 9999 FEW018 SCT035 BKN100 24/20 Q1014=
2020051420 - SABZ23 SBRJ 142000
2020051420 - METAR SBRJ 142000Z 17013KT 9999 FEW018 OVC030 24/20 Q1014=
2020051421 - SABZ23 SBRJ 142100
2020051421 - METAR SBRJ 142100Z 19012KT 9999 SCT015 OVC030 23/20 Q1015=
2020051422 - SABZ23 SBRJ 142200
2020051422 - METAR SBRJ 142200Z 18007KT 9999 FEW015 OVC030 23/20 Q1016=
2020051423 - SABZ23 SBRJ 142300
2020051423 - METAR SBRJ 142300Z 21011KT 7000 -RA SCT010 OVC030 22/21 Q1016=
2020051423 - SPECI SBRJ 142310Z 18012KT 7000 -RA BKN010 OVC030 22/21 Q1016=
2020051423 - SPECI SBRJ 142330Z 18010KT 6000 RA BKN010 OVC030 22/20 Q1017=
2020051500 - SABZ23 SBRJ 150000
2020051500 - METAR SBRJ 150000Z 17012KT 7000 -RA BKN010 OVC030 22/19 Q1017 RERA=
2020051501 - SABZ23 SBRJ 150100
2020051501 - METAR SBRJ 150100Z 17013KT 7000 -RA BKN010 OVC030 22/19 Q1017=
2020051501 - SPECI SBRJ 150120Z 17011KT 4500 RA BR BKN010 OVC030 21/19 Q1017=
2020051502 - SABZ23 SBRJ 150200
2020051502 - METAR SBRJ 150200Z 21011KT 4500 RA BR BKN010 OVC030 21/19 Q1017=
2020051503 - Mensagem METAR de 'SBRJ' para 15/05/2020 as 03(UTC) não localizada na base de dados da REDEMET
2020051504 - Mensagem METAR de 'SBRJ' para 15/05/2020 as 04(UTC) não localizada na base de dados da REDEMET
2020051505 - Mensagem METAR de 'SBRJ' para 15/05/2020 as 05(UTC) não localizada na base de dados da REDEMET
2020051506 - Mensagem METAR de 'SBRJ' para 15/05/2020 as 06(UTC) não localizada na base de dados da REDEMET
2020051507 - Mensagem METAR de 'SBRJ' para 15/05/2020 as 07(UTC) não localizada na base de dados da REDEMET
2020051508 - Mensagem METAR de 'SBRJ' para 15/05/2020 as 08(UTC) não localizada na base de dados da REDEMET
2020051508 - SPECI SBRJ 150850Z 31006KT 9999 -RA FEW020 OVC040 20/19 Q1018=
2020051509 - SABZ23 SBRJ 150900
2020051509 - METAR SBRJ 150900Z 31007KT 9999 -RA FEW015 OVC040 20/19 Q1018=
2020051510 - SABZ23 SBRJ 151000
2020051510 - METAR SBRJ 151000Z 31007KT 9000 -RA BKN012 OVC040 20/19 Q1019=
2020051511 - SABZ23 SBRJ 151100
2020051511 - METAR SBRJ 151100Z 31005KT 9999 -RA BKN012 OVC030 20/19 Q1019=
2020051511 - SPECI SBRJ 151120Z 30005KT 4000 -RA BR BKN008 OVC030 20/19 Q1019=
2020051512 - SABZ23 SBRJ 151200
2020051512 - METAR SBRJ 151200Z 29004KT 9999 3000S -RA BKN008 OVC025 20/19 Q1020=
2020051512 - SPECI SBRJ 151223Z 21003KT 3000 -RA BR BKN008 OVC025 20/19 Q1020=
2020051513 - SABZ23 SBRJ 151300
2020051513 - METAR SBRJ 151300Z 14005KT 3000 -RA BR BKN010 OVC030 19/18 Q1020=
2020051513 - SPECI SBRJ 151335Z 01003KT 7000 BKN015 OVC040 20/19 Q1020=
2020051514 - SABZ23 SBRJ 151400
2020051514 - METAR SBRJ 151400Z 31003KT 7000 FEW010 OVC040 20/19 Q1020=
2020051515 - SABZ23 SBRJ 151500
2020051515 - METAR SBRJ 151500Z 02004KT 9999 FEW010 OVC030 21/19 Q1019=
2020051515 - SPECI SBRJ 151535Z 34007KT 9999 -RA FEW008 BKN010 OVC035 20/19 Q1019=
2020051516 - SABZ23 SBRJ 151600
2020051516 - METAR SBRJ 151600Z 34005KT 9999 -RA FEW008 BKN010 OVC035 20/19 Q1018=
2020051517 - SABZ23 SBRJ 151700
2020051517 - METAR SBRJ 151700Z 34003KT 9999 BKN010 OVC035 21/19 Q1018=
2020051517 - SPECI SBRJ 151730Z 21004KT 6000 -RA BKN010 OVC035 20/19 Q1018=
2020051518 - SABZ23 SBRJ 151800
2020051518 - METAR SBRJ 151800Z 20002KT 4000 -RA BR FEW007 BKN010 OVC035 20/19 Q1018=
2020051519 - SABZ23 SBRJ 151900
2020051519 - METAR SBRJ 151900Z 36002KT 4000 -RA BR FEW007 BKN010 OVC035 20/18 Q1018=
2020051519 - SPECI SBRJ 151920Z 30004KT 9000 FEW006 BKN012 OVC035 20/19 Q1018=
2020051519 - SPECI SBRJ 151930Z 32006KT 9000 FEW006 SCT013 OVC035 20/19 Q1018=
2020051520 - SABZ23 SBRJ 152000
2020051520 - METAR SBRJ 152000Z 31003KT 9999 FEW006 SCT013 OVC045 20/18 Q1018=
2020051521 - SABZ23 SBRJ 152100
2020051521 - METAR SBRJ 152100Z 31003KT 9999 SCT012 OVC045 20/19 Q1018=
2020051522 - SABZ23 SBRJ 152200
2020051522 - METAR SBRJ 152200Z 17005KT 9999 SCT012 OVC045 20/18 Q1019=
2020051523 - SABZ23 SBRJ 152300
2020051523 - METAR SBRJ 152300Z 00000KT 9000 SCT012 OVC045 20/18 Q1019=
2020051600 - SABZ23 SBRJ 160000
2020051600 - METAR SBRJ 160000Z 36002KT 9000 SCT013 OVC070 21/19 Q1019=
2020051601 - SABZ23 SBRJ 160100
2020051601 - METAR SBRJ 160100Z 03002KT 9000 SCT015 OVC070 21/18 Q1019=
2020051602 - SABZ23 SBRJ 160200
2020051602 - METAR SBRJ 160200Z 05003KT 9000 SCT015 OVC070 21/18 Q1019=
2020051603 - Mensagem METAR de 'SBRJ' para 16/05/2020 as 03(UTC) não localizada na base de dados da REDEMET
2020051604 - Mensagem METAR de 'SBRJ' para 16/05/2020 as 04(UTC) não localizada na base de dados da REDEMET
2020051605 - Mensagem METAR de 'SBRJ' para 16/05/2020 as 05(UTC) não localizada na base de dados da REDEMET
2020051606 - Mensagem METAR de 'SBRJ' para 16/05/2020 as 06(UTC) não localizada na base de dados da REDEMET
2020051607 - Mensagem METAR de 'SBRJ' para 16/05/2020 as 07(UTC) não localizada na base de dados da REDEMET
2020051608 - Mensagem METAR de 'SBRJ' para 16/05/2020 as 08(UTC) não localizada na base de dados da REDEMET
2020051608 - SPECI SBRJ 160850Z 33003KT 9000 FEW020 SCT050 20/18 Q1016=
2020051609 - SABZ23 SBRJ 160900
2020051609 - METAR SBRJ 160900Z 32003KT 9000 FEW008 SCT050 20/19 Q1016=
2020051610 - SABZ23 SBRJ 161000
2020051610 - METAR SBRJ 161000Z 36003KT 9000 FEW007 SCT050 20/19 Q1017=
2020051611 - SABZ23 SBRJ 161100
2020051611 - METAR SBRJ 161100Z 03003KT 7000 FEW010 21/19 Q1017=
2020051612 - SABZ23 SBRJ 161200
2020051612 - METAR SBRJ 161200Z 34005KT 7000 FEW010 21/19 Q1018=
2020051613 - SABZ23 SBRJ 161300
2020051613 - METAR SBRJ 161300Z 35006KT 9000 FEW020 21/19 Q1018=
2020051614 - SABZ23 SBRJ 161400
2020051614 - METAR SBRJ 161400Z 33005KT 9999 FEW020 22/18 Q1017=
2020051615 - SABZ23 SBRJ 161500
2020051615 - METAR SBRJ 161500Z 02003KT 9999 FEW025 SCT100 24/18 Q1016=
2020051616 - SABZ23 SBRJ 161600
2020051616 - METAR SBRJ 161600Z 12004KT 9999 FEW025 SCT100 24/19 Q1016=
2020051617 - SABZ23 SBRJ 161700
2020051617 - METAR SBRJ 161700Z 15006KT 9999 FEW025 SCT100 24/19 Q1015=
2020051618 - SABZ23 SBRJ 161800
2020051618 - METAR SBRJ 161800Z 16009KT 9999 FEW020 SCT030 24/19 Q1015=
2020051619 - SABZ23 SBRJ 161900
2020051619 - METAR SBRJ 161900Z 15007KT 9999 FEW018 SCT030 24/20 Q1015=
2020051620 - SABZ23 SBRJ 162000
2020051620 - METAR SBRJ 162000Z 17009KT 9999 SCT018 SCT100 23/20 Q1016=
2020051621 - SABZ23 SBRJ 162100
2020051621 - METAR SBRJ 162100Z 13007KT 9999 SCT018 BKN040 BKN070 23/20 Q1016=
2020051622 - SABZ23 SBRJ 162200
2020051622 - METAR SBRJ 162200Z 18004KT 9999 SCT018 BKN045 BKN070 23/20 Q1016=
2020051623 - SABZ23 SBRJ 162300
2020051623 - METAR SBRJ 162300Z 20004KT 9999 BKN035 23/20 Q1017=
2020051700 - SABZ23 SBRJ 170000
2020051700 - METAR SBRJ 170000Z 22002KT 9999 BKN035 23/20 Q1017=
2020051701 - SABZ23 SBRJ 170100
2020051701 - METAR SBRJ 170100Z 02003KT 9999 BKN035 23/20 Q1017=
2020051702 - SABZ23 SBRJ 170200
2020051702 - METAR SBRJ 170200Z 04006KT 9999 BKN020 23/19 Q1017=
2020051703 - Mensagem METAR de 'SBRJ' para 17/05/2020 as 03(UTC) não localizada na base de dados da REDEMET
2020051704 - Mensagem METAR de 'SBRJ' para 17/05/2020 as 04(UTC) não localizada na base de dados da REDEMET
2020051705 - Mensagem METAR de 'SBRJ' para 17/05/2020 as 05(UTC) não localizada na base de dados da REDEMET
2020051706 - Mensagem METAR de 'SBRJ' para 17/05/2020 as 06(UTC) não localizada na base de dados da REDEMET
2020051707 - Mensagem METAR de 'SBRJ' para 17/05/2020 as 07(UTC) não localizada na base de dados da REDEMET
2020051708 - Mensagem METAR de 'SBRJ' para 17/05/2020 as 08(UTC) não localizada na base de dados da REDEMET
2020051708 - SPECI SBRJ 170850Z 21002KT 9999 FEW015 21/19 Q1017=
2020051709 - SABZ23 SBRJ 170900
2020051709 - METAR SBRJ 170900Z 21002KT 9999 FEW013 20/19 Q1017=
2020051710 - SABZ23 SBRJ 171000
2020051710 - METAR SBRJ 171000Z 18003KT 9999 FEW015 20/19 Q1018=
2020051711 - SABZ23 SBRJ 171100
2020051711 - METAR SBRJ 171100Z 02005KT 7000 FEW015 22/20 Q1018=
2020051711 - SPECI SBRJ 171130Z 01007KT 5000 BR BKN010 22/20 Q1019=
2020051712 - SABZ23 SBRJ 171200
2020051712 - METAR SBRJ 171200Z 01007KT 6000 FEW007 BKN010 22/20 Q1019=
2020051713 - SABZ23 SBRJ 171300
2020051713 - METAR SBRJ 171300Z 02004KT 6000 FEW012 SCT020 23/20 Q1019=
2020051714 - SABZ23 SBRJ 171400
2020051714 - METAR SBRJ 171400Z 01003KT 8000 FEW020 24/20 Q1019=
2020051715 - SABZ23 SBRJ 171500
2020051715 - METAR SBRJ 171500Z 15006KT 9999 FEW020 25/20 Q1018=
2020051716 - SABZ23 SBRJ 171600
2020051716 - METAR SBRJ 171600Z 16009KT 9999 FEW020 24/20 Q1017=
2020051717 - SABZ23 SBRJ 171700
2020051717 - METAR SBRJ 171700Z 16009KT 9999 FEW020 24/20 Q1017=
2020051718 - SABZ23 SBRJ 171800
2020051718 - METAR SBRJ 171800Z 16012KT 9999 FEW025 24/20 Q1017=
2020051719 - SABZ23 SBRJ 171900
2020051719 - METAR SBRJ 171900Z 17011KT 9999 FEW020 24/20 Q1017=
2020051720 - SABZ23 SBRJ 172000
2020051720 - METAR SBRJ 172000Z 16010KT 9999 FEW015 23/20 Q1017=
2020051721 - SABZ23 SBRJ 172100
2020051721 - METAR SBRJ 172100Z 16011KT 9999 FEW015 23/20 Q1017=
2020051722 - SABZ23 SBRJ 172200
2020051722 - METAR SBRJ 172200Z 16010KT 9999 SCT015 23/20 Q1018=
2020051723 - SABZ23 SBRJ 172302
2020051723 - METAR SBRJ 172300Z 15009KT 9999 SCT018 SCT050 23/20 Q1019=
2020051800 - SABZ23 SBRJ 180000
2020051800 - METAR SBRJ 180000Z 14007KT 9999 SCT018 BKN040 23/20 Q1019=
2020051801 - SABZ23 SBRJ 180100
2020051801 - METAR SBRJ 180100Z 13002KT 9999 SCT020 BKN040 23/20 Q1019=
2020051802 - SABZ23 SBRJ 180200
2020051802 - METAR SBRJ 180200Z 15004KT 9999 SCT020 BKN030 23/20 Q1019=
2020051803 - Mensagem METAR de 'SBRJ' para 18/05/2020 as 03(UTC) não localizada na base de dados da REDEMET
2020051804 - Mensagem METAR de 'SBRJ' para 18/05/2020 as 04(UTC) não localizada na base de dados da REDEMET
2020051805 - Mensagem METAR de 'SBRJ' para 18/05/2020 as 05(UTC) não localizada na base de dados da REDEMET
2020051806 - Mensagem METAR de 'SBRJ' para 18/05/2020 as 06(UTC) não localizada na base de dados da REDEMET
2020051807 - Mensagem METAR de 'SBRJ' para 18/05/2020 as 07(UTC) não localizada na base de dados da REDEMET
2020051808 - Mensagem METAR de 'SBRJ' para 18/05/2020 as 08(UTC) não localizada na base de dados da REDEMET
2020051808 - SPECI SBRJ 180850Z 02006KT 9999 SCT010 22/20 Q1018=
2020051809 - SABZ23 SBRJ 180900
2020051809 - METAR SBRJ 180900Z 02006KT 8000 BKN010 22/20 Q1019=
2020051810 - SABZ23 SBRJ 181000
2020051810 - METAR SBRJ 181000Z 03007KT 8000 SCT007 BKN010 21/20 Q1020=
2020051811 - SABZ23 SBRJ 181100
2020051811 - METAR SBRJ 181100Z 02005KT 6000 BKN007 BKN011 21/20 Q1020=
2020051812 - SABZ23 SBRJ 181200
2020051812 - METAR SBRJ 181200Z 02005KT 6000 SCT008 22/20 Q1021=
2020051813 - SABZ23 SBRJ 181300
2020051813 - METAR SBRJ 181300Z 02004KT 6000 FEW013 23/21 Q1021=
2020051814 - SABZ23 SBRJ 181400
2020051814 - METAR SBRJ 181400Z 03004KT 8000 FEW015 24/21 Q1021=
2020051815 - SABZ23 SBRJ 181500
2020051815 - METAR SBRJ 181500Z 12003KT 9999 FEW020 25/19 Q1020=
2020051816 - SABZ23 SBRJ 181600
2020051816 - METAR SBRJ 181600Z 16010KT 9999 FEW020 25/20 Q1019=
2020051817 - SABZ23 SBRJ 181700
2020051817 - METAR SBRJ 181700Z 15009KT 9999 FEW020 24/20 Q1019=
2020051818 - SABZ23 SBRJ 181800
2020051818 - METAR SBRJ 181800Z 16011KT 9999 FEW020 24/20 Q1019=
2020051819 - SABZ23 SBRJ 181900
2020051819 - METAR SBRJ 181900Z 16011KT 9999 FEW018 24/21 Q1019=
2020051820 - SABZ23 SBRJ 182000
2020051820 - METAR SBRJ 182000Z 16010KT 9999 FEW018 23/21 Q1020=
2020051821 - SABZ23 SBRJ 182100
2020051821 - METAR SBRJ 182100Z 17009KT 9999 FEW013 23/21 Q1020=
2020051822 - SABZ23 SBRJ 182200
2020051822 - METAR SBRJ 182200Z 16010KT 9999 FEW012 23/20 Q1021=
2020051823 - SABZ23 SBRJ 182300
2020051823 - METAR SBRJ 182300Z 16008KT 9999 FEW012 23/20 Q1021=
2020051900 - SABZ23 SBRJ 190000
2020051900 - METAR SBRJ 190000Z 13007KT 9999 FEW012 23/21 Q1022=
2020051901 - SABZ23 SBRJ 190100
2020051901 - METAR SBRJ 190100Z 10004KT 9999 SCT015 BKN050 23/20 Q1022=
2020051902 - SABZ23 SBRJ 190200
2020051902 - METAR SBRJ 190200Z 12003KT 9999 FEW015 BKN050 23/20 Q1022=
2020051903 - Mensagem METAR de 'SBRJ' para 19/05/2020 as 03(UTC) não localizada na base de dados da REDEMET
2020051904 - Mensagem METAR de 'SBRJ' para 19/05/2020 as 04(UTC) não localizada na base de dados da REDEMET
2020051905 - Mensagem METAR de 'SBRJ' para 19/05/2020 as 05(UTC) não localizada na base de dados da REDEMET
2020051906 - Mensagem METAR de 'SBRJ' para 19/05/2020 as 06(UTC) não localizada na base de dados da REDEMET
2020051907 - Mensagem METAR de 'SBRJ' para 19/05/2020 as 07(UTC) não localizada na base de dados da REDEMET
2020051908 - Mensagem METAR de 'SBRJ' para 19/05/2020 as 08(UTC) não localizada na base de dados da REDEMET
2020051908 - SPECI SBRJ 190850Z 36003KT 9999 FEW010 21/20 Q1022=
2020051909 - SABZ23 SBRJ 190900
2020051909 - METAR SBRJ 190900Z 36002KT 9999 FEW010 21/20 Q1022=
2020051910 - SABZ23 SBRJ 191000
2020051910 - METAR SBRJ 191000Z 02002KT 9999 FEW007 21/20 Q1023=
2020051911 - SABZ23 SBRJ 191100
2020051911 - METAR SBRJ 191100Z 36004KT 9999 FEW007 22/20 Q1024=
2020051912 - SABZ23 SBRJ 191200
2020051912 - METAR SBRJ 191200Z 36004KT 7000 SCT010 22/20 Q1025=
2020051913 - SABZ23 SBRJ 191300
2020051913 - METAR SBRJ 191300Z 34004KT 8000 FEW012 23/20 Q1025=
2020051914 - SABZ23 SBRJ 191400
2020051914 - METAR SBRJ 191400Z 08002KT 9000 FEW020 25/21 Q1024=
2020051915 - SABZ23 SBRJ 191500
2020051915 - METAR SBRJ 191500Z 16009KT 9999 FEW020 24/20 Q1024=
2020051916 - SABZ23 SBRJ 191600
2020051916 - METAR SBRJ 191600Z 17010KT 9999 FEW020 25/20 Q1023=
2020051917 - SABZ23 SBRJ 191700
2020051917 - METAR SBRJ 191700Z 16013KT 9999 FEW020 25/20 Q1022=
2020051918 - SABZ23 SBRJ 191800
2020051918 - METAR SBRJ 191800Z 15013KT 9999 FEW018 24/20 Q1022=
2020051919 - SABZ23 SBRJ 191900
2020051919 - METAR SBRJ 191900Z 14013KT 9999 FEW018 24/20 Q1022=
2020051920 - SABZ23 SBRJ 192000
2020051920 - METAR SBRJ 192000Z 14009KT 9999 FEW018 24/20 Q1022=
2020051921 - SABZ23 SBRJ 192100
2020051921 - METAR SBRJ 192100Z 13010KT 9999 FEW020 FEW035TCU 23/20 Q1022=
2020051922 - SABZ23 SBRJ 192200
2020051922 - METAR SBRJ 192200Z 12011KT 9999 FEW010 SCT018 23/20 Q1023=
2020051923 - SABZ23 SBRJ 192300
2020051923 - METAR SBRJ 192300Z 12008KT 9999 FEW018 BKN040 23/19 Q1023=
2020052000 - SABZ23 SBRJ 200000
2020052000 - METAR SBRJ 200000Z 12003KT 9999 FEW020 SCT040 BKN080 23/18 Q1024=
2020052001 - SABZ23 SBRJ 200100
2020052001 - METAR SBRJ 200100Z 08003KT 9999 SCT040 BKN080 23/19 Q1024=
2020052002 - SABZ23 SBRJ 200200
2020052002 - METAR SBRJ 200200Z 08005KT 060V130 CAVOK 23/18 Q1024=
2020052003 - Mensagem METAR de 'SBRJ' para 20/05/2020 as 03(UTC) não localizada na base de dados da REDEMET
2020052004 - Mensagem METAR de 'SBRJ' para 20/05/2020 as 04(UTC) não localizada na base de dados da REDEMET
2020052005 - Mensagem METAR de 'SBRJ' para 20/05/2020 as 05(UTC) não localizada na base de dados da REDEMET
2020052006 - Mensagem METAR de 'SBRJ' para 20/05/2020 as 06(UTC) não localizada na base de dados da REDEMET
2020052007 - Mensagem METAR de 'SBRJ' para 20/05/2020 as 07(UTC) não localizada na base de dados da REDEMET
2020052008 - Mensagem METAR de 'SBRJ' para 20/05/2020 as 08(UTC) não localizada na base de dados da REDEMET
2020052008 - SPECI SBRJ 200850Z 07004KT CAVOK 21/18 Q1022=
2020052009 - SABZ23 SBRJ 200900
2020052009 - METAR SBRJ 200900Z 06004KT CAVOK 21/18 Q1023=
2020052010 - SABZ23 SBRJ 201000
2020052010 - METAR SBRJ 201000Z 05004KT 9999 FEW010 21/18 Q1023=
2020052011 - SABZ23 SBRJ 201100
2020052011 - METAR SBRJ 201100Z 02002KT 9999 FEW010 22/19 Q1024=
2020052012 - SABZ23 SBRJ 201200
2020052012 - METAR SBRJ 201200Z 04004KT 9000 FEW018 22/19 Q1025=
2020052013 - SABZ23 SBRJ 201300
2020052013 - METAR SBRJ 201300Z 06002KT 9000 FEW020 24/19 Q1025=
2020052014 - SABZ23 SBRJ 201400
2020052014 - METAR SBRJ 201400Z 35004KT 9999 FEW025 24/19 Q1024=
2020052014 - SPECI SBRJ 201445Z 14005KT 9999 FEW025 24/19 Q1023=
2020052015 - SABZ23 SBRJ 201500
2020052015 - METAR SBRJ 201500Z 15005KT 120V190 9999 FEW023 24/19 Q1023=
2020052016 - SABZ23 SBRJ 201600
2020052016 - METAR SBRJ 201600Z 16010KT 9999 FEW023 25/19 Q1022=
2020052017 - SABZ23 SBRJ 201700
2020052017 - METAR SBRJ 201700Z 14009KT 9999 FEW023 25/20 Q1021=
2020052018 - SABZ23 SBRJ 201800
2020052018 - METAR SBRJ 201800Z 13011KT 9999 FEW023 25/20 Q1021=
2020052019 - SABZ23 SBRJ 201900
2020052019 - METAR SBRJ 201900Z 13011KT 9999 FEW023 24/20 Q1021=
2020052020 - SABZ23 SBRJ 202000
2020052020 - METAR SBRJ 202000Z 12009KT 9999 FEW025 24/19 Q1021=
2020052021 - SABZ23 SBRJ 202100
2020052021 - METAR SBRJ 202100Z 11006KT 9999 FEW020 23/19 Q1021=
2020052022 - SABZ23 SBRJ 202200
2020052022 - METAR SBRJ 202200Z 11005KT 9999 FEW020 23/18 Q1021=
2020052023 - SABZ23 SBRJ 202300
2020052023 - METAR SBRJ 202300Z 11005KT 9999 FEW020 23/17 Q1022=
2020052100 - SABZ23 SBRJ 210000
2020052100 - METAR SBRJ 210000Z 09005KT 9999 FEW020 23/17 Q1022=
2020052101 - SABZ23 SBRJ 210100
2020052101 - METAR SBRJ 210100Z 07002KT CAVOK 22/17 Q1022=
2020052102 - SABZ23 SBRJ 210200
2020052102 - METAR SBRJ 210200Z 07005KT CAVOK 22/17 Q1022=
2020052103 - Mensagem METAR de 'SBRJ' para 21/05/2020 as 03(UTC) não localizada na base de dados da REDEMET
2020052104 - Mensagem METAR de 'SBRJ' para 21/05/2020 as 04(UTC) não localizada na base de dados da REDEMET
2020052105 - Mensagem METAR de 'SBRJ' para 21/05/2020 as 05(UTC) não localizada na base de dados da REDEMET
2020052106 - Mensagem METAR de 'SBRJ' para 21/05/2020 as 06(UTC) não localizada na base de dados da REDEMET
2020052107 - Mensagem METAR de 'SBRJ' para 21/05/2020 as 07(UTC) não localizada na base de dados da REDEMET
2020052108 - Mensagem METAR de 'SBRJ' para 21/05/2020 as 08(UTC) não localizada na base de dados da REDEMET
2020052108 - SPECI SBRJ 210850Z 04003KT 020V080 CAVOK 20/17 Q1020=
2020052109 - SABZ23 SBRJ 210900
2020052109 - METAR SBRJ 210900Z 03003KT CAVOK 20/18 Q1020=
2020052110 - SABZ23 SBRJ 211000
2020052110 - METAR SBRJ 211000Z 05005KT CAVOK 21/17 Q1021=
2020052111 - SABZ23 SBRJ 211100
2020052111 - METAR SBRJ 211100Z 03007KT 7000 NSC 21/18 Q1021=
2020052112 - SABZ23 SBRJ 211200
2020052112 - METAR SBRJ 211200Z VRB02KT CAVOK 22/18 Q1021=
2020052113 - SABZ23 SBRJ 211300
2020052113 - METAR SBRJ 211300Z 36003KT 330V050 9999 FEW020 22/18 Q1021=
2020052114 - SABZ23 SBRJ 211400
2020052114 - METAR SBRJ 211400Z 01004KT 320V030 9999 FEW020 24/19 Q1021=
2020052115 - SABZ23 SBRJ 211500
2020052115 - METAR SBRJ 211500Z 01002KT 9999 FEW025 25/19 Q1019=
2020052116 - SABZ23 SBRJ 211600
2020052116 - METAR SBRJ 211600Z 15005KT 9999 FEW025 25/18 Q1018=
2020052117 - SABZ23 SBRJ 211700
2020052117 - METAR SBRJ 211700Z 15008KT 9999 FEW030 25/19 Q1017=
2020052118 - SABZ23 SBRJ 211800
2020052118 - METAR SBRJ 211800Z 16009KT 9999 FEW030 26/20 Q1016=
2020052119 - SABZ23 SBRJ 211900
2020052119 - METAR SBRJ 211900Z 17008KT 9999 FEW030 25/20 Q1016=
2020052120 - SABZ23 SBRJ 212000
2020052120 - METAR SBRJ 212000Z 17008KT CAVOK 24/21 Q1016=
2020052121 - SABZ23 SBRJ 212100
2020052121 - METAR SBRJ 212100Z 19005KT CAVOK 24/19 Q1017=
2020052122 - SABZ23 SBRJ 212200
2020052122 - METAR SBRJ 212200Z 12004KT 100V160 CAVOK 25/19 Q1017=
2020052123 - SABZ23 SBRJ 212300
2020052123 - METAR SBRJ 212300Z 16003KT 130V190 CAVOK 24/19 Q1018=
2020052200 - SABZ23 SBRJ 220000
2020052200 - METAR SBRJ 220000Z 22002KT CAVOK 24/19 Q1018=
2020052201 - SABZ23 SBRJ 220100
2020052201 - METAR SBRJ 220100Z VRB01KT CAVOK 23/19 Q1018=
2020052202 - SABZ23 SBRJ 220200
2020052202 - METAR SBRJ 220200Z VRB01KT CAVOK 23/19 Q1018=
2020052203 - Mensagem METAR de 'SBRJ' para 22/05/2020 as 03(UTC) não localizada na base de dados da REDEMET
2020052204 - Mensagem METAR de 'SBRJ' para 22/05/2020 as 04(UTC) não localizada na base de dados da REDEMET
2020052205 - Mensagem METAR de 'SBRJ' para 22/05/2020 as 05(UTC) não localizada na base de dados da REDEMET
2020052206 - Mensagem METAR de 'SBRJ' para 22/05/2020 as 06(UTC) não localizada na base de dados da REDEMET
2020052207 - Mensagem METAR de 'SBRJ' para 22/05/2020 as 07(UTC) não localizada na base de dados da REDEMET
2020052208 - Mensagem METAR de 'SBRJ' para 22/05/2020 as 08(UTC) não localizada na base de dados da REDEMET
2020052208 - SPECI SBRJ 220850Z 36002KT CAVOK 22/17 Q1016=
2020052209 - SABZ23 SBRJ 220900
2020052209 - METAR SBRJ 220900Z 36002KT CAVOK 22/18 Q1016=
2020052210 - SABZ23 SBRJ 221000
2020052210 - METAR SBRJ 221000Z 31003KT CAVOK 22/18 Q1016=
2020052211 - SABZ23 SBRJ 221100
2020052211 - METAR SBRJ 221100Z 36003KT CAVOK 23/18 Q1017=
2020052212 - SABZ23 SBRJ 221200
2020052212 - METAR SBRJ 221200Z 36002KT CAVOK 24/18 Q1018=
2020052213 - SABZ23 SBRJ 221300
2020052213 - METAR SBRJ 221300Z 08002KT CAVOK 25/19 Q1018=
2020052214 - SABZ23 SBRJ 221400
2020052214 - METAR SBRJ 221400Z 01004KT CAVOK 26/18 Q1017=
2020052215 - SABZ23 SBRJ 221500
2020052215 - METAR SBRJ 221500Z 36004KT CAVOK 27/18 Q1016=
2020052216 - SABZ23 SBRJ 221600
2020052216 - METAR SBRJ 221600Z 36004KT CAVOK 27/18 Q1014=
2020052217 - SABZ23 SBRJ 221700
2020052217 - METAR SBRJ 221700Z 34005KT CAVOK 28/20 Q1014=
2020052218 - SABZ23 SBRJ 221800
2020052218 - METAR SBRJ 221800Z 02005KT CAVOK 28/20 Q1013=
2020052219 - SABZ23 SBRJ 221900
2020052219 - METAR SBRJ 221900Z 17006KT CAVOK 27/20 Q1013=
2020052220 - SABZ23 SBRJ 222000
2020052220 - METAR SBRJ 222000Z 19006KT CAVOK 26/20 Q1013=
2020052221 - SABZ23 SBRJ 222100
2020052221 - METAR SBRJ 222100Z 14002KT CAVOK 27/18 Q1013=
2020052222 - SABZ23 SBRJ 222200
2020052222 - METAR SBRJ 222200Z 36003KT CAVOK 26/20 Q1013=
2020052223 - SABZ23 SBRJ 222300
2020052223 - METAR SBRJ 222300Z 34003KT CAVOK 26/19 Q1014=
2020052300 - SABZ23 SBRJ 230000
2020052300 - METAR SBRJ 230000Z 32004KT CAVOK 26/18 Q1014=
2020052301 - SABZ23 SBRJ 230100
2020052301 - METAR SBRJ 230100Z 32005KT CAVOK 25/19 Q1014=
2020052302 - SABZ23 SBRJ 230200
2020052302 - METAR SBRJ 230200Z 32005KT CAVOK 24/19 Q1014=
2020052303 - Mensagem METAR de 'SBRJ' para 23/05/2020 as 03(UTC) não localizada na base de dados da REDEMET
2020052304 - Mensagem METAR de 'SBRJ' para 23/05/2020 as 04(UTC) não localizada na base de dados da REDEMET
2020052305 - Mensagem METAR de 'SBRJ' para 23/05/2020 as 05(UTC) não localizada na base de dados da REDEMET
2020052306 - Mensagem METAR de 'SBRJ' para 23/05/2020 as 06(UTC) não localizada na base de dados da REDEMET
2020052307 - Mensagem METAR de 'SBRJ' para 23/05/2020 as 07(UTC) não localizada na base de dados da REDEMET
2020052308 - Mensagem METAR de 'SBRJ' para 23/05/2020 as 08(UTC) não localizada na base de dados da REDEMET
2020052308 - SPECI SBRJ 230850Z 35003KT CAVOK 23/20 Q1012=
2020052309 - SABZ23 SBRJ 230900
2020052309 - METAR SBRJ 230900Z 35004KT CAVOK 23/20 Q1012=
2020052310 - SABZ23 SBRJ 231000
2020052310 - METAR SBRJ 231000Z 32007KT CAVOK 23/20 Q1013=
2020052311 - SABZ23 SBRJ 231100
2020052311 - METAR SBRJ 231100Z 34006KT CAVOK 25/21 Q1013=
2020052312 - SABZ23 SBRJ 231200
2020052312 - METAR SBRJ 231200Z 31007KT CAVOK 27/18 Q1014=
2020052313 - SABZ23 SBRJ 231300
2020052313 - METAR SBRJ 231300Z 32008KT CAVOK 28/19 Q1013=
2020052314 - SABZ23 SBRJ 231400
2020052314 - METAR SBRJ 231400Z 02009KT CAVOK 27/20 Q1012=
2020052315 - SABZ23 SBRJ 231500
2020052315 - METAR SBRJ 231500Z 03007KT CAVOK 28/20 Q1011=
2020052316 - SABZ23 SBRJ 231600
2020052316 - METAR SBRJ 231600Z 31007KT CAVOK 32/19 Q1011=
2020052317 - SABZ23 SBRJ 231700
2020052317 - METAR SBRJ 231700Z 30014KT 9999 FEW030 SCT100 32/18 Q1010=
2020052318 - SABZ23 SBRJ 231800
2020052318 - METAR SBRJ 231800Z 32012KT 9999 FEW030 BKN100 31/19 Q1009=
2020052319 - SABZ23 SBRJ 231900
2020052319 - METAR SBRJ 231900Z 31009KT 9999 FEW030 BKN100 32/18 Q1009=
2020052320 - SABZ23 SBRJ 232000
2020052320 - METAR SBRJ 232000Z 34006KT 9999 FEW030 BKN100 29/20 Q1010=
2020052321 - SABZ23 SBRJ 232100
2020052321 - METAR SBRJ 232100Z 34006KT 9999 FEW025 BKN100 28/20 Q1010=
2020052322 - SABZ23 SBRJ 232200
2020052322 - METAR SBRJ 232200Z 32005KT 9999 FEW025 BKN100 27/21 Q1010=
2020052323 - SABZ23 SBRJ 232300
2020052323 - METAR SBRJ 232300Z 31005KT 9999 FEW025 BKN100 29/20 Q1011=
2020052400 - SABZ23 SBRJ 240000
2020052400 - METAR SBRJ 240000Z 35004KT CAVOK 27/21 Q1011=
2020052401 - SABZ23 SBRJ 240100
2020052401 - METAR SBRJ 240100Z 28007KT CAVOK 30/19 Q1012=
2020052402 - SABZ23 SBRJ 240200
2020052402 - METAR SBRJ 240200Z 31006KT CAVOK 28/20 Q1012=
2020052403 - Mensagem METAR de 'SBRJ' para 24/05/2020 as 03(UTC) não localizada na base de dados da REDEMET
2020052404 - Mensagem METAR de 'SBRJ' para 24/05/2020 as 04(UTC) não localizada na base de dados da REDEMET
2020052405 - Mensagem METAR de 'SBRJ' para 24/05/2020 as 05(UTC) não localizada na base de dados da REDEMET
2020052406 - Mensagem METAR de 'SBRJ' para 24/05/2020 as 06(UTC) não localizada na base de dados da REDEMET
2020052407 - Mensagem METAR de 'SBRJ' para 24/05/2020 as 07(UTC) não localizada na base de dados da REDEMET
2020052408 - Mensagem METAR de 'SBRJ' para 24/05/2020 as 08(UTC) não localizada na base de dados da REDEMET
2020052408 - SPECI SBRJ 240850Z 19013KT 8000 -RA BKN010 BKN100 24/20 Q1013=
2020052409 - SABZ23 SBRJ 240900
2020052409 - METAR SBRJ 240900Z 19011KT 8000 -RA BKN010 BKN100 23/20 Q1013=
2020052409 - SPECI SBRJ 240923Z 18010KT 9999 -RA FEW012 SCT050 BKN100 23/20 Q1014=
2020052410 - SABZ23 SBRJ 241000
2020052410 - METAR SBRJ 241000Z 19011KT 9999 SCT025 BKN090 23/19 Q1014=
2020052411 - SABZ23 SBRJ 241100
2020052411 - METAR SBRJ 241100Z 19011KT 9999 -RA SCT023 OVC090 23/19 Q1015=
2020052412 - SABZ23 SBRJ 241200
2020052412 - METAR SBRJ 241200Z 18010KT 9999 -RA BKN023 OVC090 23/20 Q1015=
2020052413 - SABZ23 SBRJ 241300
2020052413 - METAR SBRJ 241300Z 18011KT 9999 BKN023 OVC090 23/19 Q1016=
2020052414 - SABZ23 SBRJ 241400
2020052414 - METAR SBRJ 241400Z 17009KT 9999 BKN023 OVC090 23/18 Q1016=
2020052415 - SABZ23 SBRJ 241500
2020052415 - METAR SBRJ 241500Z 19010KT 9999 BKN023 OVC080 23/18 Q1015=
2020052416 - SABZ23 SBRJ 241600
2020052416 - METAR SBRJ 241600Z 19008KT 9999 BKN025 OVC080 23/18 Q1014=
2020052417 - SABZ23 SBRJ 241700
2020052417 - METAR SBRJ 241700Z 19011KT 5000 RA BR FEW016 BKN023 OVC080 21/18 Q1014=
2020052418 - SABZ23 SBRJ 241800
2020052418 - METAR SBRJ 241800Z 19009KT 5000 RA BR BKN014 BKN023 OVC080 20/18 Q1014=
2020052419 - SABZ23 SBRJ 241900
2020052419 - METAR SBRJ 241900Z 19011KT 7000 -RA BKN014 BKN023 OVC080 20/17 Q1015 RERA=
2020052420 - SABZ23 SBRJ 242000
2020052420 - METAR SBRJ 242000Z 19007KT 8000 -RA BKN014 BKN023 OVC070 20/17 Q1015=
2020052421 - SABZ23 SBRJ 242100
2020052421 - METAR SBRJ 242100Z 17004KT 8000 -RA FEW018 BKN030 OVC070 20/17 Q1015=
2020052422 - SABZ23 SBRJ 242200
2020052422 - METAR SBRJ 242200Z 19003KT 130V250 8000 -RA FEW020 BKN040 OVC080 20/17 Q1014=
2020052423 - SABZ23 SBRJ 242300
2020052423 - METAR SBRJ 242300Z 10005KT 080V180 9999 FEW025 BKN050 OVC080 20/18 Q1015=
2020052500 - SABZ23 SBRJ 250000
2020052500 - METAR SBRJ 250000Z 29005KT 260V330 9000 -RA FEW010 BKN025 OVC080 20/18 Q1016=
2020052501 - SABZ23 SBRJ 250100
2020052501 - METAR SBRJ 250100Z 30005KT 9000 FEW010 BKN025 OVC080 20/18 Q1016=
2020052502 - SABZ23 SBRJ 250200
2020052502 - METAR SBRJ 250200Z VRB02KT 9999 FEW010 SCT025 BKN080 20/18 Q1015=
2020052503 - Mensagem METAR de 'SBRJ' para 25/05/2020 as 03(UTC) não localizada na base de dados da REDEMET
2020052504 - Mensagem METAR de 'SBRJ' para 25/05/2020 as 04(UTC) não localizada na base de dados da REDEMET
2020052505 - Mensagem METAR de 'SBRJ' para 25/05/2020 as 05(UTC) não localizada na base de dados da REDEMET
2020052506 - Mensagem METAR de 'SBRJ' para 25/05/2020 as 06(UTC) não localizada na base de dados da REDEMET
2020052507 - Mensagem METAR de 'SBRJ' para 25/05/2020 as 07(UTC) não localizada na base de dados da REDEMET
2020052508 - Mensagem METAR de 'SBRJ' para 25/05/2020 as 08(UTC) não localizada na base de dados da REDEMET
2020052508 - SPECI SBRJ 250850Z 34006KT 7000 -RA BKN007 OVC015 19/18 Q1014=
2020052509 - SABZ23 SBRJ 250900
2020052509 - METAR SBRJ 250900Z 33007KT 7000 -RA BKN007 OVC015 19/18 Q1013=
2020052510 - SABZ23 SBRJ 251000
2020052510 - METAR SBRJ 251000Z 31005KT 9999 BKN009 OVC020 20/18 Q1014=
2020052510 - SPECI SBRJ 251030Z 32005KT 9999 FEW008 SCT020 19/17 Q1013=
2020052511 - SABZ23 SBRJ 251100
2020052511 - METAR SBRJ 251100Z 34005KT 9999 FEW008 SCT019 20/18 Q1013=
2020052512 - SABZ23 SBRJ 251200
2020052512 - METAR SBRJ 251200Z 01004KT 9999 SCT018 21/18 Q1013=
2020052513 - SABZ23 SBRJ 251300
2020052513 - METAR SBRJ 251300Z 01004KT 9999 FEW018 22/18 Q1013=
2020052514 - SABZ23 SBRJ 251400
2020052514 - METAR SBRJ 251400Z 33003KT 9999 FEW018 22/17 Q1012=
2020052514 - SPECI SBRJ 251427Z 11003KT 9999 FEW018 23/18 Q1012=
2020052515 - SABZ23 SBRJ 251500
2020052515 - METAR SBRJ 251500Z 13006KT 9999 FEW018 23/18 Q1012=
2020052516 - SABZ23 SBRJ 251600
2020052516 - METAR SBRJ 251600Z 16008KT 9999 FEW018 23/17 Q1011=
2020052517 - SABZ23 SBRJ 251700
2020052517 - METAR SBRJ 251700Z 16009KT 9999 FEW018 23/17 Q1010=
2020052518 - SABZ23 SBRJ 251800
2020052518 - METAR SBRJ 251800Z 16008KT 9999 FEW018 23/17 Q1009=
2020052519 - SABZ23 SBRJ 251900
2020052519 - METAR SBRJ 251900Z 16007KT CAVOK 23/17 Q1008=
2020052520 - SABZ23 SBRJ 252000
2020052520 - METAR SBRJ 252000Z 19008KT CAVOK 22/18 Q1008=
2020052521 - SABZ23 SBRJ 252100
2020052521 - METAR SBRJ 252100Z 20007KT CAVOK 22/18 Q1009=
2020052522 - SABZ23 SBRJ 252200
2020052522 - METAR SBRJ 252200Z 19008KT CAVOK 21/18 Q1009=
2020052523 - SABZ23 SBRJ 252300
2020052523 - METAR SBRJ 252300Z 23003KT CAVOK 22/18 Q1010=
2020052523 - SPECI SBRJ 252340Z 32004KT CAVOK 21/18 Q1010=
2020052600 - SABZ23 SBRJ 260000
2020052600 - METAR SBRJ 260000Z 30005KT CAVOK 22/18 Q1010=
2020052601 - SABZ23 SBRJ 260100
2020052601 - METAR SBRJ 260100Z 33005KT CAVOK 22/18 Q1009=
2020052602 - SABZ23 SBRJ 260200
2020052602 - METAR SBRJ 260200Z 30005KT CAVOK 21/18 Q1010=
2020052603 - Mensagem METAR de 'SBRJ' para 26/05/2020 as 03(UTC) não localizada na base de dados da REDEMET
2020052604 - Mensagem METAR de 'SBRJ' para 26/05/2020 as 04(UTC) não localizada na base de dados da REDEMET
2020052605 - Mensagem METAR de 'SBRJ' para 26/05/2020 as 05(UTC) não localizada na base de dados da REDEMET
2020052606 - Mensagem METAR de 'SBRJ' para 26/05/2020 as 06(UTC) não localizada na base de dados da REDEMET
2020052607 - Mensagem METAR de 'SBRJ' para 26/05/2020 as 07(UTC) não localizada na base de dados da REDEMET
2020052608 - Mensagem METAR de 'SBRJ' para 26/05/2020 as 08(UTC) não localizada na base de dados da REDEMET
2020052608 - SPECI SBRJ 260850Z 01006KT CAVOK 19/16 Q1011=
2020052609 - SABZ23 SBRJ 260900
2020052609 - METAR SBRJ 260900Z 35006KT CAVOK 19/15 Q1011=
2020052610 - SABZ23 SBRJ 261000
2020052610 - METAR SBRJ 261000Z 03005KT CAVOK 19/17 Q1012=
2020052611 - SABZ23 SBRJ 261100
2020052611 - METAR SBRJ 261100Z 34005KT 9999 FEW025 20/14 Q1013=
2020052612 - SABZ23 SBRJ 261200
2020052612 - METAR SBRJ 261200Z 34008KT 9999 FEW020 21/14 Q1013=
2020052613 - SABZ23 SBRJ 261300
2020052613 - METAR SBRJ 261300Z VRB05KT 9999 FEW018 24/11 Q1013=
2020052614 - SABZ23 SBRJ 261400
2020052614 - METAR SBRJ 261400Z VRB06KT 9999 FEW018 24/10 Q1013=
2020052615 - SABZ23 SBRJ 261500
2020052615 - METAR SBRJ 261500Z 23008KT CAVOK 24/11 Q1012=
2020052616 - SABZ23 SBRJ 261600
2020052616 - METAR SBRJ 261600Z 21010KT CAVOK 24/11 Q1011=
2020052617 - SABZ23 SBRJ 261700
2020052617 - METAR SBRJ 261700Z 21011KT CAVOK 24/11 Q1011=
2020052618 - SABZ23 SBRJ 261800
2020052618 - METAR SBRJ 261800Z 19010KT CAVOK 23/11 Q1011=
2020052619 - SABZ23 SBRJ 261900
2020052619 - METAR SBRJ 261900Z 21012KT CAVOK 23/11 Q1011=
2020052620 - SABZ23 SBRJ 262000
2020052620 - METAR SBRJ 262000Z 21010KT CAVOK 22/11 Q1012=
2020052621 - SABZ23 SBRJ 262100
2020052621 - METAR SBRJ 262100Z 21008KT CAVOK 21/12 Q1012=
2020052622 - SABZ23 SBRJ 262200
2020052622 - METAR SBRJ 262200Z 23005KT CAVOK 21/12 Q1013=
2020052623 - SABZ23 SBRJ 262300
2020052623 - METAR SBRJ 262300Z 22003KT CAVOK 21/12 Q1013=
2020052700 - SABZ23 SBRJ 270000
2020052700 - METAR SBRJ 270000Z 28004KT CAVOK 21/13 Q1013=
2020052701 - SABZ23 SBRJ 270100
2020052701 - METAR SBRJ 270100Z 28003KT CAVOK 20/13 Q1013=
2020052702 - SABZ23 SBRJ 270200
2020052702 - METAR SBRJ 270200Z 30005KT CAVOK 20/14 Q1013=
2020052703 - Mensagem METAR de 'SBRJ' para 27/05/2020 as 03(UTC) não localizada na base de dados da REDEMET
2020052704 - Mensagem METAR de 'SBRJ' para 27/05/2020 as 04(UTC) não localizada na base de dados da REDEMET
2020052705 - Mensagem METAR de 'SBRJ' para 27/05/2020 as 05(UTC) não localizada na base de dados da REDEMET
2020052706 - Mensagem METAR de 'SBRJ' para 27/05/2020 as 06(UTC) não localizada na base de dados da REDEMET
2020052707 - Mensagem METAR de 'SBRJ' para 27/05/2020 as 07(UTC) não localizada na base de dados da REDEMET
2020052708 - Mensagem METAR de 'SBRJ' para 27/05/2020 as 08(UTC) não localizada na base de dados da REDEMET
2020052708 - SPECI SBRJ 270850Z 33007KT CAVOK 17/14 Q1014=
2020052709 - SABZ23 SBRJ 270900
2020052709 - METAR SBRJ 270900Z 32005KT CAVOK 17/14 Q1014=
2020052710 - SABZ23 SBRJ 271000
2020052710 - METAR SBRJ 271000Z 34004KT CAVOK 17/14 Q1015=
2020052711 - SABZ23 SBRJ 271100
2020052711 - METAR SBRJ 271100Z 30004KT CAVOK 19/14 Q1015=
2020052712 - SABZ23 SBRJ 271200
2020052712 - METAR SBRJ 271200Z 35008KT CAVOK 19/15 Q1016=
2020052713 - SABZ23 SBRJ 271300
2020052713 - METAR SBRJ 271300Z 35007KT CAVOK 21/15 Q1016=
2020052714 - SABZ23 SBRJ 271400
2020052714 - METAR SBRJ 271400Z 35007KT CAVOK 22/14 Q1016=
2020052715 - SABZ23 SBRJ 271500
2020052715 - METAR SBRJ 271500Z 24013KT 200V260 9999 SCT040 25/13 Q1016=
2020052716 - SABZ23 SBRJ 271600
2020052716 - METAR SBRJ 271600Z 25010KT 220V300 9999 SCT040 24/13 Q1015=
2020052717 - SABZ23 SBRJ 271700
2020052717 - METAR SBRJ 271700Z 26010KT 220V300 9999 SCT040 23/13 Q1015=
2020052718 - SABZ23 SBRJ 271800
2020052718 - METAR SBRJ 271800Z 23010KT 180V270 9999 SCT040 24/15 Q1016=
2020052719 - SABZ23 SBRJ 271900
2020052719 - METAR SBRJ 271900Z 21013KT 9999 SCT030 23/14 Q1016=
2020052720 - SABZ23 SBRJ 272000
2020052720 - METAR SBRJ 272000Z 21012KT 9999 SCT030 22/14 Q1017=
2020052721 - SABZ23 SBRJ 272100
2020052721 - METAR SBRJ 272100Z 22011KT 9999 SCT030 SCT050 22/13 Q1017=
2020052722 - SABZ23 SBRJ 272200
2020052722 - METAR SBRJ 272200Z 22010KT 9999 SCT030 SCT050 22/13 Q1018=
2020052723 - SABZ23 SBRJ 272300
2020052723 - METAR SBRJ 272300Z 21013KT 9999 FEW030 BKN050 22/13 Q1018=
2020052800 - SABZ23 SBRJ 280000
2020052800 - METAR SBRJ 280000Z 23006KT 9999 FEW030 BKN045 21/14 Q1018=
2020052801 - SABZ23 SBRJ 280100
2020052801 - METAR SBRJ 280100Z 22008KT 9999 FEW030 BKN045 21/14 Q1019=
2020052802 - SABZ23 SBRJ 280200
2020052802 - METAR SBRJ 280200Z 21009KT 9999 FEW030 BKN045 21/14 Q1019=
2020052803 - Mensagem METAR de 'SBRJ' para 28/05/2020 as 03(UTC) não localizada na base de dados da REDEMET
2020052804 - Mensagem METAR de 'SBRJ' para 28/05/2020 as 04(UTC) não localizada na base de dados da REDEMET
2020052805 - Mensagem METAR de 'SBRJ' para 28/05/2020 as 05(UTC) não localizada na base de dados da REDEMET
2020052806 - Mensagem METAR de 'SBRJ' para 28/05/2020 as 06(UTC) não localizada na base de dados da REDEMET
2020052807 - Mensagem METAR de 'SBRJ' para 28/05/2020 as 07(UTC) não localizada na base de dados da REDEMET
2020052808 - Mensagem METAR de 'SBRJ' para 28/05/2020 as 08(UTC) não localizada na base de dados da REDEMET
2020052808 - SPECI SBRJ 280850Z 32006KT 9999 BKN045 20/14 Q1019=
2020052809 - SABZ23 SBRJ 280900
2020052809 - METAR SBRJ 280900Z 33007KT 9999 BKN045 19/16 Q1019=
2020052810 - SABZ23 SBRJ 281000
2020052810 - METAR SBRJ 281000Z 32010KT 9999 BKN045 19/15 Q1019=
2020052811 - SABZ23 SBRJ 281100
2020052811 - METAR SBRJ 281100Z 32007KT 290V350 9999 BKN045 20/15 Q1020=
2020052812 - SABZ23 SBRJ 281200
2020052812 - METAR SBRJ 281200Z 32009KT 9999 BKN045 20/15 Q1020=
2020052813 - SABZ23 SBRJ 281300
2020052813 - METAR SBRJ 281300Z 31009KT 9999 BKN045 22/14 Q1020=
2020052814 - SABZ23 SBRJ 281400
2020052814 - METAR SBRJ 281400Z 30005KT 240V350 9999 SCT035 BKN055 22/14 Q1020=
2020052815 - SABZ23 SBRJ 281500
2020052815 - METAR SBRJ 281500Z 11005KT 9999 SCT025 BKN050 22/15 Q1020=
2020052816 - SABZ23 SBRJ 281600
2020052816 - METAR SBRJ 281600Z 12004KT 9999 SCT025 BKN050 23/15 Q1019=
2020052817 - SABZ23 SBRJ 281700
2020052817 - METAR SBRJ 281700Z 17007KT 9999 FEW025 BKN050 23/15 Q1019=
2020052818 - SABZ23 SBRJ 281800
2020052818 - METAR SBRJ 281800Z 18010KT 9999 FEW030 BKN050 22/15 Q1019=
2020052819 - SABZ23 SBRJ 281900
2020052819 - METAR SBRJ 281900Z 19009KT 9999 FEW030 BKN050 22/15 Q1019=
2020052820 - SABZ23 SBRJ 282000
2020052820 - METAR SBRJ 282000Z 20008KT 9999 FEW030 SCT050 21/15 Q1019=
2020052821 - SABZ23 SBRJ 282100
2020052821 - METAR SBRJ 282100Z 19010KT 9999 FEW030 BKN050 21/15 Q1020=
2020052822 - SABZ23 SBRJ 282200
2020052822 - METAR SBRJ 282200Z 20008KT 9999 FEW030 BKN050 21/15 Q1020=
2020052823 - SABZ23 SBRJ 282300
2020052823 - METAR SBRJ 282300Z 19007KT CAVOK 21/15 Q1021=
2020052900 - SABZ23 SBRJ 290000
2020052900 - METAR SBRJ 290000Z 31003KT CAVOK 21/15 Q1021=
2020052901 - SABZ23 SBRJ 290100
2020052901 - METAR SBRJ 290100Z 33007KT CAVOK 20/17 Q1021=
2020052902 - SABZ23 SBRJ 290200
2020052902 - METAR SBRJ 290200Z 02005KT CAVOK 20/16 Q1021=
2020052903 - Mensagem METAR de 'SBRJ' para 29/05/2020 as 03(UTC) não localizada na base de dados da REDEMET
2020052904 - Mensagem METAR de 'SBRJ' para 29/05/2020 as 04(UTC) não localizada na base de dados da REDEMET
2020052905 - Mensagem METAR de 'SBRJ' para 29/05/2020 as 05(UTC) não localizada na base de dados da REDEMET
2020052906 - Mensagem METAR de 'SBRJ' para 29/05/2020 as 06(UTC) não localizada na base de dados da REDEMET
2020052907 - Mensagem METAR de 'SBRJ' para 29/05/2020 as 07(UTC) não localizada na base de dados da REDEMET
2020052908 - Mensagem METAR de 'SBRJ' para 29/05/2020 as 08(UTC) não localizada na base de dados da REDEMET
2020052908 - SPECI SBRJ 290850Z 02007KT 8000 BKN009 18/17 Q1021=
2020052909 - SABZ23 SBRJ 290900
2020052909 - METAR SBRJ 290900Z 01006KT 8000 BKN007 18/17 Q1021=
2020052910 - SABZ23 SBRJ 291000
2020052910 - METAR SBRJ 291000Z 36005KT 8000 BKN008 18/16 Q1022=
2020052910 - SPECI SBRJ 291045Z 33005KT 5000 BR FEW007 18/16 Q1022=
2020052911 - SABZ23 SBRJ 291100
2020052911 - METAR SBRJ 291100Z 34005KT 5000 BR FEW007 18/16 Q1022=
2020052912 - SABZ23 SBRJ 291200
2020052912 - METAR SBRJ 291200Z 36005KT 5000 BR FEW010 19/17 Q1022=
2020052913 - SABZ23 SBRJ 291300
2020052913 - METAR SBRJ 291300Z 36005KT 6000 FEW025 20/17 Q1022=
2020052914 - SABZ23 SBRJ 291400
2020052914 - METAR SBRJ 291400Z 33004KT 9999 FEW025 21/16 Q1021=
2020052915 - SABZ23 SBRJ 291500
2020052915 - METAR SBRJ 291500Z 34005KT 9999 FEW025 22/17 Q1020=
2020052916 - SABZ23 SBRJ 291600
2020052916 - METAR SBRJ 291600Z 11003KT CAVOK 23/16 Q1019=
2020052917 - SABZ23 SBRJ 291700
2020052917 - METAR SBRJ 291700Z 15008KT CAVOK 23/17 Q1019=
2020052918 - SABZ23 SBRJ 291800
2020052918 - METAR SBRJ 291800Z 16009KT CAVOK 23/17 Q1018=
2020052919 - SABZ23 SBRJ 291900
2020052919 - METAR SBRJ 291900Z 15010KT CAVOK 23/17 Q1017=
2020052920 - SABZ23 SBRJ 292000
2020052920 - METAR SBRJ 292000Z 15008KT 9999 FEW020 22/17 Q1018=
2020052921 - SABZ23 SBRJ 292100
2020052921 - METAR SBRJ 292100Z 13008KT 9999 FEW020 22/18 Q1018=
2020052922 - SABZ23 SBRJ 292200
2020052922 - METAR SBRJ 292200Z 11008KT CAVOK 22/18 Q1018=
2020052923 - SABZ23 SBRJ 292300
2020052923 - METAR SBRJ 292300Z 07005KT CAVOK 22/16 Q1019=
2020053000 - SABZ23 SBRJ 300000
2020053000 - METAR SBRJ 300000Z 12004KT CAVOK 21/16 Q1019=
2020053001 - SABZ23 SBRJ 300100
2020053001 - METAR SBRJ 300100Z 12002KT CAVOK 21/16 Q1019=
2020053002 - SABZ23 SBRJ 300200
2020053002 - METAR SBRJ 300200Z 04003KT CAVOK 20/17 Q1019=
2020053003 - Mensagem METAR de 'SBRJ' para 30/05/2020 as 03(UTC) não localizada na base de dados da REDEMET
2020053004 - Mensagem METAR de 'SBRJ' para 30/05/2020 as 04(UTC) não localizada na base de dados da REDEMET
2020053005 - Mensagem METAR de 'SBRJ' para 30/05/2020 as 05(UTC) não localizada na base de dados da REDEMET
2020053006 - Mensagem METAR de 'SBRJ' para 30/05/2020 as 06(UTC) não localizada na base de dados da REDEMET
2020053007 - Mensagem METAR de 'SBRJ' para 30/05/2020 as 07(UTC) não localizada na base de dados da REDEMET
2020053008 - Mensagem METAR de 'SBRJ' para 30/05/2020 as 08(UTC) não localizada na base de dados da REDEMET
2020053008 - SPECI SBRJ 300850Z 02005KT 9999 FEW007 19/16 Q1017=
2020053009 - SABZ23 SBRJ 300900
2020053009 - METAR SBRJ 300900Z 02004KT 9999 FEW007 19/16 Q1017=
2020053010 - SABZ23 SBRJ 301000
2020053010 - METAR SBRJ 301000Z 01004KT 9999 SCT008 18/16 Q1018=
2020053011 - SABZ23 SBRJ 301100
2020053011 - METAR SBRJ 301100Z 36006KT 9999 FEW008 19/17 Q1019=
2020053012 - SABZ23 SBRJ 301200
2020053012 - METAR SBRJ 301200Z 36007KT 9999 FEW004 19/17 Q1019=
2020053013 - SABZ23 SBRJ 301300
2020053013 - METAR SBRJ 301300Z 34006KT CAVOK 19/17 Q1019=
2020053014 - SABZ23 SBRJ 301400
2020053014 - METAR SBRJ 301400Z 36004KT CAVOK 21/18 Q1018=
2020053015 - SABZ23 SBRJ 301500
2020053015 - METAR SBRJ 301500Z 02005KT CAVOK 23/18 Q1017=
2020053016 - SABZ23 SBRJ 301600
2020053016 - METAR SBRJ 301600Z 16007KT CAVOK 24/17 Q1016=
2020053017 - SABZ23 SBRJ 301700
2020053017 - METAR SBRJ 301700Z 16011KT CAVOK 23/18 Q1016=
2020053018 - SABZ23 SBRJ 301800
2020053018 - METAR SBRJ 301800Z 16010KT CAVOK 23/18 Q1016=
2020053019 - SABZ23 SBRJ 301900
2020053019 - METAR SBRJ 301900Z 17009KT CAVOK 23/18 Q1015=
2020053020 - SABZ23 SBRJ 302000
2020053020 - METAR SBRJ 302000Z 18009KT CAVOK 22/19 Q1015=
2020053021 - SABZ23 SBRJ 302100
2020053021 - METAR SBRJ 302100Z 19007KT CAVOK 22/18 Q1016=
2020053022 - SABZ23 SBRJ 302200
2020053022 - METAR SBRJ 302200Z 19003KT CAVOK 22/18 Q1016=
2020053023 - SABZ23 SBRJ 302300
2020053023 - METAR SBRJ 302300Z 19004KT CAVOK 22/18 Q1016=
2020053100 - SABZ23 SBRJ 310000
2020053100 - METAR SBRJ 310000Z 00000KT CAVOK 21/17 Q1016=
2020053101 - SABZ23 SBRJ 310100
2020053101 - METAR SBRJ 310100Z 04004KT CAVOK 22/20 Q1016=
2020053102 - SABZ23 SBRJ 310200
2020053102 - METAR SBRJ 310200Z 01003KT CAVOK 21/19 Q1016=
2020053103 - Mensagem METAR de 'SBRJ' para 31/05/2020 as 03(UTC) não localizada na base de dados da REDEMET
2020053104 - Mensagem METAR de 'SBRJ' para 31/05/2020 as 04(UTC) não localizada na base de dados da REDEMET
2020053105 - Mensagem METAR de 'SBRJ' para 31/05/2020 as 05(UTC) não localizada na base de dados da REDEMET
2020053106 - Mensagem METAR de 'SBRJ' para 31/05/2020 as 06(UTC) não localizada na base de dados da REDEMET
2020053107 - Mensagem METAR de 'SBRJ' para 31/05/2020 as 07(UTC) não localizada na base de dados da REDEMET
2020053108 - Mensagem METAR de 'SBRJ' para 31/05/2020 as 08(UTC) não localizada na base de dados da REDEMET
2020053108 - SPECI SBRJ 310850Z 35006KT 9999 FEW007 19/18 Q1015=
2020053109 - SABZ23 SBRJ 310900
2020053109 - METAR SBRJ 310900Z 34006KT 9999 5000W NSC 19/18 Q1015=
2020053110 - SABZ23 SBRJ 311000
2020053110 - METAR SBRJ 311000Z 34005KT CAVOK 20/17 Q1016=
2020053111 - SABZ23 SBRJ 311100
2020053111 - METAR SBRJ 311100Z 33006KT 5000 BR NSC 20/18 Q1016=
2020053112 - SABZ23 SBRJ 311200
2020053112 - METAR SBRJ 311200Z 36008KT 5000 BR NSC 21/19 Q1017=
2020053113 - SABZ23 SBRJ 311300
2020053113 - METAR SBRJ 311300Z 01009KT 5000 BR NSC 22/18 Q1017=
2020053114 - SABZ23 SBRJ 311400
2020053114 - METAR SBRJ 311400Z 01008KT CAVOK 23/18 Q1016=
2020053115 - SABZ23 SBRJ 311500
2020053115 - METAR SBRJ 311500Z 01005KT CAVOK 25/19 Q1016=
2020053116 - SABZ23 SBRJ 311600
2020053116 - METAR SBRJ 311600Z 02006KT CAVOK 25/19 Q1015=
2020053117 - SABZ23 SBRJ 311700
2020053117 - METAR SBRJ 311700Z 05002KT CAVOK 26/18 Q1014=
2020053118 - SABZ23 SBRJ 311800
2020053118 - METAR SBRJ 311800Z 15003KT CAVOK 28/16 Q1014=
2020053119 - SABZ23 SBRJ 311900
2020053119 - METAR SBRJ 311900Z 19009KT CAVOK 27/11 Q1014=
2020053120 - SABZ23 SBRJ 312000
2020053120 - METAR SBRJ 312000Z 20008KT CAVOK 26/10 Q1014=
2020053121 - SABZ23 SBRJ 312100
2020053121 - METAR SBRJ 312100Z 16003KT CAVOK 24/12 Q1015=
2020053122 - SABZ23 SBRJ 312200
2020053122 - METAR SBRJ 312200Z 13005KT CAVOK 23/20 Q1015=
2020053123 - SABZ23 SBRJ 312300
2020053123 - METAR SBRJ 312300Z 17002KT CAVOK 23/19 Q1015=
