
2020030100 - SABZ23 SBRJ 010000
2020030100 - METAR SBRJ 010000Z 11009KT 4500 BR FEW005 BKN010 BKN030 24/22 Q1015=
2020030101 - SABZ23 SBRJ 010100
2020030101 - METAR SBRJ 010100Z 11013KT 4500 BR FEW005 BKN013 BKN025 24/22 Q1015=
2020030102 - SABZ23 SBRJ 010200
2020030102 - METAR SBRJ 010200Z 13008KT 4000 -RA BR FEW004 BKN010 BKN025 24/22 Q1015=
2020030103 - SABZ23 SBRJ 010300
2020030103 - METAR SBRJ 010300Z 13008KT 3000 RA BR SCT004 BKN008 BKN020 23/23 Q1014=
2020030104 - SABZ23 SBRJ 010400
2020030104 - METAR SBRJ 010400Z 14016KT 4000 -RA BR BKN008 OVC015 23/22 Q1014 RERA=
2020030105 - SABZ23 SBRJ 010500
2020030105 - METAR SBRJ 010500Z 14018KT 3000 -RA BR BKN007 OVC015 23/22 Q1014=
2020030106 - SABZ23 SBRJ 010600
2020030106 - METAR SBRJ 010600Z 14018KT 4000 -RA BR BKN007 OVC015 23/22 Q1013=
2020030106 - SPECI SBRJ 010630Z 14015KT 4000 RA BR BKN008 OVC020 23/22 Q1013=
2020030107 - SABZ23 SBRJ 010700
2020030107 - METAR SBRJ 010700Z 16012KT 4000 -RA BR BKN009 OVC020 23/22 Q1013 RERA=
2020030108 - SABZ23 SBRJ 010800
2020030108 - METAR SBRJ 010800Z 18010KT 4000 -RA BR BKN012 OVC020 23/21 Q1014=
2020030109 - SABZ23 SBRJ 010900
2020030109 - METAR SBRJ 010900Z 17009KT 3000 -RA BR BKN007 OVC015 23/22 Q1014=
2020030110 - SABZ23 SBRJ 011000
2020030110 - METAR SBRJ 011000Z 15011KT 6000 -RA SCT005 BKN008 OVC015 24/23 Q1014=
2020030111 - SABZ23 SBRJ 011100
2020030111 - METAR SBRJ 011100Z 06003KT 6000 -RA SCT005 BKN007 OVC020 24/22 Q1015=
2020030112 - SABZ23 SBRJ 011200
2020030112 - METAR SBRJ 011200Z 32008KT 7000 FEW004 BKN007 OVC020 23/22 Q1015=
2020030113 - SABZ23 SBRJ 011300
2020030113 - METAR SBRJ 011300Z 12001KT 7000 FEW004 BKN007 OVC030 24/22 Q1016=
2020030113 - SPECI SBRJ 011345Z 34003KT 9000 FEW004 SCT015 OVC035 24/23 Q1015=
2020030114 - SABZ23 SBRJ 011400
2020030114 - METAR SBRJ 011400Z 34003KT 9999 FEW004 SCT015 BKN040 24/23 Q1015=
2020030115 - SABZ23 SBRJ 011500
2020030115 - METAR SBRJ 011500Z 16008KT 9000 -RA FEW005 BKN015 BKN050 24/22 Q1015=
2020030116 - SABZ23 SBRJ 011600
2020030116 - METAR SBRJ 011600Z 19007KT 6000 -RADZ FEW004 SCT013 BKN060 23/22 Q1015=
2020030117 - SABZ23 SBRJ 011700
2020030117 - METAR SBRJ 011700Z 14011KT 3500 -RADZ BR FEW004 BKN008 OVC025 23/22 Q1015=
2020030118 - SABZ23 SBRJ 011800
2020030118 - METAR SBRJ 011800Z 12012KT 4500 -DZ BR FEW006 BKN013 OVC025 23/21 Q1015=
2020030119 - SABZ23 SBRJ 011900
2020030119 - METAR SBRJ 011900Z 09006KT 030V120 9999 -RA FEW006 BKN013 BKN025 23/21 Q1015=
2020030120 - SABZ23 SBRJ 012000
2020030120 - METAR SBRJ 012000Z 18004KT 140V240 9999 -RA FEW008 BKN013 BKN040 23/21 Q1015=
2020030120 - SPECI SBRJ 012040Z 33005KT 280V010 9999 -RA FEW008 BKN010 BKN080 23/21 Q1015=
2020030121 - SABZ23 SBRJ 012100
2020030121 - METAR SBRJ 012100Z 05008KT 9999 -RA FEW007 BKN010 BKN080 23/21 Q1016=
2020030122 - SABZ23 SBRJ 012200
2020030122 - METAR SBRJ 012200Z 08007KT 8000 -RA FEW007 BKN010 OVC080 23/21 Q1016=
2020030123 - SABZ23 SBRJ 012300
2020030123 - METAR SBRJ 012300Z 10005KT 8000 -RA BKN010 OVC080 23/21 Q1016=
2020030200 - SABZ23 SBRJ 020000
2020030200 - METAR SBRJ 020000Z 06005KT 8000 BKN013 BKN040 OVC100 23/20 Q1017=
2020030201 - SABZ23 SBRJ 020100
2020030201 - METAR SBRJ 020100Z 04001KT 8000 -RA BKN013 BKN040 OVC100 22/20 Q1017=
2020030202 - SABZ23 SBRJ 020200
2020030202 - METAR SBRJ 020200Z 35004KT 8000 -RA BKN010 BKN040 OVC080 22/19 Q1018=
2020030203 - SABZ23 SBRJ 020300
2020030203 - METAR SBRJ 020300Z 36004KT 8000 -RA BKN010 BKN040 OVC080 22/19 Q1017=
2020030204 - SABZ23 SBRJ 020400
2020030204 - METAR SBRJ 020400Z 26001KT 9999 FEW020 SCT050 BKN080 22/20 Q1016=
2020030205 - SABZ23 SBRJ 020500
2020030205 - METAR SBRJ 020500Z 13008KT 9999 FEW020 SCT050 BKN080 22/20 Q1015=
2020030206 - SABZ23 SBRJ 020600
2020030206 - METAR SBRJ 020600Z 18005KT 9999 FEW020 SCT050 BKN100 22/20 Q1015=
2020030207 - SABZ23 SBRJ 020700
2020030207 - METAR SBRJ 020700Z 20002KT 9999 FEW020 SCT050 BKN100 22/19 Q1015=
2020030208 - SABZ23 SBRJ 020800
2020030208 - METAR SBRJ 020800Z 23003KT 9999 FEW020 SCT050 BKN100 22/19 Q1015=
2020030209 - SABZ23 SBRJ 020900
2020030209 - METAR SBRJ 020900Z 09004KT 9999 FEW020 BKN030 BKN100 23/20 Q1015=
2020030210 - SABZ23 SBRJ 021000
2020030210 - METAR SBRJ 021000Z VRB02KT 9000 -RA FEW008 BKN035 OVC080 23/20 Q1016=
2020030210 - SPECI SBRJ 021030Z 33006KT 300V360 6000 -RA FEW008 BKN012 BKN035 22/20 Q1017=
2020030210 - SPECI SBRJ 021045Z 32006KT 290V350 5000 -RA BR BKN007 BKN015 OVC050 22/20 Q1017=
2020030211 - SABZ23 SBRJ 021100
2020030211 - METAR SBRJ 021100Z 31006KT 290V350 5000 -RA BR BKN007 BKN015 OVC035 22/21 Q1017=
2020030211 - SPECI SBRJ 021125Z 32004KT 6000 -RA SCT007 BKN012 BKN050 22/21 Q1017=
2020030212 - SABZ23 SBRJ 021202
2020030212 - METAR SBRJ 021200Z 02005KT 9000 -RA SCT007 BKN012 BKN050 21/20 Q1017=
2020030213 - SABZ23 SBRJ 021300
2020030213 - METAR SBRJ 021300Z 02005KT 6000 -RA SCT007 BKN018 BKN040 21/20 Q1017=
2020030214 - SABZ23 SBRJ 021400
2020030214 - METAR SBRJ 021400Z 01005KT 4000 -RA BR FEW004 BKN008 OVC025 21/21 Q1017=
2020030215 - SABZ23 SBRJ 021500
2020030215 - METAR SBRJ 021500Z 02003KT 4000 -RA BR FEW005 BKN010 BKN030 22/20 Q1016=
2020030216 - SABZ23 SBRJ 021600
2020030216 - METAR SBRJ 021600Z 10002KT 4000 -RA BR BKN008 BKN025 OVC070 22/21 Q1016=
2020030217 - SABZ23 SBRJ 021700
2020030217 - METAR SBRJ 021700Z 12003KT 5000 -RA BR BKN008 BKN020 OVC070 23/21 Q1015=
2020030218 - SABZ23 SBRJ 021800
2020030218 - METAR SBRJ 021800Z 15005KT 4000 -RA BR BKN005 BKN015 OVC070 23/21 Q1015=
2020030219 - SABZ23 SBRJ 021900
2020030219 - METAR SBRJ 021900Z 16005KT 4000 -RA BR BKN005 BKN015 OVC070 22/21 Q1015=
2020030220 - SABZ23 SBRJ 022000
2020030220 - METAR SBRJ 022000Z 15003KT 4000 -RA BR BKN005 BKN015 OVC070 22/21 Q1015=
2020030221 - SABZ23 SBRJ 022100
2020030221 - METAR SBRJ 022100Z 14004KT 4000 -RA BR BKN005 BKN015 OVC070 22/21 Q1015=
2020030222 - SABZ23 SBRJ 022200
2020030222 - METAR SBRJ 022200Z 18006KT 6000 -RA BKN008 OVC020 22/21 Q1015=
2020030222 - SPECI SBRJ 022215Z 16004KT 4000 RA BR BKN007 OVC025 22/21 Q1015=
2020030223 - SABZ23 SBRJ 022300
2020030223 - METAR SBRJ 022300Z 15009KT 6000 -RA BKN008 OVC040 22/21 Q1015 RERA=
2020030300 - SABZ23 SBRJ 030000
2020030300 - METAR SBRJ 030000Z 09005KT 8000 BKN013 BKN050 OVC080 23/21 Q1014=
2020030301 - SABZ23 SBRJ 030100
2020030301 - METAR SBRJ 030100Z 07005KT 8000 BKN013 OVC040 23/21 Q1014=
2020030302 - SABZ23 SBRJ 030200
2020030302 - METAR SBRJ 030200Z 35004KT 6000 -RA SCT007 BKN020 OVC030 22/21 Q1015=
2020030303 - SABZ23 SBRJ 030300
2020030303 - METAR SBRJ 030300Z 21002KT 5000 -RA BR OVC017 22/21 Q1014=
2020030304 - SABZ23 SBRJ 030400
2020030304 - METAR SBRJ 030400Z 30003KT 270V330 9999 FEW003 SCT030 BKN090 22/21 Q1013=
2020030305 - SABZ23 SBRJ 030500
2020030305 - METAR SBRJ 030500Z VRB02KT 5000 -RA BR FEW010 SCT018 BKN090 22/21 Q1013=
2020030306 - SABZ23 SBRJ 030600
2020030306 - METAR SBRJ 030600Z 29007KT 9999 FEW007 SCT040 BKN090 22/21 Q1012=
2020030307 - SABZ23 SBRJ 030700
2020030307 - METAR SBRJ 030700Z 29005KT 9999 FEW007 SCT040 BKN090 22/20 Q1011=
2020030308 - SABZ23 SBRJ 030800
2020030308 - METAR SBRJ 030800Z 30005KT 9999 FEW007 SCT080 22/20 Q1011=
2020030309 - SABZ23 SBRJ 030900
2020030309 - METAR SBRJ 030900Z 32006KT 9999 FEW007 BKN080 22/21 Q1012=
2020030310 - SABZ23 SBRJ 031000
2020030310 - METAR SBRJ 031000Z 31003KT 9999 FEW018 BKN100 23/21 Q1012=
2020030311 - SABZ23 SBRJ 031100
2020030311 - METAR SBRJ 031100Z 10007KT 9999 FEW020 BKN100 24/21 Q1013=
2020030312 - SABZ23 SBRJ 031200
2020030312 - METAR SBRJ 031200Z 10007KT 9999 FEW013 SCT100 24/22 Q1013=
2020030313 - SABZ23 SBRJ 031300
2020030313 - METAR SBRJ 031300Z 30005KT 9999 FEW013 SCT030 24/21 Q1014=
2020030314 - SABZ23 SBRJ 031400
2020030314 - METAR SBRJ 031400Z 15007KT 9999 FEW013 SCT030 25/22 Q1013=
2020030315 - SABZ23 SBRJ 031500
2020030315 - METAR SBRJ 031500Z 14008KT 9999 FEW013 BKN030 25/22 Q1013=
2020030316 - SABZ23 SBRJ 031600
2020030316 - METAR SBRJ 031600Z 17010KT 9999 SCT030 BKN050 26/22 Q1012=
2020030317 - SABZ23 SBRJ 031700
2020030317 - METAR SBRJ 031700Z 18011KT 9999 SCT030 BKN080 27/22 Q1012=
2020030318 - SABZ23 SBRJ 031800
2020030318 - METAR SBRJ 031800Z 17010KT 9999 SCT020 BKN070 27/21 Q1011=
2020030319 - SABZ23 SBRJ 031900
2020030319 - METAR SBRJ 031900Z 18010KT 9999 VCSH SCT020 BKN035 25/21 Q1011=
2020030320 - SABZ23 SBRJ 032000
2020030320 - METAR SBRJ 032000Z 20009KT 9000 -RA OVC025 24/21 Q1011=
2020030320 - SPECI SBRJ 032030Z 20006KT 7000 RA SCT010 OVC025 23/21 Q1012=
2020030321 - SABZ23 SBRJ 032100
2020030321 - METAR SBRJ 032100Z 16004KT 7000 RA SCT010 BKN030 23/21 Q1012 RERA=
2020030321 - SPECI SBRJ 032138Z 14004KT 8000 -RA SCT010 BKN030 BKN060 23/21 Q1012 RERA=
2020030322 - SABZ23 SBRJ 032200
2020030322 - METAR SBRJ 032200Z 12004KT 7000 -RA SCT012 BKN030 BKN060 23/22 Q1012 RERA=
2020030323 - SABZ23 SBRJ 032300
2020030323 - METAR SBRJ 032300Z 15002KT 7000 -RA SCT012 BKN030 BKN050 24/21 Q1013=
2020030323 - SPECI SBRJ 032320Z 36004KT 7000 -RA SCT015 BKN030 BKN050 23/22 Q1013=
2020030400 - SABZ23 SBRJ 040000
2020030400 - METAR SBRJ 040000Z 01005KT 8000 -RA SCT015 BKN030 BKN070 23/21 Q1014=
2020030401 - SABZ23 SBRJ 040100
2020030401 - METAR SBRJ 040100Z 36006KT 8000 -RA SCT010 BKN025 BKN070 23/21 Q1014=
2020030402 - SABZ23 SBRJ 040200
2020030402 - METAR SBRJ 040200Z 33006KT 9999 SCT010 BKN020 BKN070 23/21 Q1013=
2020030403 - SABZ23 SBRJ 040300
2020030403 - METAR SBRJ 040300Z 31006KT 8000 -RA SCT008 BKN025 BKN070 23/22 Q1013=
2020030404 - SABZ23 SBRJ 040400
2020030404 - METAR SBRJ 040400Z 30005KT 8000 SCT010 BKN025 BKN090 23/21 Q1013=
2020030405 - SABZ23 SBRJ 040500
2020030405 - METAR SBRJ 040500Z 28005KT 8000 FEW010 BKN025 BKN090 23/21 Q1012=
2020030406 - SABZ23 SBRJ 040600
2020030406 - METAR SBRJ 040600Z 29003KT 9999 FEW012 BKN020 BKN090 23/21 Q1012=
2020030407 - SABZ23 SBRJ 040700
2020030407 - METAR SBRJ 040700Z 35002KT 9999 FEW012 BKN020 OVC090 23/22 Q1012=
2020030408 - SABZ23 SBRJ 040800
2020030408 - METAR SBRJ 040800Z 07004KT 9999 FEW012 BKN020 OVC090 23/22 Q1012=
2020030409 - SABZ23 SBRJ 040900
2020030409 - METAR SBRJ 040900Z 04004KT 8000 FEW010 BKN020 OVC090 23/22 Q1012=
2020030410 - SABZ23 SBRJ 041000
2020030410 - METAR SBRJ 041000Z 04005KT 8000 FEW010 BKN025 OVC070 23/22 Q1013=
2020030411 - SABZ23 SBRJ 041100
2020030411 - METAR SBRJ 041100Z 05003KT 9000 FEW010 SCT030 BKN050 24/22 Q1014=
2020030412 - SABZ23 SBRJ 041200
2020030412 - METAR SBRJ 041200Z 02003KT 9999 BKN018 BKN050 24/22 Q1014=
2020030412 - SPECI SBRJ 041240Z 12004KT 060V180 9999 BKN018 BKN050 24/21 Q1014=
2020030413 - SABZ23 SBRJ 041300
2020030413 - METAR SBRJ 041300Z VRB02KT 9999 BKN018 BKN030 24/21 Q1014=
2020030414 - SABZ23 SBRJ 041400
2020030414 - METAR SBRJ 041400Z 18005KT 9999 BKN020 BKN040 25/21 Q1014=
2020030415 - SABZ23 SBRJ 041500
2020030415 - METAR SBRJ 041500Z 21008KT 9999 BKN025 BKN040 25/20 Q1014=
2020030416 - SABZ23 SBRJ 041600
2020030416 - METAR SBRJ 041600Z 22010KT 9999 BKN025 BKN040 27/20 Q1013=
2020030417 - SABZ23 SBRJ 041700
2020030417 - METAR SBRJ 041700Z 21011KT 9999 BKN025 BKN040 26/19 Q1012=
2020030418 - SABZ23 SBRJ 041800
2020030418 - METAR SBRJ 041800Z 21008KT 9999 SCT020 BKN040 25/19 Q1012=
2020030419 - SABZ23 SBRJ 041900
2020030419 - METAR SBRJ 041900Z 21008KT 9999 FEW020 BKN040 25/19 Q1012=
2020030420 - SABZ23 SBRJ 042000
2020030420 - METAR SBRJ 042000Z 21007KT 9999 FEW018 BKN040 25/20 Q1012=
2020030421 - SABZ23 SBRJ 042100
2020030421 - METAR SBRJ 042100Z 21006KT 9999 SCT018 BKN035 25/19 Q1013=
2020030422 - SABZ23 SBRJ 042200
2020030422 - METAR SBRJ 042200Z 18004KT 9999 SCT018 BKN035 24/20 Q1014=
2020030423 - SABZ23 SBRJ 042300
2020030423 - METAR SBRJ 042300Z 18005KT 8000 -RA SCT018 OVC040 24/21 Q1014=
2020030500 - SABZ23 SBRJ 050000
2020030500 - METAR SBRJ 050000Z 24008KT 5000 RA HZ SCT020 OVC040 23/18 Q1015=
2020030500 - SPECI SBRJ 050015Z 33002KT 8000 -RA SCT020 OVC040 22/19 Q1015 RERA=
2020030501 - SABZ23 SBRJ 050100
2020030501 - METAR SBRJ 050100Z 36004KT 9999 FEW020 BKN060 22/18 Q1016 RERA=
2020030502 - SABZ23 SBRJ 050200
2020030502 - METAR SBRJ 050200Z 34006KT 9999 FEW018 BKN060 22/20 Q1015=
2020030503 - SABZ23 SBRJ 050300
2020030503 - METAR SBRJ 050300Z 31006KT 9999 FEW018 SCT080 22/20 Q1015=
2020030504 - SABZ23 SBRJ 050400
2020030504 - METAR SBRJ 050400Z 32006KT 9999 SCT010 22/21 Q1014=
2020030505 - SABZ23 SBRJ 050500
2020030505 - METAR SBRJ 050500Z 29005KT CAVOK 22/20 Q1014=
2020030506 - SABZ23 SBRJ 050600
2020030506 - METAR SBRJ 050600Z 30004KT CAVOK 22/20 Q1013=
2020030507 - SABZ23 SBRJ 050700
2020030507 - METAR SBRJ 050700Z 32006KT CAVOK 22/20 Q1013=
2020030508 - SABZ23 SBRJ 050800
2020030508 - METAR SBRJ 050800Z 33004KT 9999 FEW010 21/20 Q1013=
2020030509 - SABZ23 SBRJ 050900
2020030509 - METAR SBRJ 050900Z 00000KT 9999 FEW008 21/20 Q1014=
2020030510 - SABZ23 SBRJ 051000
2020030510 - METAR SBRJ 051000Z 34003KT 9999 FEW008 23/21 Q1015=
2020030511 - SABZ23 SBRJ 051100
2020030511 - METAR SBRJ 051100Z 36005KT 9999 FEW010 23/21 Q1015=
2020030512 - SABZ23 SBRJ 051200
2020030512 - METAR SBRJ 051200Z 03005KT 9999 FEW012 SCT025 24/21 Q1016=
2020030513 - SABZ23 SBRJ 051300
2020030513 - METAR SBRJ 051300Z 03005KT 9999 BKN025 25/22 Q1016=
2020030514 - SABZ23 SBRJ 051400
2020030514 - METAR SBRJ 051400Z 06003KT 9999 SCT025 26/21 Q1016=
2020030515 - SABZ23 SBRJ 051500
2020030515 - METAR SBRJ 051500Z 19009KT 9999 SCT025 27/20 Q1015=
2020030516 - SABZ23 SBRJ 051600
2020030516 - METAR SBRJ 051600Z 19014KT 9999 SCT020 26/20 Q1015=
2020030517 - SABZ23 SBRJ 051700
2020030517 - METAR SBRJ 051700Z 19013KT 9999 FEW020 SCT060 27/19 Q1015=
2020030518 - SABZ23 SBRJ 051800
2020030518 - METAR SBRJ 051800Z 19013KT 9999 FEW020 27/20 Q1014=
2020030519 - SABZ23 SBRJ 051900
2020030519 - METAR SBRJ 051900Z 20014KT 9999 FEW025 27/19 Q1014=
2020030520 - SABZ23 SBRJ 052000
2020030520 - METAR SBRJ 052000Z 21011KT 9999 SCT020 25/19 Q1014=
2020030521 - SABZ23 SBRJ 052100
2020030521 - METAR SBRJ 052100Z 20009KT 9999 FEW020 25/19 Q1015=
2020030522 - SABZ23 SBRJ 052200
2020030522 - METAR SBRJ 052200Z 20005KT 9999 FEW025 24/19 Q1015=
2020030523 - SABZ23 SBRJ 052300
2020030523 - METAR SBRJ 052300Z 20006KT 9999 FEW020 24/18 Q1016=
2020030600 - SABZ23 SBRJ 060000
2020030600 - METAR SBRJ 060000Z 26005KT 9999 FEW020 24/19 Q1017=
2020030601 - SABZ23 SBRJ 060100
2020030601 - METAR SBRJ 060100Z 25004KT 9999 FEW025 24/19 Q1016=
2020030602 - SABZ23 SBRJ 060200
2020030602 - METAR SBRJ 060200Z 31005KT 9999 SCT030 24/19 Q1016=
2020030603 - SABZ23 SBRJ 060300
2020030603 - METAR SBRJ 060300Z 26004KT 9999 -RA BKN030 24/19 Q1016=
2020030604 - SABZ23 SBRJ 060400
2020030604 - METAR SBRJ 060400Z 31005KT 9999 SCT025 SCT040 23/19 Q1015=
2020030605 - SABZ23 SBRJ 060500
2020030605 - METAR SBRJ 060500Z 31004KT 9999 SCT025 SCT045 23/20 Q1014=
2020030606 - SABZ23 SBRJ 060600
2020030606 - METAR SBRJ 060600Z 30004KT 9999 -RA SCT025 BKN040 23/20 Q1014=
2020030607 - SABZ23 SBRJ 060700
2020030607 - METAR SBRJ 060700Z 31006KT 9999 SCT025 SCT050 22/20 Q1014=
2020030608 - SABZ23 SBRJ 060800
2020030608 - METAR SBRJ 060800Z 31006KT 9999 SCT025 SCT050 22/20 Q1014=
2020030609 - SABZ23 SBRJ 060900
2020030609 - METAR SBRJ 060900Z 30006KT 9999 SCT025 BKN050 22/20 Q1014=
2020030610 - SABZ23 SBRJ 061000
2020030610 - METAR SBRJ 061000Z 31005KT 9999 FEW025 SCT060 23/20 Q1015=
2020030611 - SABZ23 SBRJ 061100
2020030611 - METAR SBRJ 061100Z 33005KT 9999 SCT025 23/20 Q1016=
2020030612 - SABZ23 SBGL 061202
2020030612 - METAR SBRJ 061200Z 34007KT 9999 BKN020 24/20 Q1016=
2020030613 - SABZ23 SBRJ 061300
2020030613 - METAR SBRJ 061300Z 32006KT 9999 SCT030 26/20 Q1016=
2020030613 - SPECI SBRJ 061333Z 11005KT 9999 SCT030 26/20 Q1016=
2020030614 - SABZ23 SBRJ 061400
2020030614 - METAR SBRJ 061400Z 08004KT 9999 SCT035 26/20 Q1016=
2020030615 - SABZ23 SBRJ 061500
2020030615 - METAR SBRJ 061500Z 19012KT 9999 SCT035 27/20 Q1015=
2020030616 - SABZ23 SBRJ 061600
2020030616 - METAR SBRJ 061600Z 19012KT 9999 FEW025 28/20 Q1015=
2020030617 - SABZ23 SBRJ 061700
2020030617 - METAR SBRJ 061700Z 20015KT 9999 SCT025 27/20 Q1014=
2020030618 - SABZ23 SBRJ 061800
2020030618 - METAR SBRJ 061800Z 19015KT 9999 FEW025 27/20 Q1014=
2020030619 - SABZ23 SBRJ 061900
2020030619 - METAR SBRJ 061900Z 18013KT 9999 FEW025 27/18 Q1014=
2020030620 - SABZ23 SBRJ 062000
2020030620 - METAR SBRJ 062000Z 20016KT 9999 FEW025 26/18 Q1013=
2020030621 - SABZ23 SBRJ 062100
2020030621 - METAR SBRJ 062100Z 21010KT 9999 FEW025 25/19 Q1014=
2020030622 - SABZ23 SBRJ 062200
2020030622 - METAR SBRJ 062200Z 23006KT 190V260 9999 FEW020 SCT080 25/19 Q1014=
2020030623 - SABZ23 SBRJ 062300
2020030623 - METAR SBRJ 062300Z 20005KT 170V250 9999 FEW020 24/19 Q1015=
2020030700 - SABZ23 SBRJ 070000
2020030700 - METAR SBRJ 070000Z 22004KT CAVOK 24/18 Q1015=
2020030701 - SABZ23 SBRJ 070100
2020030701 - METAR SBRJ 070100Z 23005KT 200V260 CAVOK 24/18 Q1015=
2020030702 - SABZ23 SBRJ 070200
2020030702 - METAR SBRJ 070200Z 31003KT 280V340 CAVOK 24/19 Q1015=
2020030703 - SABZ23 SBRJ 070300
2020030703 - METAR SBRJ 070300Z VRB02KT CAVOK 24/19 Q1015=
2020030704 - SABZ23 SBRJ 070400
2020030704 - METAR SBRJ 070400Z 30002KT CAVOK 24/19 Q1014=
2020030705 - SABZ23 SBRJ 070500
2020030705 - METAR SBRJ 070500Z 32005KT CAVOK 23/20 Q1014=
2020030706 - SABZ23 SBRJ 070600
2020030706 - METAR SBRJ 070600Z 30003KT CAVOK 23/20 Q1013=
2020030707 - SABZ23 SBRJ 070700
2020030707 - METAR SBRJ 070700Z 08001KT CAVOK 23/20 Q1013=
2020030708 - SABZ23 SBRJ 070800
2020030708 - METAR SBRJ 070800Z 31004KT 9999 FEW020 22/19 Q1013=
2020030709 - SABZ23 SBRJ 070900
2020030709 - METAR SBRJ 070900Z 32005KT 9999 FEW018 SCT100 22/20 Q1013=
2020030710 - SABZ23 SBRJ 071000
2020030710 - METAR SBRJ 071000Z 35006KT 7000 FEW020 22/20 Q1014=
2020030711 - SABZ23 SBRJ 071100
2020030711 - METAR SBRJ 071100Z 34006KT 7000 FEW025 23/20 Q1015=
2020030712 - SABZ23 SBRJ 071200
2020030712 - METAR SBRJ 071200Z 01005KT 8000 FEW025 24/20 Q1015=
2020030713 - SABZ23 SBRJ 071300
2020030713 - METAR SBRJ 071300Z 05002KT 9999 FEW025 25/20 Q1015=
2020030713 - SPECI SBRJ 071345Z 14005KT 9999 FEW025 26/20 Q1015=
2020030714 - SABZ23 SBRJ 071400
2020030714 - METAR SBRJ 071400Z 13006KT 9999 FEW025 26/20 Q1015=
2020030715 - SABZ23 SBRJ 071500
2020030715 - METAR SBRJ 071500Z 14006KT 9999 FEW025 26/20 Q1014=
2020030716 - SABZ23 SBRJ 071600
2020030716 - METAR SBRJ 071600Z 17010KT 9999 FEW025 27/20 Q1013=
2020030717 - SABZ23 SBRJ 071700
2020030717 - METAR SBRJ 071700Z 18010KT 9999 FEW025 27/19 Q1013=
2020030718 - SABZ23 SBRJ 071800
2020030718 - METAR SBRJ 071800Z 17010KT 9999 FEW025 26/19 Q1012=
2020030719 - SABZ23 SBRJ 071900
2020030719 - METAR SBRJ 071900Z 16011KT 9999 FEW023 26/20 Q1012=
2020030720 - SABZ23 SBRJ 072000
2020030720 - METAR SBRJ 072000Z 18012KT 9999 FEW015 25/20 Q1012=
2020030721 - SABZ23 SBRJ 072100
2020030721 - METAR SBRJ 072100Z 17010KT 9999 FEW012 SCT050 BKN090 24/20 Q1013=
2020030722 - SABZ23 SBRJ 072200
2020030722 - METAR SBRJ 072200Z 17010KT 9999 FEW012 SCT025 BKN050 24/20 Q1013=
2020030723 - SABZ23 SBRJ 072300
2020030723 - METAR SBRJ 072300Z 16008KT 9999 FEW012 SCT025 BKN050 24/20 Q1014=
2020030800 - SABZ23 SBRJ 080000
2020030800 - METAR SBRJ 080000Z 14008KT 9999 FEW013 SCT025 BKN050 24/20 Q1015=
2020030801 - SABZ23 SBRJ 080100
2020030801 - METAR SBRJ 080100Z 14005KT 9999 FEW020 SCT050 24/20 Q1015=
2020030802 - SABZ23 SBRJ 080200
2020030802 - METAR SBRJ 080200Z 08006KT 9999 FEW012 SCT020 24/21 Q1015=
2020030803 - SABZ23 SBRJ 080300
2020030803 - METAR SBRJ 080300Z 04002KT 9999 FEW012 SCT020 24/20 Q1014=
2020030804 - SABZ23 SBRJ 080400
2020030804 - METAR SBRJ 080400Z 11002KT 9999 SCT020 SCT040 23/20 Q1014=
2020030805 - SABZ23 SBRJ 080500
2020030805 - METAR SBRJ 080500Z 06005KT 9999 FEW020 BKN040 23/20 Q1014=
2020030806 - SABZ23 SBRJ 080600
2020030806 - METAR SBRJ 080600Z 00000KT 9999 FEW020 SCT040 23/20 Q1013=
2020030807 - SABZ23 SBRJ 080700
2020030807 - METAR SBRJ 080700Z 13003KT 9999 FEW040 23/20 Q1013=
2020030808 - SABZ23 SBRJ 080800
2020030808 - METAR SBRJ 080800Z 04004KT 9999 FEW040 23/20 Q1013=
2020030809 - SABZ23 SBRJ 080900
2020030809 - METAR SBRJ 080900Z 04004KT 9999 FEW017 22/20 Q1014=
2020030810 - SABZ23 SBRJ 081000
2020030810 - METAR SBRJ 081000Z 04003KT 9999 FEW002 23/21 Q1014=
2020030811 - SABZ23 SBRJ 081100
2020030811 - METAR SBRJ 081100Z 36005KT 9999 FEW013 23/21 Q1015=
2020030812 - SABZ23 SBRJ 081200
2020030812 - METAR SBRJ 081200Z 01003KT 330V040 9999 FEW018 24/21 Q1015=
2020030813 - SABZ23 SBRJ 081300
2020030813 - METAR SBRJ 081300Z VRB02KT 9999 FEW023 25/20 Q1015=
2020030813 - SPECI SBRJ 081320Z 15004KT 9999 FEW023 26/21 Q1015=
2020030814 - SABZ23 SBRJ 081400
2020030814 - METAR SBRJ 081400Z 15007KT 9999 FEW023 26/21 Q1015=
2020030815 - SABZ23 SBRJ 081500
2020030815 - METAR SBRJ 081500Z 16010KT 9999 FEW025 26/21 Q1014=
2020030816 - SABZ23 SBRJ 081600
2020030816 - METAR SBRJ 081600Z 17013KT 9999 FEW025 26/21 Q1014=
2020030817 - SABZ23 SBRJ 081700
2020030817 - METAR SBRJ 081700Z 17013KT 9999 FEW025 26/21 Q1013=
2020030818 - SABZ23 SBRJ 081800
2020030818 - METAR SBRJ 081800Z 16014KT 9999 FEW025 26/21 Q1013=
2020030819 - SABZ23 SBRJ 081900
2020030819 - METAR SBRJ 081900Z 16012KT 9999 FEW015 SCT030 26/21 Q1012=
2020030820 - SABZ23 SBRJ 082000
2020030820 - METAR SBRJ 082000Z 13011KT 9999 FEW015 SCT030 26/21 Q1012=
2020030821 - SABZ23 SBRJ 082100
2020030821 - METAR SBRJ 082100Z 13010KT 9999 FEW013 SCT030 25/22 Q1013=
2020030822 - SABZ23 SBRJ 082200
2020030822 - METAR SBRJ 082200Z 13009KT 9999 FEW020 BKN045 25/21 Q1013=
2020030823 - SABZ23 SBRJ 082300
2020030823 - METAR SBRJ 082300Z 13007KT 9999 FEW020 BKN050 25/21 Q1014=
2020030900 - SABZ23 SBRJ 090000
2020030900 - METAR SBRJ 090000Z 15004KT 9999 FEW020 BKN050 25/21 Q1015=
2020030901 - SABZ23 SBRJ 090100
2020030901 - METAR SBRJ 090100Z 16006KT CAVOK 25/21 Q1016=
2020030902 - SABZ23 SBRJ 090200
2020030902 - METAR SBRJ 090200Z 14005KT 9999 VCTS FEW035CB SCT040 BKN080 25/20 Q1016=
2020030903 - SABZ23 SBRJ 090300
2020030903 - METAR SBRJ 090300Z 18004KT 9999 SCT040 24/20 Q1016=
2020030904 - SABZ23 SBRJ 090400
2020030904 - METAR SBRJ 090400Z 16003KT 080V200 9999 FEW035 BKN080 24/20 Q1016=
2020030905 - SABZ23 SBRJ 090500
2020030905 - METAR SBRJ 090500Z 17004KT 120V210 9999 FEW035 BKN080 24/20 Q1015=
2020030906 - SABZ23 SBRJ 090600
2020030906 - METAR SBRJ 090600Z 09005KT 9999 FEW035 BKN080 24/20 Q1014=
2020030907 - SABZ23 SBRJ 090700
2020030907 - METAR SBRJ 090700Z 08005KT 9999 FEW020 24/21 Q1015=
2020030908 - SABZ23 SBRJ 090800
2020030908 - METAR SBRJ 090800Z 12002KT CAVOK 24/20 Q1015=
2020030909 - SABZ23 SBRJ 090900
2020030909 - METAR SBRJ 090900Z 02003KT 9999 FEW007 BKN090 24/21 Q1015=
2020030910 - SABZ23 SBRJ 091000
2020030910 - METAR SBRJ 091000Z 36004KT 9999 FEW010 BKN100 24/21 Q1016=
2020030911 - SABZ23 SBRJ 091100
2020030911 - METAR SBRJ 091100Z 01004KT 9999 FEW015 SCT100 24/22 Q1016=
2020030912 - SABZ23 SBRJ 091200
2020030912 - METAR SBRJ 091200Z 08002KT 9999 FEW018 26/22 Q1016=
2020030913 - SABZ23 SBRJ 091300
2020030913 - METAR SBRJ 091300Z 36004KT 9999 FEW025 26/21 Q1017=
2020030914 - SABZ23 SBRJ 091400
2020030914 - METAR SBRJ 091400Z 13004KT 9999 FEW025 27/21 Q1016=
2020030915 - SABZ23 SBRJ 091500
2020030915 - METAR SBRJ 091500Z 16011KT 9999 FEW025 26/21 Q1016=
2020030916 - SABZ23 SBRJ 091600
2020030916 - METAR SBRJ 091600Z 16011KT 9999 FEW025 27/22 Q1015=
2020030917 - SABZ23 SBRJ 091700
2020030917 - METAR SBRJ 091700Z 16013KT 9999 FEW025 FEW030TCU 27/23 Q1014=
2020030918 - SABZ23 SBRJ 091800
2020030918 - METAR SBRJ 091800Z 16012KT 9999 FEW025 27/22 Q1014=
2020030919 - SABZ23 SBRJ 091900
2020030919 - METAR SBRJ 091900Z 18013KT 9999 FEW025 FEW030TCU 27/22 Q1014=
2020030920 - SABZ23 SBRJ 092000
2020030920 - METAR SBRJ 092000Z 17012KT 9999 FEW030 FEW035TCU 26/22 Q1015=
2020030921 - SABZ23 SBRJ 092100
2020030921 - METAR SBRJ 092100Z 17009KT 9999 SCT025 26/22 Q1015=
2020030922 - SABZ23 SBRJ 092200
2020030922 - METAR SBRJ 092200Z 14009KT 9999 FEW020 SCT040 25/22 Q1015=
2020030923 - SABZ23 SBRJ 092300
2020030923 - METAR SBRJ 092300Z 12008KT 9999 FEW020 SCT040 25/23 Q1016=
2020031000 - SABZ23 SBRJ 100000
2020031000 - METAR SBRJ 100000Z 14006KT 9999 FEW020 25/22 Q1017=
2020031001 - SABZ23 SBRJ 100100
2020031001 - METAR SBRJ 100100Z 17003KT 9999 FEW020 25/22 Q1017=
2020031002 - SABZ23 SBRJ 100200
2020031002 - METAR SBRJ 100200Z 07007KT 9999 FEW020 25/21 Q1017=
2020031003 - SABZ23 SBRJ 100300
2020031003 - METAR SBRJ 100300Z 07005KT 9999 SCT020 25/22 Q1016=
2020031004 - SABZ23 SBRJ 100400
2020031004 - METAR SBRJ 100400Z 08002KT 9999 FEW018 24/22 Q1016=
2020031005 - SABZ23 SBRJ 100500
2020031005 - METAR SBRJ 100500Z 06005KT 9999 FEW018 24/22 Q1015=
2020031006 - SABZ23 SBRJ 100600
2020031006 - METAR SBRJ 100600Z 08003KT 9999 FEW018 24/22 Q1015=
2020031007 - SABZ23 SBRJ 100700
2020031007 - METAR SBRJ 100700Z 03002KT 9999 SCT018 24/22 Q1015=
2020031008 - SABZ23 SBRJ 100800
2020031008 - METAR SBRJ 100800Z 30004KT 9999 SCT018 24/22 Q1015=
2020031009 - SABZ23 SBRJ 100900
2020031009 - METAR SBRJ 100900Z 08003KT 9999 FEW013 24/21 Q1015=
2020031010 - SABZ23 SBRJ 101000
2020031010 - METAR SBRJ 101000Z 03002KT 9999 FEW020 24/21 Q1016=
2020031011 - SABZ23 SBRJ 101100
2020031011 - METAR SBRJ 101100Z 03004KT 9999 FEW020 25/22 Q1017=
2020031012 - SABZ23 SBRJ 101200
2020031012 - METAR SBRJ 101200Z 36005KT 9999 FEW015 25/22 Q1017=
2020031013 - SABZ23 SBRJ 101300
2020031013 - METAR SBRJ 101300Z 34005KT 9999 FEW020 26/22 Q1017=
2020031014 - SABZ23 SBRJ 101400
2020031014 - METAR SBRJ 101400Z 36004KT 9999 FEW020 27/22 Q1016=
2020031014 - SPECI SBRJ 101420Z 13008KT 9999 FEW020 27/22 Q1016=
2020031015 - SABZ23 SBRJ 101500
2020031015 - METAR SBRJ 101500Z 14009KT 9999 FEW020 27/22 Q1016=
2020031016 - SABZ23 SBRJ 101600
2020031016 - METAR SBRJ 101600Z 16012KT 9999 FEW020 27/23 Q1015=
2020031017 - SABZ23 SBRJ 101700
2020031017 - METAR SBRJ 101700Z 16011KT 9999 FEW025 27/23 Q1015=
2020031018 - SABZ23 SBRJ 101800
2020031018 - METAR SBRJ 101800Z 16013KT 9999 FEW025 27/22 Q1014=
2020031019 - SABZ23 SBRJ 101900
2020031019 - METAR SBRJ 101900Z 16013KT 9999 FEW020 27/22 Q1014=
2020031020 - SABZ23 SBRJ 102000
2020031020 - METAR SBRJ 102000Z 16010KT 9999 FEW020 27/21 Q1014=
2020031021 - SABZ23 SBRJ 102100
2020031021 - METAR SBRJ 102100Z 14010KT 9999 FEW020 26/21 Q1014=
2020031022 - SABZ23 SBRJ 102200
2020031022 - METAR SBRJ 102200Z 11013KT 9999 FEW020 SCT040 26/21 Q1014=
2020031023 - SABZ23 SBRJ 102300
2020031023 - METAR SBRJ 102300Z 13006KT 9999 FEW020 SCT040 25/22 Q1015=
2020031100 - SABZ23 SBRJ 110000
2020031100 - METAR SBRJ 110000Z 13006KT 9999 FEW020 BKN050 25/22 Q1016=
2020031101 - SABZ23 SBRJ 110100
2020031101 - METAR SBRJ 110100Z 16004KT 9999 FEW020 SCT050 25/21 Q1016=
2020031102 - SABZ23 SBRJ 110200
2020031102 - METAR SBRJ 110200Z 17004KT CAVOK 24/21 Q1016=
2020031103 - SABZ23 SBRJ 110300
2020031103 - METAR SBRJ 110300Z 10002KT CAVOK 25/20 Q1016=
2020031104 - SABZ23 SBRJ 110400
2020031104 - METAR SBRJ 110400Z 10006KT CAVOK 25/20 Q1015=
2020031105 - SABZ23 SBRJ 110500
2020031105 - METAR SBRJ 110500Z 00000KT CAVOK 24/20 Q1015=
2020031106 - SABZ23 SBRJ 110600
2020031106 - METAR SBRJ 110600Z 10002KT CAVOK 24/20 Q1014=
2020031107 - SABZ23 SBRJ 110700 RRA
2020031107 - METAR SBRJ 110700Z 00000KT CAVOK 23/20 Q1014=
2020031108 - SABZ23 SBRJ 110800
2020031108 - METAR SBRJ 110800Z 08004KT CAVOK 24/21 Q1014=
2020031109 - SABZ23 SBRJ 110900
2020031109 - METAR SBRJ 110900Z 08007KT 9999 FEW018 24/21 Q1014=
2020031110 - SABZ23 SBRJ 111000
2020031110 - METAR SBRJ 111000Z 08005KT 9999 FEW020 24/21 Q1015=
2020031111 - SABZ23 SBRJ 111100
2020031111 - METAR SBRJ 111100Z 11004KT 9999 FEW020 25/21 Q1016=
2020031112 - SABZ23 SBRJ 111200
2020031112 - METAR SBRJ 111200Z 05003KT 9999 FEW020 27/21 Q1016=
2020031113 - SABZ23 SBRJ 111300
2020031113 - METAR SBRJ 111300Z 14006KT 9999 FEW025 27/21 Q1016=
2020031114 - SABZ23 SBRJ 111400
2020031114 - METAR SBRJ 111400Z 16009KT 9999 FEW025 26/22 Q1016=
2020031115 - SABZ23 SBRJ 111500
2020031115 - METAR SBRJ 111500Z 16011KT 9999 FEW025 27/22 Q1015=
2020031116 - SABZ23 SBRJ 111600
2020031116 - METAR SBRJ 111600Z 16012KT 9999 FEW020 27/22 Q1015=
2020031117 - SABZ23 SBRJ 111700
2020031117 - METAR SBRJ 111700Z 15013KT 9999 FEW020 27/21 Q1014=
2020031118 - SABZ23 SBRJ 111800
2020031118 - METAR SBRJ 111800Z 16013KT 9999 FEW020 27/21 Q1013=
2020031119 - SABZ23 SBRJ 111900
2020031119 - METAR SBRJ 111900Z 15010KT 9999 FEW020 27/20 Q1013=
2020031120 - SABZ23 SBRJ 112000
2020031120 - METAR SBRJ 112000Z 12013KT 9999 FEW020 26/20 Q1013=
2020031121 - SABZ23 SBRJ 112100
2020031121 - METAR SBRJ 112100Z 12013KT 9999 FEW020 26/19 Q1014=
2020031122 - SABZ23 SBRJ 112200
2020031122 - METAR SBRJ 112200Z 12012KT 9999 SCT040 25/20 Q1014=
2020031123 - SABZ23 SBRJ 112300
2020031123 - METAR SBRJ 112300Z 14007KT 9999 SCT040 25/20 Q1015=
2020031200 - SABZ23 SBRJ 120000
2020031200 - METAR SBRJ 120000Z 13007KT 9999 SCT040 25/20 Q1016=
2020031201 - SABZ23 SBRJ 120100
2020031201 - METAR SBRJ 120100Z 13003KT 9999 FEW045 SCT090 24/19 Q1016=
2020031202 - SABZ23 SBRJ 120200
2020031202 - METAR SBRJ 120200Z 14005KT CAVOK 24/19 Q1017=
2020031203 - SABZ23 SBRJ 120300
2020031203 - METAR SBRJ 120300Z 16006KT CAVOK 24/19 Q1017=
2020031204 - SABZ23 SBRJ 120400
2020031204 - METAR SBRJ 120400Z 13006KT CAVOK 24/19 Q1016=
2020031205 - SABZ23 SBRJ 120500
2020031205 - METAR SBRJ 120500Z 20001KT CAVOK 24/19 Q1015=
2020031206 - SABZ23 SBRJ 120600
2020031206 - METAR SBRJ 120600Z 08001KT CAVOK 23/19 Q1015=
2020031207 - SABZ23 SBRJ 120700
2020031207 - METAR SBRJ 120700Z 11005KT CAVOK 23/20 Q1015=
2020031208 - SABZ23 SBRJ 120800
2020031208 - METAR SBRJ 120800Z 15003KT CAVOK 23/19 Q1015=
2020031209 - SABZ23 SBRJ 120900
2020031209 - METAR SBRJ 120900Z 16002KT CAVOK 23/20 Q1015=
2020031210 - SABZ23 SBRJ 121000
2020031210 - METAR SBRJ 121000Z 00000KT 9999 FEW020 24/20 Q1016=
2020031211 - SABZ23 SBRJ 121100
2020031211 - METAR SBRJ 121100Z 04003KT 9999 FEW018 25/20 Q1016=
2020031212 - SABZ23 SBRJ 121200
2020031212 - METAR SBRJ 121200Z 36002KT 9999 FEW020 26/20 Q1016=
2020031213 - SABZ23 SBRJ 121300
2020031213 - METAR SBRJ 121300Z 34004KT 9999 FEW020 26/20 Q1017=
2020031213 - SPECI SBRJ 121345Z 16008KT 9999 FEW020 26/21 Q1016=
2020031214 - SABZ23 SBRJ 121400
2020031214 - METAR SBRJ 121400Z 16008KT 9999 FEW020 26/21 Q1016=
2020031215 - SABZ23 SBRJ 121456
2020031215 - METAR SBRJ 121500Z 16011KT 9999 FEW020 26/21 Q1016=
2020031216 - SABZ23 SBRJ 121600
2020031216 - METAR SBRJ 121600Z 17014KT 9999 FEW020 27/22 Q1016=
2020031217 - SABZ23 SBRJ 121700
2020031217 - METAR SBRJ 121700Z 15013KT 9999 FEW017 27/22 Q1015=
2020031218 - SABZ23 SBRJ 121800
2020031218 - METAR SBRJ 121800Z 16014KT 9999 FEW018 27/22 Q1015=
2020031219 - SABZ23 SBRJ 121900
2020031219 - METAR SBRJ 121900Z 13011KT 9999 FEW018 27/22 Q1014=
2020031220 - SABZ23 SBRJ 122000
2020031220 - METAR SBRJ 122000Z 14010KT 9999 FEW017 26/22 Q1014=
2020031221 - SABZ23 SBRJ 122100
2020031221 - METAR SBRJ 122100Z 13011KT 9999 FEW018 25/21 Q1014=
2020031222 - SABZ23 SBRJ 122200
2020031222 - METAR SBRJ 122200Z 14009KT 9999 FEW018 25/22 Q1015=
2020031223 - SABZ23 SBRJ 122300
2020031223 - METAR SBRJ 122300Z 14006KT 9999 FEW018 SCT025 BKN050 25/22 Q1015=
2020031300 - SABZ23 SBRJ 130000
2020031300 - METAR SBRJ 130000Z 17005KT 9999 FEW018 SCT025 25/22 Q1016=
2020031301 - SABZ23 SBRJ 130100
2020031301 - METAR SBRJ 130100Z 15002KT 9999 FEW020 SCT030 25/22 Q1016=
2020031302 - SABZ23 SBRJ 130200
2020031302 - METAR SBRJ 130200Z 08006KT 9999 FEW020 SCT030 25/25 Q1016=
2020031303 - SABZ23 SBRJ 130300
2020031303 - METAR SBRJ 130300Z 08006KT 9999 FEW020 SCT030 25/21 Q1016=
2020031304 - SABZ23 SBRJ 130400
2020031304 - METAR SBRJ 130400Z 08005KT 9999 SCT020 25/22 Q1016=
2020031305 - SABZ23 SBRJ 130500
2020031305 - METAR SBRJ 130500Z 07007KT 9999 FEW020 25/22 Q1015=
2020031306 - SABZ23 SBRJ 130600
2020031306 - METAR SBRJ 130600Z 09003KT 9999 FEW020 24/22 Q1014=
2020031307 - SABZ23 SBRJ 130700
2020031307 - METAR SBRJ 130700Z 07005KT 9999 FEW020 24/22 Q1014=
2020031308 - SABZ23 SBRJ 130800
2020031308 - METAR SBRJ 130800Z 05002KT 9999 FEW018 24/22 Q1014=
2020031309 - SABZ23 SBRJ 130900
2020031309 - METAR SBRJ 130900Z 05003KT 9999 FEW010 24/22 Q1015=
2020031310 - SABZ23 SBRJ 131000
2020031310 - METAR SBRJ 131000Z 08002KT 9999 FEW020 25/22 Q1015=
2020031310 - SPECI SBRJ 131040Z 14004KT 9999 FEW016 25/22 Q1016=
2020031311 - SABZ23 SBRJ 131100
2020031311 - METAR SBRJ 131100Z 15004KT 9999 FEW016 25/23 Q1016=
2020031312 - SABZ23 SBRJ 131200
2020031312 - METAR SBRJ 131200Z 16006KT 9999 FEW018 26/22 Q1016=
2020031313 - SABZ23 SBRJ 131300
2020031313 - METAR SBRJ 131300Z 16008KT 9999 FEW020 27/22 Q1016=
2020031314 - SABZ23 SBRJ 131400
2020031314 - METAR SBRJ 131400Z 15011KT 9999 FEW025 26/23 Q1016=
2020031315 - SABZ23 SBRJ 131500
2020031315 - METAR SBRJ 131500Z 16011KT 9999 FEW030 27/23 Q1016=
2020031316 - SABZ23 SBRJ 131600
2020031316 - METAR SBRJ 131600Z 16011KT 9999 SCT030 27/23 Q1015=
2020031317 - SABZ23 SBRJ 131700
2020031317 - METAR SBRJ 131700Z 15011KT 9999 SCT030 28/24 Q1015=
2020031318 - SABZ23 SBRJ 131800
2020031318 - METAR SBRJ 131800Z 15009KT 9999 SCT030 28/22 Q1014=
2020031319 - SABZ23 SBRJ 131900
2020031319 - METAR SBRJ 131900Z 16012KT 9999 SCT030 27/23 Q1014=
2020031320 - SABZ23 SBRJ 132000
2020031320 - METAR SBRJ 132000Z 17012KT 9999 SCT030 26/23 Q1014=
2020031321 - SABZ23 SBRJ 132100
2020031321 - METAR SBRJ 132100Z 14007KT 9999 FEW018 SCT030 26/23 Q1014=
2020031322 - SABZ23 SBRJ 132200
2020031322 - METAR SBRJ 132200Z 15004KT 9999 FEW020 SCT040 26/22 Q1014=
2020031323 - SABZ23 SBRJ 132300
2020031323 - METAR SBRJ 132300Z 16003KT 9999 FEW020 SCT040 26/23 Q1015=
2020031400 - SABZ23 SBRJ 140000
2020031400 - METAR SBRJ 140000Z 07004KT 9999 SCT020 27/23 Q1016=
2020031401 - SABZ23 SBRJ 140100
2020031401 - METAR SBRJ 140100Z 15002KT 9999 FEW020 26/23 Q1016=
2020031402 - SABZ23 SBRJ 140200
2020031402 - METAR SBRJ 140200Z 17008KT 9999 FEW020 25/23 Q1016=
2020031403 - SABZ23 SBRJ 140300
2020031403 - METAR SBRJ 140300Z 18007KT 9999 FEW020 25/23 Q1016=
2020031404 - SABZ23 SBRJ 140400
2020031404 - METAR SBRJ 140400Z 18006KT 9999 FEW025 25/23 Q1016=
2020031405 - SABZ23 SBRJ 140500
2020031405 - METAR SBRJ 140500Z 20004KT 9999 FEW025 25/23 Q1015=
2020031406 - SABZ23 SBRJ 140600
2020031406 - METAR SBRJ 140600Z 13002KT 9999 FEW025 25/23 Q1015=
2020031407 - SABZ23 SBRJ 140700
2020031407 - METAR SBRJ 140700Z 16003KT 130V190 9999 FEW020 24/23 Q1015=
2020031408 - SABZ23 SBRJ 140800
2020031408 - METAR SBRJ 140800Z 13004KT 9999 SCT015 24/23 Q1015=
2020031409 - SABZ23 SBRJ 140900
2020031409 - METAR SBRJ 140900Z 13004KT 9999 FEW015 24/23 Q1015=
2020031410 - SABZ23 SBRJ 141000
2020031410 - METAR SBRJ 141000Z 17001KT 9999 FEW015 25/23 Q1016=
2020031411 - SABZ23 SBRJ 141100 RRA
2020031411 - METAR SBRJ 141100Z 15002KT 9999 FEW015 25/23 Q1017=
2020031412 - SABZ23 SBRJ 141200
2020031412 - METAR SBRJ 141200Z 12002KT 9999 FEW018 27/23 Q1017=
2020031413 - SABZ23 SBRJ 141300
2020031413 - METAR SBRJ 141300Z 13005KT 9999 FEW020 27/23 Q1017=
2020031414 - SABZ23 SBRJ 141400
2020031414 - METAR SBRJ 141400Z 15010KT 9999 FEW020 27/24 Q1017=
2020031415 - SABZ23 SBRJ 141500
2020031415 - METAR SBRJ 141500Z 16011KT 9999 SCT020 27/24 Q1016=
2020031416 - SABZ23 SBRJ 141600
2020031416 - METAR SBRJ 141600Z 17011KT 9999 FEW018 SCT030 28/24 Q1015=
2020031417 - SABZ23 SBRJ 141700
2020031417 - METAR SBRJ 141700Z 16012KT 9999 FEW018 SCT030 28/24 Q1015=
2020031418 - SABZ23 SBRJ 141800
2020031418 - METAR SBRJ 141800Z 16010KT 9999 FEW018 SCT030 28/24 Q1014=
2020031419 - SABZ23 SBRJ 141900
2020031419 - METAR SBRJ 141900Z 16013KT 9999 FEW013 SCT030 27/24 Q1014=
2020031420 - SABZ23 SBRJ 142000
2020031420 - METAR SBRJ 142000Z 12012KT 9999 FEW013 SCT030 27/24 Q1014=
2020031421 - SABZ23 SBRJ 142100
2020031421 - METAR SBRJ 142100Z 15006KT 9999 FEW013 FEW035TCU 26/24 Q1015=
2020031422 - SABZ23 SBRJ 142200
2020031422 - METAR SBRJ 142200Z 17006KT 9999 FEW020 26/23 Q1015=
2020031423 - SABZ23 SBRJ 142300
2020031423 - METAR SBRJ 142300Z 15005KT 9999 FEW025 26/23 Q1015=
2020031500 - SABZ23 SBRJ 150000
2020031500 - METAR SBRJ 150000Z 15004KT 9999 FEW025 25/23 Q1016=
2020031501 - SABZ23 SBRJ 150100
2020031501 - METAR SBRJ 150100Z 12003KT 9999 FEW040 26/23 Q1016=
2020031502 - SABZ23 SBRJ 150200
2020031502 - METAR SBRJ 150200Z 15004KT CAVOK 25/23 Q1016=
2020031503 - SABZ23 SBRJ 150300
2020031503 - METAR SBRJ 150300Z 15003KT CAVOK 25/23 Q1015=
2020031504 - SABZ23 SBRJ 150400
2020031504 - METAR SBRJ 150400Z 17003KT CAVOK 25/23 Q1015=
2020031505 - SABZ23 SBRJ 150500
2020031505 - METAR SBRJ 150500Z 17003KT CAVOK 25/23 Q1015=
2020031506 - SABZ23 SBRJ 150600 RRA
2020031506 - METAR SBRJ 150600Z 08002KT CAVOK 25/23 Q1014=
2020031507 - SABZ23 SBRJ 150700
2020031507 - METAR SBRJ 150700Z 31001KT CAVOK 25/23 Q1014=
2020031508 - SABZ23 SBRJ 150800
2020031508 - METAR SBRJ 150800Z 03005KT CAVOK 25/23 Q1014=
2020031509 - SABZ23 SBRJ 150900
2020031509 - METAR SBRJ 150900Z 04006KT 9999 FEW018 25/23 Q1014=
2020031510 - SABZ23 SBRJ 151000
2020031510 - METAR SBRJ 151000Z 33002KT 9999 FEW012 25/23 Q1014=
2020031511 - SABZ23 SBRJ 151100
2020031511 - METAR SBRJ 151100Z 33004KT 9999 FEW012 26/23 Q1015=
2020031512 - SABZ23 SBRJ 151200
2020031512 - METAR SBRJ 151200Z 35005KT 9999 FEW018 26/24 Q1015=
2020031513 - SABZ23 SBRJ 151300
2020031513 - METAR SBRJ 151300Z 02004KT 9999 FEW020 28/23 Q1015=
2020031514 - SABZ23 SBRJ 151400
2020031514 - METAR SBRJ 151400Z 36005KT CAVOK 28/23 Q1014=
2020031515 - SABZ23 SBRJ 151500
2020031515 - METAR SBRJ 151500Z 07005KT 9999 FEW025 31/22 Q1013=
2020031516 - SABZ23 SBRJ 151600
2020031516 - METAR SBRJ 151600Z 15007KT 9999 FEW025 29/24 Q1013=
2020031517 - SABZ23 SBRJ 151700
2020031517 - METAR SBRJ 151700Z 16011KT 9999 FEW025 29/23 Q1012=
2020031518 - SABZ23 SBRJ 151800
2020031518 - METAR SBRJ 151800Z 16011KT 9999 FEW025 29/23 Q1011=
2020031519 - SABZ23 SBRJ 151900
2020031519 - METAR SBRJ 151900Z 17011KT 9999 FEW025 29/23 Q1011=
2020031520 - SABZ23 SBRJ 152000
2020031520 - METAR SBRJ 152000Z 18011KT 9999 FEW025 30/22 Q1011=
2020031521 - SABZ23 SBRJ 152100
2020031521 - METAR SBRJ 152100Z 18010KT 9999 FEW030 29/22 Q1011=
2020031522 - SABZ23 SBRJ 152200
2020031522 - METAR SBRJ 152200Z 18008KT CAVOK 29/22 Q1011=
2020031523 - SABZ23 SBRJ 152300
2020031523 - METAR SBRJ 152300Z 16003KT CAVOK 28/23 Q1011=
2020031523 - SPECI SBRJ 152345Z 05001KT CAVOK 27/24 Q1012=
2020031600 - SABZ23 SBRJ 160000
2020031600 - METAR SBRJ 160000Z 01001KT CAVOK 27/24 Q1012=
2020031601 - SABZ23 SBRJ 160100
2020031601 - METAR SBRJ 160100Z 36006KT CAVOK 27/23 Q1012=
2020031602 - SABZ23 SBRJ 160200
2020031602 - METAR SBRJ 160200Z 01004KT CAVOK 27/23 Q1012=
2020031603 - SABZ23 SBRJ 160300
2020031603 - METAR SBRJ 160300Z 36004KT CAVOK 27/24 Q1012=
2020031604 - SABZ23 SBRJ 160400
2020031604 - METAR SBRJ 160400Z 34004KT CAVOK 26/24 Q1012=
2020031605 - SABZ23 SBRJ 160500
2020031605 - METAR SBRJ 160500Z 34004KT CAVOK 26/23 Q1011=
2020031606 - SABZ23 SBRJ 160600
2020031606 - METAR SBRJ 160600Z 35006KT CAVOK 26/23 Q1011=
2020031607 - SABZ23 SBRJ 160700
2020031607 - METAR SBRJ 160700Z 02006KT CAVOK 26/24 Q1011=
2020031608 - SABZ23 SBRJ 160800
2020031608 - METAR SBRJ 160800Z 35005KT CAVOK 26/23 Q1011=
2020031609 - SABZ23 SBRJ 160900
2020031609 - METAR SBRJ 160900Z 35005KT CAVOK 25/23 Q1011=
2020031610 - SABZ23 SBRJ 161000
2020031610 - METAR SBRJ 161000Z 35004KT CAVOK 26/23 Q1012=
2020031611 - SABZ23 SBRJ 161100
2020031611 - METAR SBRJ 161100Z 33006KT CAVOK 27/22 Q1012=
2020031612 - SABZ23 SBRJ 161200
2020031612 - METAR SBRJ 161200Z 33004KT CAVOK 29/22 Q1012=
2020031613 - SABZ23 SBRJ 161300
2020031613 - METAR SBRJ 161300Z 32005KT 290V350 CAVOK 30/22 Q1012=
2020031614 - SABZ23 SBRJ 161400
2020031614 - METAR SBRJ 161400Z 33005KT 300V010 CAVOK 31/22 Q1012=
2020031615 - SABZ23 SBRJ 161500
2020031615 - METAR SBRJ 161500Z 03008KT CAVOK 32/24 Q1011=
2020031615 - SPECI SBRJ 161525Z 16005KT 9999 FEW025 32/23 Q1011=
2020031616 - SABZ23 SBRJ 161600
2020031616 - METAR SBRJ 161600Z 16010KT 9999 FEW025 30/23 Q1011=
2020031617 - SABZ23 SBRJ 161700
2020031617 - METAR SBRJ 161700Z 18016KT 9999 FEW025 30/24 Q1010=
2020031618 - SABZ23 SBRJ 161800
2020031618 - METAR SBRJ 161800Z 19015KT 9999 FEW025 FEW030TCU 32/22 Q1010=
2020031619 - SABZ23 SBRJ 161900
2020031619 - METAR SBRJ 161900Z 19013KT 9999 FEW025 FEW030TCU 31/20 Q1010=
2020031620 - SABZ23 SBRJ 162000
2020031620 - METAR SBRJ 162000Z 19014KT 9999 FEW025 FEW030TCU BKN100 31/20 Q1010=
2020031621 - SABZ23 SBRJ 162100
2020031621 - METAR SBRJ 162100Z 18008KT 9999 FEW030 BKN100 29/21 Q1011=
2020031622 - SABZ23 SBRJ 162200
2020031622 - METAR SBRJ 162200Z 14009KT 9999 FEW030 BKN100 27/21 Q1011=
2020031623 - SABZ23 SBRJ 162300
2020031623 - METAR SBRJ 162300Z 14004KT 9999 FEW030 SCT100 26/22 Q1012=
2020031700 - SABZ23 SBRJ 170000
2020031700 - METAR SBRJ 170000Z 16002KT 9999 FEW045 SCT100 27/21 Q1012=
2020031701 - SABZ23 SBRJ 170100
2020031701 - METAR SBRJ 170100Z 25001KT 9999 FEW045 SCT100 27/23 Q1012=
2020031702 - SABZ23 SBRJ 170200
2020031702 - METAR SBRJ 170200Z 06002KT 9999 FEW045 BKN100 27/24 Q1012=
2020031703 - SABZ23 SBRJ 170300
2020031703 - METAR SBRJ 170300Z 02002KT CAVOK 27/24 Q1012=
2020031704 - SABZ23 SBRJ 170400
2020031704 - METAR SBRJ 170400Z 03007KT CAVOK 27/25 Q1012=
2020031705 - SABZ23 SBRJ 170500
2020031705 - METAR SBRJ 170500Z 01009KT 9000 -RA SCT045 BKN070 27/25 Q1011=
2020031706 - SABZ23 SBRJ 170600
2020031706 - METAR SBRJ 170600Z 32008KT 9999 FEW015 SCT070 BKN100 26/23 Q1011=
2020031707 - SABZ23 SBRJ 170700
2020031707 - METAR SBRJ 170700Z 35005KT 9999 FEW030 SCT100 26/22 Q1011=
2020031708 - SABZ23 SBRJ 170800
2020031708 - METAR SBRJ 170800Z 32004KT CAVOK 27/22 Q1011=
2020031709 - SABZ23 SBRJ 170900
2020031709 - METAR SBRJ 170900Z 30002KT 9999 FEW045 BKN070 27/22 Q1012=
2020031710 - SABZ23 SBRJ 171000
2020031710 - METAR SBRJ 171000Z 20011KT 9999 FEW013 SCT045 BKN100 26/23 Q1013=
2020031711 - SABZ23 SBRJ 171100
2020031711 - METAR SBRJ 171100Z 20008KT 9999 FEW013 BKN023 BKN090 26/23 Q1014=
2020031712 - SABZ23 SBRJ 171200
2020031712 - METAR SBRJ 171200Z 19005KT 9999 BKN023 BKN090 27/23 Q1014=
2020031712 - SPECI SBRJ 171232Z 03004KT 9999 SCT023 BKN100 27/23 Q1014=
2020031713 - SABZ23 SBRJ 171300
2020031713 - METAR SBRJ 171300Z 34004KT 9999 SCT023 BKN100 28/23 Q1014=
2020031714 - SABZ23 SBRJ 171400
2020031714 - METAR SBRJ 171400Z 03006KT 9999 SCT023 BKN100 28/23 Q1014=
2020031714 - SPECI SBRJ 171418Z 12004KT 9999 SCT023 BKN100 28/24 Q1013=
2020031715 - SABZ23 SBRJ 171500
2020031715 - METAR SBRJ 171500Z 14004KT 9999 SCT023 BKN100 27/23 Q1013=
2020031716 - SABZ23 SBRJ 171600
2020031716 - METAR SBRJ 171600Z 15007KT 9999 SCT025 BKN100 28/23 Q1013=
2020031717 - SABZ23 SBRJ 171700
2020031717 - METAR SBRJ 171700Z 18013KT 9999 FEW020 BKN080 27/22 Q1013=
2020031718 - SABZ23 SBRJ 171800
2020031718 - METAR SBRJ 171800Z 17011KT 9999 FEW030 BKN080 28/21 Q1012=
2020031719 - SABZ23 SBRJ 171900
2020031719 - METAR SBRJ 171900Z 19013KT 9999 FEW030 FEW035TCU BKN070 28/21 Q1012=
2020031720 - SABZ23 SBRJ 172000
2020031720 - METAR SBRJ 172000Z 18011KT 9999 FEW030 FEW035TCU BKN070 27/22 Q1012=
2020031721 - SABZ23 SBRJ 172100
2020031721 - METAR SBRJ 172100Z 17009KT 9999 FEW020 BKN050 27/23 Q1013=
2020031722 - SABZ23 SBRJ 172200
2020031722 - METAR SBRJ 172200Z 09008KT 9999 BKN018 BKN050 26/23 Q1014=
2020031723 - SABZ23 SBRJ 172300
2020031723 - METAR SBRJ 172300Z 06010KT 9999 -RA BKN020 BKN050 24/22 Q1014=
2020031800 - SABZ23 SBRJ 180000
2020031800 - METAR SBRJ 180000Z 32004KT 9999 BKN030 BKN050 25/22 Q1015=
2020031801 - SABZ23 SBRJ 180100
2020031801 - METAR SBRJ 180100Z 32006KT 9999 SCT040 BKN100 25/21 Q1015=
2020031802 - SABZ23 SBRJ 180200
2020031802 - METAR SBRJ 180200Z 33006KT 9999 FEW040 24/21 Q1015=
2020031803 - SABZ23 SBRJ 180300
2020031803 - METAR SBRJ 180300Z 36004KT CAVOK 24/21 Q1014=
2020031804 - SABZ23 SBRJ 180400
2020031804 - METAR SBRJ 180400Z 03005KT CAVOK 24/22 Q1014=
2020031805 - SABZ23 SBRJ 180500
2020031805 - METAR SBRJ 180500Z 36003KT CAVOK 24/21 Q1013=
2020031806 - SABZ23 SBRJ 180600
2020031806 - METAR SBRJ 180600Z 36004KT CAVOK 24/22 Q1013=
2020031807 - SABZ23 SBRJ 180700
2020031807 - METAR SBRJ 180700Z 02004KT CAVOK 24/22 Q1013=
2020031808 - SABZ23 SBRJ 180800
2020031808 - METAR SBRJ 180800Z 04004KT 9999 FEW025 24/22 Q1013=
2020031809 - SABZ23 SBRJ 180900
2020031809 - METAR SBRJ 180900Z 03005KT 5000 BR SCT009 24/23 Q1013=
2020031810 - SABZ23 SBRJ 181000
2020031810 - METAR SBRJ 181000Z 07004KT 5000 BR BKN010 24/23 Q1014=
2020031811 - SABZ23 SBRJ 181100
2020031811 - METAR SBRJ 181100Z 04004KT 5000 BR BKN010 25/23 Q1015=
2020031812 - SABZ23 SBRJ 181200
2020031812 - METAR SBRJ 181200Z 01004KT 5000 BR BKN010 26/23 Q1015=
2020031812 - SPECI SBRJ 181226Z 01005KT 6000 SCT015 26/23 Q1015=
2020031813 - SABZ23 SBRJ 181300
2020031813 - METAR SBRJ 181300Z 01004KT 6000 SCT015 26/23 Q1015=
2020031814 - SABZ23 SBRJ 181400
2020031814 - METAR SBRJ 181400Z 11003KT 6000 SCT015 27/23 Q1014=
2020031815 - SABZ23 SBRJ 181500
2020031815 - METAR SBRJ 181500Z 16010KT 9999 SCT020 27/23 Q1014=
2020031816 - SABZ23 SBRJ 181600
2020031816 - METAR SBRJ 181600Z 16011KT 9999 SCT020 27/24 Q1013=
2020031817 - SABZ23 SBRJ 181700
2020031817 - METAR SBRJ 181700Z 16013KT 9999 FEW010 28/24 Q1012=
2020031818 - SABZ23 SBRJ 181800
2020031818 - METAR SBRJ 181800Z 16011KT 9999 FEW012 28/24 Q1012=
2020031819 - SABZ23 SBRJ 181900
2020031819 - METAR SBRJ 181900Z 17011KT 9999 FEW010 27/24 Q1011=
2020031820 - SABZ23 SBRJ 182000
2020031820 - METAR SBRJ 182000Z 17010KT 9999 FEW010 27/24 Q1011=
2020031821 - SABZ23 SBRJ 182100
2020031821 - METAR SBRJ 182100Z 17010KT 9999 FEW010 SCT050 26/24 Q1012=
2020031822 - SABZ23 SBRJ 182200
2020031822 - METAR SBRJ 182200Z 17009KT 9999 FEW007 SCT040 BKN070 26/24 Q1012=
2020031823 - SABZ23 SBRJ 182300
2020031823 - METAR SBRJ 182300Z 16005KT 130V190 9999 FEW007 SCT090 26/24 Q1012=
2020031900 - SABZ23 SBRJ 190000
2020031900 - METAR SBRJ 190000Z 16004KT 9999 FEW007 SCT018 BKN090 26/24 Q1013=
2020031901 - SABZ23 SBRJ 190100
2020031901 - METAR SBRJ 190100Z 16005KT 9999 FEW007 SCT035 BKN090 26/24 Q1013=
2020031902 - SABZ23 SBRJ 190200
2020031902 - METAR SBRJ 190200Z 11001KT 9999 FEW007 26/23 Q1012=
2020031903 - SABZ23 SBRJ 190300
2020031903 - METAR SBRJ 190300Z 09004KT CAVOK 25/23 Q1012=
2020031904 - SABZ23 SBRJ 190400
2020031904 - METAR SBRJ 190400Z 00000KT CAVOK 25/23 Q1011=
2020031905 - SABZ23 SBRJ 190500
2020031905 - METAR SBRJ 190500Z 09002KT CAVOK 25/23 Q1010=
2020031906 - SABZ23 SBRJ 190600
2020031906 - METAR SBRJ 190600Z 00000KT CAVOK 25/22 Q1010=
2020031907 - SABZ23 SBRJ 190700
2020031907 - METAR SBRJ 190700Z 08003KT CAVOK 24/23 Q1009=
2020031908 - SABZ23 SBRJ 190800
2020031908 - METAR SBRJ 190800Z 02002KT CAVOK 25/22 Q1009=
2020031909 - SABZ23 SBRJ 190900
2020031909 - METAR SBRJ 190900Z 36005KT CAVOK 24/23 Q1010=
2020031910 - SABZ23 SBRJ 191000
2020031910 - METAR SBRJ 191000Z 03004KT 9999 FEW009 25/23 Q1010=
2020031911 - SABZ23 SBRJ 191100
2020031911 - METAR SBRJ 191100Z 01006KT CAVOK 26/23 Q1010=
2020031912 - SABZ23 SBRJ 191200
2020031912 - METAR SBRJ 191200Z 01006KT 9000 NSC 26/24 Q1010=
2020031913 - SABZ23 SBRJ 191300
2020031913 - METAR SBRJ 191300Z 36005KT CAVOK 27/23 Q1010=
2020031914 - SABZ23 SBRJ 191400
2020031914 - METAR SBRJ 191400Z 01006KT CAVOK 29/23 Q1009=
2020031915 - SABZ23 SBRJ 191500
2020031915 - METAR SBRJ 191500Z 01006KT CAVOK 30/24 Q1008=
2020031916 - SABZ23 SBRJ 191600
2020031916 - METAR SBRJ 191600Z 03008KT CAVOK 32/25 Q1007=
2020031917 - SABZ23 SBRJ 191700
2020031917 - METAR SBRJ 191700Z 03006KT 9999 FEW025 32/25 Q1006=
2020031918 - SABZ23 SBRJ 191800
2020031918 - METAR SBRJ 191800Z 16012KT 9999 FEW025 BKN100 29/23 Q1006=
2020031919 - SABZ23 SBRJ 191900
2020031919 - METAR SBRJ 191900Z 17014KT 9999 FEW030 FEW035TCU BKN080 28/22 Q1005=
2020031920 - SABZ23 SBRJ 192000
2020031920 - METAR SBRJ 192000Z 16010KT 9999 FEW030 FEW035TCU BKN080 28/22 Q1005=
2020031921 - SABZ23 SBRJ 192100
2020031921 - METAR SBRJ 192100Z 18010KT 9999 FEW025 BKN090 28/22 Q1006=
2020031922 - SABZ23 SBRJ 192200
2020031922 - METAR SBRJ 192200Z 20008KT 9999 FEW020 BKN090 29/22 Q1006=
2020031923 - SABZ23 SBRJ 192300
2020031923 - METAR SBRJ 192300Z 16003KT 9999 FEW020 BKN090 28/23 Q1006=
2020032000 - SABZ23 SBRJ 200000
2020032000 - METAR SBRJ 200000Z 27002KT 9999 FEW020 BKN090 29/23 Q1007=
2020032001 - SABZ23 SBRJ 200100
2020032001 - METAR SBRJ 200100Z 09002KT 9999 FEW020 BKN090 28/23 Q1007=
2020032002 - SABZ23 SBRJ 200200
2020032002 - METAR SBRJ 200200Z 13004KT 9999 FEW025 BKN090 27/24 Q1007=
2020032003 - SABZ23 SBRJ 200300
2020032003 - METAR SBRJ 200300Z 13002KT 9999 FEW025 BKN090 27/24 Q1006=
2020032004 - SABZ23 SBRJ 200400
2020032004 - METAR SBRJ 200400Z 03005KT CAVOK 27/25 Q1005=
2020032005 - SABZ23 SBRJ 200500
2020032005 - METAR SBRJ 200500Z 02006KT CAVOK 27/25 Q1005=
2020032006 - SABZ23 SBRJ 200600
2020032006 - METAR SBRJ 200600Z 02004KT 9999 FEW030 BKN090 27/25 Q1005=
2020032007 - SABZ23 SBRJ 200700
2020032007 - METAR SBRJ 200700Z 02007KT 9999 FEW030 BKN090 27/25 Q1005=
2020032008 - SABZ23 SBRJ 200800
2020032008 - METAR SBRJ 200800Z 01006KT 9999 FEW045 BKN090 27/24 Q1005=
2020032009 - SABZ23 SBRJ 200900
2020032009 - METAR SBRJ 200900Z 33007KT 9999 FEW045 BKN090 27/24 Q1005=
2020032010 - SABZ23 SBRJ 201000
2020032010 - METAR SBRJ 201000Z 36007KT 9999 FEW040 BKN090 27/25 Q1006=
2020032011 - SABZ23 SBRJ 201100
2020032011 - METAR SBRJ 201100Z 02006KT 9999 FEW040 BKN090 28/25 Q1006=
2020032012 - SABZ23 SBRJ 201200
2020032012 - METAR SBRJ 201200Z 35008KT 9999 FEW020 SCT100 29/23 Q1006=
2020032013 - SABZ23 SBRJ 201300
2020032013 - METAR SBRJ 201300Z 03007KT 9999 FEW040 BKN090 29/24 Q1006=
2020032013 - SPECI SBRJ 201305Z 12007KT 030V160 9999 FEW040 BKN090 29/23 Q1006=
2020032014 - SABZ23 SBRJ 201400
2020032014 - METAR SBRJ 201400Z 15008KT 9999 FEW012 BKN090 28/24 Q1006=
2020032015 - SABZ23 SBRJ 201500
2020032015 - METAR SBRJ 201500Z 13007KT 9999 FEW018 BKN090 28/25 Q1006=
2020032016 - SABZ23 SBRJ 201600
2020032016 - METAR SBRJ 201600Z 18012KT 9999 FEW025 BKN100 30/24 Q1006=
2020032017 - SABZ23 SBRJ 201700
2020032017 - METAR SBRJ 201700Z 20013KT 9999 FEW025 BKN100 29/22 Q1005=
2020032018 - SABZ23 SBRJ 201800
2020032018 - METAR SBRJ 201800Z 20017KT 9999 FEW025 FEW035TCU BKN100 29/21 Q1005=
2020032019 - SABZ23 SBRJ 201900
2020032019 - METAR SBRJ 201900Z 20016KT 9999 FEW025 FEW035TCU BKN100 29/21 Q1005=
2020032020 - SABZ23 SBRJ 202000
2020032020 - METAR SBRJ 202000Z 18010KT 9999 FEW025 FEW035TCU BKN100 28/21 Q1005=
2020032021 - SABZ23 SBRJ 202100
2020032021 - METAR SBRJ 202100Z 18009KT 9999 SCT020 FEW035TCU BKN090 27/23 Q1006=
2020032022 - SABZ23 SBRJ 202200
2020032022 - METAR SBRJ 202200Z 16005KT 9999 FEW020 BKN050 27/23 Q1007=
2020032023 - SABZ23 SBRJ 202300
2020032023 - METAR SBRJ 202300Z 16005KT 7000 -RA SCT025 OVC050 26/22 Q1007=
2020032100 - SABZ23 SBRJ 210000
2020032100 - METAR SBRJ 210000Z 24005KT 4500 RA BR SCT010 SCT025 OVC040 25/23 Q1008=
2020032100 - SPECI SBRJ 210010Z 30007KT 4500 RA BR SCT010 BKN025 OVC040 25/23 Q1008=
2020032101 - SABZ23 SBRJ 210100
2020032101 - METAR SBRJ 210100Z 33005KT 4500 -RA BR SCT008 BKN020 OVC040 24/23 Q1009 RERA=
2020032102 - SABZ23 SBRJ 210200
2020032102 - METAR SBRJ 210200Z 33005KT 5000 -RA BR SCT010 BKN020 OVC040 24/23 Q1009=
2020032103 - SABZ23 SBRJ 210300
2020032103 - METAR SBRJ 210300Z 32005KT 5000 -RA BR BKN007 OVC040 24/23 Q1008=
2020032104 - SABZ23 SBRJ 210400
2020032104 - METAR SBRJ 210400Z 32006KT 8000 -RA FEW005 SCT008 BKN030 25/24 Q1008=
2020032105 - SABZ23 SBRJ 210500
2020032105 - METAR SBRJ 210500Z 28005KT 250V320 6000 -RA SCT015 OVC080 24/22 Q1008=
2020032106 - SABZ23 SBRJ 210600
2020032106 - METAR SBRJ 210600Z 31002KT 6000 -RA FEW005 SCT015 OVC080 24/23 Q1007=
2020032107 - SABZ23 SBRJ 210700
2020032107 - METAR SBRJ 210700Z 10004KT 5000 BR FEW007 BKN012 OVC080 24/23 Q1007=
2020032108 - SABZ23 SBRJ 210800
2020032108 - METAR SBRJ 210800Z 16004KT 4000 RA BR BKN012 OVC040 23/22 Q1008=
2020032109 - SABZ23 SBRJ 210900
2020032109 - METAR SBRJ 210900Z 35004KT 4000 -RA BR FEW007 BKN012 BKN040 23/23 Q1009 RERA=
2020032110 - SABZ23 SBRJ 211000
2020032110 - METAR SBRJ 211000Z 32006KT 4000 -RA BR BKN010 BKN030 OVC090 23/22 Q1010=
2020032111 - SABZ23 SBRJ 211100
2020032111 - METAR SBRJ 211100Z 32004KT 7000 BKN010 BKN020 OVC090 24/23 Q1011=
2020032112 - SABZ23 SBRJ 211200
2020032112 - METAR SBRJ 211200Z 34006KT 5000 -RA BR BKN010 BKN020 OVC090 24/22 Q1011=
2020032113 - SABZ23 SBRJ 211300
2020032113 - METAR SBRJ 211300Z 31005KT 5000 -RA BR BKN010 BKN020 OVC090 25/23 Q1012=
2020032114 - SABZ23 SBRJ 211400
2020032114 - METAR SBRJ 211400Z 32006KT 5000 BR BKN010 BKN020 OVC090 24/23 Q1012=
2020032115 - SABZ23 SBRJ 211500
2020032115 - METAR SBRJ 211500Z 34005KT 5000 BR BKN010 BKN020 OVC090 25/23 Q1011=
2020032116 - SABZ23 SBRJ 211600
2020032116 - METAR SBRJ 211600Z 36004KT 9999 SCT010 BKN025 OVC060 25/23 Q1011=
2020032117 - SABZ23 SBRJ 211700
2020032117 - METAR SBRJ 211700Z VRB02KT 9999 FEW010 SCT020 OVC060 26/23 Q1011=
2020032118 - SABZ23 SBRJ 211800
2020032118 - METAR SBRJ 211800Z 32007KT 9000 FEW008 SCT013 OVC050 25/22 Q1011=
2020032118 - SPECI SBRJ 211815Z 32009KT 7000 RA BKN013 OVC030 24/22 Q1011=
2020032118 - SPECI SBRJ 211822Z 19011KT 6000 RA OVC012 24/22 Q1011=
2020032118 - SPECI SBRJ 211830Z 19015KT 3500 RA BR OVC012 23/21 Q1011=
2020032119 - SABZ23 SBRJ 211900
2020032119 - METAR SBRJ 211900Z 21013KT 7000 -RA BKN013 OVC040 23/21 Q1011 RERA=
2020032120 - SABZ23 SBRJ 212000
2020032120 - METAR SBRJ 212000Z 21006KT 9999 -RA BKN013 OVC050 24/21 Q1011=
2020032120 - SPECI SBRJ 212040Z 35006KT 9999 BKN013 OVC050 23/21 Q1012=
2020032121 - SABZ23 SBRJ 212100
2020032121 - METAR SBRJ 212100Z 34005KT 9999 BKN013 BKN050 OVC080 23/21 Q1012=
2020032122 - SABZ23 SBRJ 212200
2020032122 - METAR SBRJ 212200Z 33005KT 8000 -RA SCT009 BKN013 OVC050 23/22 Q1013=
2020032123 - SABZ23 SBRJ 212300
2020032123 - METAR SBRJ 212300Z 34008KT 7000 -RA SCT008 BKN012 OVC050 23/21 Q1014=
2020032123 - SPECI SBRJ 212338Z 33007KT 6000 RA SCT007 BKN010 OVC040 22/21 Q1014=
2020032200 - SABZ23 SBRJ 220000
2020032200 - METAR SBRJ 220000Z 33008KT 6000 -RA BKN008 BKN013 OVC040 22/21 Q1014 RERA=
2020032200 - SPECI SBRJ 220030Z 34007KT 6000 RA BKN008 BKN013 OVC025 22/21 Q1014=
2020032201 - SABZ23 SBRJ 220100
2020032201 - METAR SBRJ 220100Z 33008KT 6000 RA BKN007 BKN012 OVC025 22/21 Q1014 RERA=
2020032201 - SPECI SBRJ 220115Z 32007KT 7000 -RA BKN007 BKN012 OVC025 22/21 Q1015 RERA=
2020032202 - SABZ23 SBRJ 220200
2020032202 - METAR SBRJ 220200Z 32006KT 8000 BKN007 BKN012 OVC025 22/21 Q1015 RERA=
2020032203 - SABZ23 SBRJ 220300
2020032203 - METAR SBRJ 220300Z 36005KT 8000 -RA BKN008 BKN013 OVC025 22/21 Q1015=
2020032204 - SABZ23 SBRJ 220400
2020032204 - METAR SBRJ 220400Z 31005KT 6000 -RA BKN008 BKN013 OVC025 22/21 Q1014=
2020032205 - SABZ23 SBRJ 220500
2020032205 - METAR SBRJ 220500Z 33004KT 6000 BKN008 BKN018 OVC080 23/21 Q1014=
2020032206 - SABZ23 SBRJ 220600
2020032206 - METAR SBRJ 220600Z 33003KT 9999 BKN013 BKN020 OVC080 23/21 Q1013=
2020032207 - SABZ23 SBRJ 220700
2020032207 - METAR SBRJ 220700Z 36004KT 9999 SCT013 BKN020 OVC080 23/21 Q1013=
2020032208 - SABZ23 SBRJ 220800
2020032208 - METAR SBRJ 220800Z 20005KT 8000 BKN010 BKN020 OVC080 22/21 Q1014=
2020032209 - SABZ23 SBRJ 220900
2020032209 - METAR SBRJ 220900Z 36004KT 9999 BKN013 BKN020 OVC080 22/21 Q1014=
2020032210 - SABZ23 SBRJ 221000
2020032210 - METAR SBRJ 221000Z 02006KT 9999 SCT010 BKN080 23/21 Q1015=
2020032211 - SABZ23 SBRJ 221100
2020032211 - METAR SBRJ 221100Z 36005KT 9999 SCT009 SCT040 BKN080 23/21 Q1016=
2020032212 - SABZ23 SBRJ 221200
2020032212 - METAR SBRJ 221200Z 02004KT 9999 SCT009 SCT050 BKN090 24/21 Q1016=
2020032213 - SABZ23 SBRJ 221300
2020032213 - METAR SBRJ 221300Z VRB02KT 9999 -RA SCT015 SCT050 BKN070 24/22 Q1017=
2020032214 - SABZ23 SBRJ 221400
2020032214 - METAR SBRJ 221400Z VRB02KT 9999 SCT015 BKN060 25/22 Q1017=
2020032215 - SABZ23 SBRJ 221500
2020032215 - METAR SBRJ 221500Z 15007KT 9999 SCT025 BKN060 27/23 Q1016=
2020032216 - SABZ23 SBRJ 221600
2020032216 - METAR SBRJ 221600Z 15007KT 9999 SCT025 FEW030TCU BKN070 26/21 Q1016=
2020032217 - SABZ23 SBRJ 221700
2020032217 - METAR SBRJ 221700Z 16008KT 9999 SCT025 FEW030TCU BKN080 27/20 Q1016=
2020032218 - SABZ23 SBRJ 221800
2020032218 - METAR SBRJ 221800Z 15007KT 9999 SCT025 BKN080 27/20 Q1015=
2020032219 - SABZ23 SBRJ 221900
2020032219 - METAR SBRJ 221900Z 18016KT 9999 SCT023 SCT080 25/21 Q1015=
2020032220 - SABZ23 SBRJ 222000
2020032220 - METAR SBRJ 222000Z 17010KT 9999 SCT025 BKN070 25/19 Q1016=
2020032221 - SABZ23 SBRJ 222100
2020032221 - METAR SBRJ 222100Z 16010KT 9999 SCT023 BKN050 24/21 Q1016=
2020032222 - SABZ23 SBRJ 222200
2020032222 - METAR SBRJ 222200Z 13015KT 9999 FEW008 BKN050 23/20 Q1017=
2020032223 - SABZ23 SBRJ 222300
2020032223 - METAR SBRJ 222300Z 13010KT 9999 FEW016 BKN050 23/20 Q1017=
2020032300 - SABZ23 SBRJ 230000
2020032300 - METAR SBRJ 230000Z 17004KT 9999 SCT017 BKN050 23/19 Q1018=
2020032301 - SABZ23 SBRJ 230100
2020032301 - METAR SBRJ 230100Z 22005KT 9999 FEW012 SCT025 BKN050 23/20 Q1018=
2020032302 - SABZ23 SBRJ 230200
2020032302 - METAR SBRJ 230200Z 18003KT 9999 FEW035 BKN050 23/20 Q1018=
2020032303 - SABZ23 SBRJ 230300
2020032303 - METAR SBRJ 230300Z 02007KT 9999 FEW020 BKN080 23/21 Q1018=
2020032304 - SABZ23 SBRJ 230400
2020032304 - METAR SBRJ 230400Z 02007KT 9999 SCT012 BKN080 22/20 Q1018=
2020032305 - SABZ23 SBRJ 230500
2020032305 - METAR SBRJ 230500Z 04005KT 9999 SCT012 BKN090 22/20 Q1018=
2020032306 - SABZ23 SBRJ 230600
2020032306 - METAR SBRJ 230600Z 02002KT CAVOK 22/19 Q1017=
2020032307 - SABZ23 SBRJ 230700
2020032307 - METAR SBRJ 230700Z VRB01KT CAVOK 22/19 Q1017=
2020032308 - SABZ23 SBRJ 230800
2020032308 - METAR SBRJ 230800Z 00000KT 9999 FEW040 22/20 Q1017=
2020032309 - SABZ23 SBRJ 230900
2020032309 - METAR SBRJ 230900Z 04002KT 9999 FEW030 22/20 Q1018=
2020032310 - SABZ23 SBRJ 231000
2020032310 - METAR SBRJ 231000Z 02004KT 9999 FEW025 22/20 Q1018=
2020032311 - SABZ23 SBRJ 231100
2020032311 - METAR SBRJ 231100Z 36005KT 9999 FEW025 23/20 Q1019=
2020032312 - SABZ23 SBRJ 231200
2020032312 - METAR SBRJ 231200Z 36005KT 9999 FEW025 24/21 Q1020=
2020032313 - SABZ23 SBRJ 231300
2020032313 - METAR SBRJ 231300Z 34004KT 9999 FEW025 25/21 Q1020=
2020032314 - SABZ23 SBRJ 231400
2020032314 - METAR SBRJ 231400Z 01004KT 9999 FEW025 26/19 Q1019=
2020032315 - SABZ23 SBRJ 231500
2020032315 - METAR SBRJ 231500Z 14007KT 9999 FEW025 26/19 Q1019=
2020032316 - SABZ23 SBRJ 231600
2020032316 - METAR SBRJ 231600Z 17010KT 9999 FEW025 27/19 Q1018=
2020032317 - SABZ23 SBRJ 231700
2020032317 - METAR SBRJ 231700Z 17009KT 9999 FEW025 27/19 Q1018=
2020032318 - SABZ23 SBRJ 231800
2020032318 - METAR SBRJ 231800Z 16011KT 9999 FEW025 26/19 Q1018=
2020032319 - SABZ23 SBRJ 231900
2020032319 - METAR SBRJ 231900Z 16011KT 9999 FEW030 26/18 Q1017=
2020032320 - SABZ23 SBRJ 232000
2020032320 - METAR SBRJ 232000Z 16011KT 9999 FEW030 25/19 Q1018=
2020032321 - SABZ23 SBRJ 232100
2020032321 - METAR SBRJ 232100Z 16009KT 9999 FEW025 24/19 Q1018=
2020032322 - SABZ23 SBRJ 232200
2020032322 - METAR SBRJ 232200Z 17008KT 9999 FEW020 24/19 Q1019=
2020032323 - SABZ23 SBRJ 232300
2020032323 - METAR SBRJ 232300Z 17008KT 9999 FEW025 24/19 Q1019=
2020032400 - SABZ23 SBRJ 240000
2020032400 - METAR SBRJ 240000Z 17007KT 9999 FEW025 24/20 Q1019=
2020032401 - SABZ23 SBRJ 240100
2020032401 - METAR SBRJ 240100Z 13009KT 5000 RA SCT020 SCT070 24/20 Q1020=
2020032401 - SPECI SBRJ 240135Z 18002KT 9999 SCT020 BKN050 22/20 Q1020 RERA=
2020032402 - SABZ23 SBRJ 240200
2020032402 - METAR SBRJ 240200Z 00000KT 9999 SCT025 SCT070 22/20 Q1020=
2020032403 - SABZ23 SBRJ 240300
2020032403 - METAR SBRJ 240300Z 15002KT 9999 SCT030 SCT080 23/19 Q1019=
2020032404 - SABZ23 SBRJ 240400
2020032404 - METAR SBRJ 240400Z 18001KT 9999 FEW030 BKN090 23/19 Q1019=
2020032405 - SABZ23 SBRJ 240500
2020032405 - METAR SBRJ 240500Z 00000KT 9999 FEW030 SCT090 23/19 Q1018=
2020032406 - SABZ23 SBRJ 240600
2020032406 - METAR SBRJ 240600Z 02003KT CAVOK 22/19 Q1018=
2020032407 - SABZ23 SBRJ 240700
2020032407 - METAR SBRJ 240700Z 03003KT CAVOK 22/18 Q1017=
2020032408 - SABZ23 SBRJ 240800
2020032408 - METAR SBRJ 240800Z 36004KT CAVOK 22/19 Q1017=
2020032409 - SABZ23 SBRJ 240900
2020032409 - METAR SBRJ 240900Z 35005KT 9999 FEW020 21/19 Q1018=
2020032410 - SABZ23 SBRJ 241000
2020032410 - METAR SBRJ 241000Z 01003KT 9999 FEW018 22/21 Q1018=
2020032411 - SABZ23 SBRJ 241100
2020032411 - METAR SBRJ 241100Z 36005KT 9999 FEW018 22/20 Q1018=
2020032412 - SABZ23 SBRJ 241200
2020032412 - METAR SBRJ 241200Z 01005KT 9999 FEW013 SCT025 23/21 Q1019=
2020032413 - SABZ23 SBRJ 241300
2020032413 - METAR SBRJ 241300Z 09003KT 9999 FEW013 SCT030 23/20 Q1019=
2020032414 - SABZ23 SBRJ 241400
2020032414 - METAR SBRJ 241400Z 14004KT 9999 FEW020 SCT030 BKN100 24/19 Q1019=
2020032415 - SABZ23 SBRJ 241500
2020032415 - METAR SBRJ 241500Z 16010KT 9999 FEW020 SCT035 BKN100 25/19 Q1018=
2020032416 - SABZ23 SBRJ 241600
2020032416 - METAR SBRJ 241600Z 16009KT 9999 SCT025 BKN080 25/19 Q1018=
2020032417 - SABZ23 SBRJ 241700
2020032417 - METAR SBRJ 241700Z 15011KT 9999 SCT025 SCT070 25/20 Q1017=
2020032418 - SABZ23 SBRJ 241800
2020032418 - METAR SBRJ 241800Z 16011KT 9999 FEW025 SCT070 25/19 Q1017=
2020032419 - SABZ23 SBRJ 241900
2020032419 - METAR SBRJ 241900Z 16010KT 9999 FEW025 SCT080 25/18 Q1017=
2020032420 - SABZ23 SBRJ 242000
2020032420 - METAR SBRJ 242000Z 14008KT 9999 FEW025 24/18 Q1017=
2020032421 - SABZ23 SBRJ 242100
2020032421 - METAR SBRJ 242100Z 16005KT 9999 FEW040 SCT070 24/18 Q1016=
2020032422 - SABZ23 SBRJ 242200
2020032422 - METAR SBRJ 242200Z 17005KT 9999 FEW040 BKN070 24/19 Q1017=
2020032423 - SABZ23 SBRJ 242300
2020032423 - METAR SBRJ 242300Z 16004KT 9999 FEW040 BKN070 24/19 Q1018=
2020032500 - SABZ23 SBRJ 250000
2020032500 - METAR SBRJ 250000Z 13004KT 9999 FEW040 BKN080 24/19 Q1018=
2020032501 - SABZ23 SBRJ 250100
2020032501 - METAR SBRJ 250100Z 05005KT 9999 FEW040 BKN080 23/19 Q1018=
2020032502 - SABZ23 SBRJ 250200
2020032502 - METAR SBRJ 250200Z 03004KT 9999 FEW040 BKN080 23/19 Q1018=
2020032503 - SABZ23 SBRJ 250300
2020032503 - METAR SBRJ 250300Z VRB02KT 9999 FEW030 BKN080 23/18 Q1018=
2020032504 - SABZ23 SBRJ 250400
2020032504 - METAR SBRJ 250400Z 00000KT CAVOK 23/18 Q1017=
2020032505 - SABZ23 SBRJ 250500
2020032505 - METAR SBRJ 250500Z 02006KT CAVOK 22/19 Q1017=
2020032506 - SABZ23 SBRJ 250600
2020032506 - METAR SBRJ 250600Z 01004KT CAVOK 22/18 Q1016=
2020032507 - SABZ23 SBRJ 250700
2020032507 - METAR SBRJ 250700Z 04003KT CAVOK 21/18 Q1016=
2020032508 - SABZ23 SBRJ 250800
2020032508 - METAR SBRJ 250800Z 01003KT CAVOK 21/19 Q1016=
2020032509 - SABZ23 SBRJ 250900
2020032509 - METAR SBRJ 250900Z 01004KT 9999 FEW035 21/19 Q1016=
2020032510 - SABZ23 SBRJ 251000
2020032510 - METAR SBRJ 251000Z 02005KT 9999 FEW025 21/18 Q1016=
2020032511 - SABZ23 SBRJ 251100
2020032511 - METAR SBRJ 251100Z 02006KT 9999 FEW010 22/19 Q1017=
2020032512 - SABZ23 SBRJ 251200
2020032512 - METAR SBRJ 251200Z 02006KT 9999 FEW020 22/20 Q1017=
2020032513 - SABZ23 SBRJ 251300
2020032513 - METAR SBRJ 251300Z 01005KT 9999 FEW025 24/19 Q1017=
2020032514 - SABZ23 SBRJ 251400
2020032514 - METAR SBRJ 251400Z 36005KT 9999 FEW025 25/19 Q1017=
2020032515 - SABZ23 SBRJ 251500
2020032515 - METAR SBRJ 251500Z 01004KT 9999 FEW025 26/18 Q1016=
2020032515 - SPECI SBRJ 251533Z 14008KT 9999 FEW025 26/19 Q1016=
2020032516 - SABZ23 SBRJ 251600
2020032516 - METAR SBRJ 251600Z 15008KT 9999 FEW025 26/19 Q1016=
2020032517 - SABZ23 SBRJ 251700
2020032517 - METAR SBRJ 251700Z 16012KT 9999 FEW030 26/19 Q1015=
2020032518 - SABZ23 SBRJ 251800
2020032518 - METAR SBRJ 251800Z 16010KT 9999 FEW030 26/18 Q1015=
2020032519 - SABZ23 SBRJ 251900
2020032519 - METAR SBRJ 251900Z 16011KT 9999 FEW025 25/18 Q1015=
2020032520 - SABZ23 SBRJ 252000
2020032520 - METAR SBRJ 252000Z 16011KT 9999 FEW030 25/18 Q1015=
2020032521 - SABZ23 SBRJ 252100
2020032521 - METAR SBRJ 252100Z 18011KT 9999 FEW030 24/19 Q1015=
2020032522 - SABZ23 SBRJ 252200
2020032522 - METAR SBRJ 252200Z 17010KT 9999 FEW020 24/19 Q1015=
2020032523 - SABZ23 SBRJ 252300
2020032523 - METAR SBRJ 252300Z 17007KT 9999 FEW020 23/19 Q1016=
2020032600 - SABZ23 SBRJ 260000
2020032600 - METAR SBRJ 260000Z 17005KT 9999 FEW013 23/20 Q1016=
2020032601 - SABZ23 SBRJ 260100 CCA
2020032601 - METAR COR SBRJ 260100Z 13003KT 9999 FEW013 23/20 Q1017=
2020032602 - SABZ23 SBRJ 260200
2020032602 - METAR SBRJ 260200Z 05005KT 9999 FEW018 23/20 Q1017=
2020032603 - SABZ23 SBRJ 260300
2020032603 - METAR SBRJ 260300Z 02004KT 9999 FEW018 23/19 Q1017=
2020032604 - SABZ23 SBRJ 260400
2020032604 - METAR SBRJ 260400Z 07002KT 9999 FEW025 23/19 Q1016=
2020032605 - SABZ23 SBRJ 260500
2020032605 - METAR SBRJ 260500Z 00000KT 9999 FEW020 22/19 Q1016=
2020032606 - SABZ23 SBRJ 260600
2020032606 - METAR SBRJ 260600Z 04003KT CAVOK 22/20 Q1015=
2020032607 - SABZ23 SBRJ 260700
2020032607 - METAR SBRJ 260700Z 03004KT CAVOK 22/20 Q1015=
2020032608 - SABZ23 SBRJ 260800
2020032608 - METAR SBRJ 260800Z 35004KT CAVOK 22/20 Q1015=
2020032609 - SABZ23 SBRJ 260900
2020032609 - METAR SBRJ 260900Z 34005KT 9999 FEW008 21/20 Q1015=
2020032609 - SPECI SBRJ 260925Z 05005KT 9999 BKN008 21/20 Q1016=
2020032610 - SABZ23 SBRJ 261000
2020032610 - METAR SBRJ 261000Z 01005KT 5000 BR BKN008 22/20 Q1016=
2020032611 - SABZ23 SBRJ 261100
2020032611 - METAR SBRJ 261100Z 03006KT 5000 BR SCT008 22/20 Q1016=
2020032612 - SABZ23 SBRJ 261200
2020032612 - METAR SBRJ 261200Z 36006KT 7000 FEW010 23/20 Q1017=
2020032613 - SABZ23 SBRJ 261300
2020032613 - METAR SBRJ 261300Z 03003KT 350V050 9999 FEW025 24/21 Q1017=
2020032614 - SABZ23 SBRJ 261400
2020032614 - METAR SBRJ 261400Z 13003KT 9999 FEW020 25/19 Q1017=
2020032615 - SABZ23 SBRJ 261500
2020032615 - METAR SBRJ 261500Z 14008KT 9999 FEW025 26/19 Q1016=
2020032616 - SABZ23 SBRJ 261600
2020032616 - METAR SBRJ 261600Z 16011KT 9999 FEW025 26/19 Q1015=
2020032617 - SABZ23 SBRJ 261700
2020032617 - METAR SBRJ 261700Z 16012KT 9999 FEW030 25/20 Q1015=
2020032618 - SABZ23 SBRJ 261800
2020032618 - METAR SBRJ 261800Z 17011KT 9999 FEW030 26/20 Q1014=
2020032619 - SABZ23 SBRJ 261900
2020032619 - METAR SBRJ 261900Z 16011KT 9999 FEW030 26/20 Q1014=
2020032620 - SABZ23 SBRJ 262000
2020032620 - METAR SBRJ 262000Z 16011KT 9999 FEW030 25/20 Q1014=
2020032621 - SABZ23 SBRJ 262100
2020032621 - METAR SBRJ 262100Z 15011KT 9999 FEW030 24/20 Q1015=
2020032622 - SABZ23 SBRJ 262200
2020032622 - METAR SBRJ 262200Z 14009KT 9999 SCT023 24/20 Q1015=
2020032623 - SABZ23 SBRJ 262300
2020032623 - METAR SBRJ 262300Z 14005KT 9999 FEW023 24/20 Q1015=
2020032700 - SABZ23 SBRJ 270000
2020032700 - METAR SBRJ 270000Z 13006KT 9999 FEW023 SCT050 24/20 Q1016=
2020032701 - SABZ23 SBRJ 270100
2020032701 - METAR SBRJ 270100Z 11006KT 9999 FEW025 BKN050 24/20 Q1016=
2020032702 - SABZ23 SBRJ 270200
2020032702 - METAR SBRJ 270200Z 09004KT CAVOK 24/20 Q1016=
2020032703 - SABZ23 SBRJ 270300
2020032703 - METAR SBRJ 270300Z 08004KT CAVOK 24/20 Q1016=
2020032704 - SABZ23 SBRJ 270400
2020032704 - METAR SBRJ 270400Z VRB02KT CAVOK 23/20 Q1016=
2020032705 - SABZ23 SBRJ 270500
2020032705 - METAR SBRJ 270500Z 12004KT CAVOK 23/20 Q1016=
2020032706 - SABZ23 SBRJ 270600
2020032706 - METAR SBRJ 270600Z 07002KT CAVOK 23/20 Q1015=
2020032707 - SABZ23 SBRJ 270700
2020032707 - METAR SBRJ 270700Z 02005KT 330V080 CAVOK 23/20 Q1015=
2020032708 - SABZ23 SBRJ 270800
2020032708 - METAR SBRJ 270800Z 04004KT CAVOK 23/20 Q1015=
2020032709 - SABZ23 SBRJ 270900
2020032709 - METAR SBRJ 270900Z 04002KT 9999 FEW007 22/20 Q1015=
2020032710 - SABZ23 SBRJ 271000
2020032710 - METAR SBRJ 271000Z 35005KT 9999 FEW012 23/21 Q1016=
2020032711 - SABZ23 SBRJ 271100
2020032711 - METAR SBRJ 271100Z 01005KT 9999 FEW015 24/21 Q1017=
2020032712 - SABZ23 SBRJ 271200
2020032712 - METAR SBRJ 271200Z 35004KT 9999 FEW020 24/21 Q1017=
2020032713 - SABZ23 SBRJ 271300
2020032713 - METAR SBRJ 271300Z 34004KT 9999 FEW025 25/20 Q1017=
2020032714 - SABZ23 SBRJ 271400
2020032714 - METAR SBRJ 271400Z 35004KT 9999 FEW025 26/20 Q1016=
2020032715 - SABZ23 SBRJ 271500
2020032715 - METAR SBRJ 271500Z 15007KT 9999 FEW025 27/21 Q1016=
2020032716 - SABZ23 SBRJ 271600
2020032716 - METAR SBRJ 271600Z 16010KT 9999 FEW020 26/21 Q1015=
2020032717 - SABZ23 SBRJ 271700
2020032717 - METAR SBRJ 271700Z 16012KT 9999 FEW020 27/21 Q1014=
2020032718 - SABZ23 SBRJ 271800
2020032718 - METAR SBRJ 271800Z 16013KT 9999 FEW025 26/22 Q1014=
2020032719 - SABZ23 SBRJ 271900
2020032719 - METAR SBRJ 271900Z 17014KT 9999 SCT025 26/21 Q1014=
2020032720 - SABZ23 SBRJ 272000
2020032720 - METAR SBRJ 272000Z 17012KT 9999 FEW025 26/21 Q1014=
2020032721 - SABZ23 SBRJ 272100
2020032721 - METAR SBRJ 272100Z 13010KT 9999 FEW025 BKN050 25/20 Q1014=
2020032722 - SABZ23 SBRJ 272200
2020032722 - METAR SBRJ 272200Z 12012KT 9999 FEW025 SCT070 25/20 Q1014=
2020032723 - SABZ23 SBRJ 272300
2020032723 - METAR SBRJ 272300Z 13007KT 9999 FEW025 24/21 Q1015=
2020032800 - SABZ23 SBRJ 280000
2020032800 - METAR SBRJ 280000Z 16004KT CAVOK 24/20 Q1016=
2020032801 - SABZ23 SBRJ 280100
2020032801 - METAR SBRJ 280100Z 18004KT CAVOK 24/20 Q1016=
2020032802 - SABZ23 SBRJ 280200
2020032802 - METAR SBRJ 280200Z 18003KT CAVOK 24/20 Q1016=
2020032803 - SABZ23 SBRJ 280300
2020032803 - METAR SBRJ 280300Z 20003KT CAVOK 24/19 Q1016=
2020032804 - SABZ23 SBRJ 280400
2020032804 - METAR SBRJ 280400Z 15001KT CAVOK 24/19 Q1016=
2020032805 - SABZ23 SBRJ 280500
2020032805 - METAR SBRJ 280500Z 20002KT CAVOK 24/20 Q1016=
2020032806 - SABZ23 SBRJ 280600
2020032806 - METAR SBRJ 280600Z 20002KT CAVOK 23/20 Q1016=
2020032807 - SABZ23 SBRJ 280700
2020032807 - METAR SBRJ 280700Z 02002KT CAVOK 23/20 Q1016=
2020032808 - SABZ23 SBRJ 280800
2020032808 - METAR SBRJ 280800Z 33005KT CAVOK 23/21 Q1016=
2020032809 - SABZ23 SBRJ 280900
2020032809 - METAR SBRJ 280900Z 04003KT 9999 FEW015 23/20 Q1016=
2020032810 - SABZ23 SBRJ 281000
2020032810 - METAR SBRJ 281000Z 03002KT CAVOK 24/21 Q1017=
2020032811 - SABZ23 SBRJ 281100
2020032811 - METAR SBRJ 281100Z 03003KT CAVOK 24/21 Q1017=
2020032812 - SABZ23 SBRJ 281200
2020032812 - METAR SBRJ 281200Z 33004KT 9999 FEW015 25/21 Q1018=
2020032813 - SABZ23 SBRJ 281300
2020032813 - METAR SBRJ 281300Z 32003KT 9999 FEW020 26/21 Q1018=
2020032814 - SABZ23 SBRJ 281400
2020032814 - METAR SBRJ 281400Z 33006KT 9999 FEW020 27/21 Q1017=
2020032814 - SPECI SBRJ 281442Z 14007KT 9999 FEW020 27/21 Q1017=
2020032815 - SABZ23 SBRJ 281500
2020032815 - METAR SBRJ 281500Z 15007KT 9999 FEW020 27/22 Q1017=
2020032816 - SABZ23 SBRJ 281600
2020032816 - METAR SBRJ 281600Z 16011KT 9999 FEW025 27/22 Q1016=
2020032817 - SABZ23 SBRJ 281700
2020032817 - METAR SBRJ 281700Z 18013KT 9999 FEW025 27/23 Q1016=
2020032818 - SABZ23 SBRJ 281800
2020032818 - METAR SBRJ 281800Z 16013KT 9999 FEW025 27/22 Q1015=
2020032819 - SABZ23 SBRJ 281900
2020032819 - METAR SBRJ 281900Z 17011KT 9999 FEW025 27/22 Q1015=
2020032820 - SABZ23 SBRJ 282000
2020032820 - METAR SBRJ 282000Z 15007KT 9999 FEW025 27/21 Q1015=
2020032821 - SABZ23 SBRJ 282100
2020032821 - METAR SBRJ 282100Z 13009KT CAVOK 26/21 Q1015=
2020032822 - SABZ23 SBRJ 282200
2020032822 - METAR SBRJ 282200Z 17007KT CAVOK 25/21 Q1015=
2020032823 - SABZ23 SBRJ 282300
2020032823 - METAR SBRJ 282300Z 17007KT CAVOK 25/21 Q1016=
2020032900 - SABZ23 SBRJ 290000
2020032900 - METAR SBRJ 290000Z 17006KT CAVOK 24/21 Q1016=
2020032901 - SABZ23 SBRJ 290100
2020032901 - METAR SBRJ 290100Z 17005KT CAVOK 24/21 Q1016=
2020032902 - SABZ23 SBRJ 290200
2020032902 - METAR SBRJ 290200Z 17006KT CAVOK 24/21 Q1017=
2020032903 - SABZ23 SBRJ 290300
2020032903 - METAR SBRJ 290300Z 18005KT CAVOK 24/21 Q1016=
2020032904 - SABZ23 SBRJ 290400
2020032904 - METAR SBRJ 290400Z 16005KT CAVOK 24/21 Q1016=
2020032905 - SABZ23 SBRJ 290500
2020032905 - METAR SBRJ 290500Z 18005KT 9999 FEW040 24/21 Q1016=
2020032906 - SABZ23 SBRJ 290600
2020032906 - METAR SBRJ 290600Z 16003KT 9999 FEW040 24/21 Q1016=
2020032907 - SABZ23 SBRJ 290700
2020032907 - METAR SBRJ 290700Z 19002KT 9999 FEW030 24/21 Q1016=
2020032908 - SABZ23 SBRJ 290800
2020032908 - METAR SBRJ 290800Z 05002KT CAVOK 24/21 Q1016=
2020032909 - SABZ23 SBRJ 290900
2020032909 - METAR SBRJ 290900Z 20002KT CAVOK 24/21 Q1016=
2020032910 - SABZ23 SBRJ 291000
2020032910 - METAR SBRJ 291000Z 01002KT CAVOK 24/21 Q1017=
2020032911 - SABZ23 SBRJ 291100
2020032911 - METAR SBRJ 291100Z 35002KT CAVOK 25/22 Q1017=
2020032912 - SABZ23 SBRJ 291200
2020032912 - METAR SBRJ 291200Z 02002KT CAVOK 26/22 Q1018=
2020032913 - SABZ23 SBRJ 291300
2020032913 - METAR SBRJ 291300Z 03003KT 9999 FEW025 27/23 Q1017=
2020032914 - SABZ23 SBRJ 291400
2020032914 - METAR SBRJ 291400Z 15010KT 9999 FEW025 26/22 Q1017=
2020032915 - SABZ23 SBRJ 291500
2020032915 - METAR SBRJ 291500Z 16012KT 9999 FEW025 SCT100 26/22 Q1017=
2020032916 - SABZ23 SBRJ 291600
2020032916 - METAR SBRJ 291600Z 16010KT 9999 FEW030 27/23 Q1016=
2020032917 - SABZ23 SBRJ 291700
2020032917 - METAR SBRJ 291700Z 16013KT 9999 FEW025 27/23 Q1015=
2020032918 - SABZ23 SBRJ 291800
2020032918 - METAR SBRJ 291800Z 17013KT 9999 FEW025 27/23 Q1015=
2020032919 - SABZ23 SBRJ 291900
2020032919 - METAR SBRJ 291900Z 17013KT 9999 FEW025 26/22 Q1014=
2020032920 - SABZ23 SBRJ 292000
2020032920 - METAR SBRJ 292000Z 18012KT 9999 FEW030 FEW035TCU SCT100 27/21 Q1014=
2020032921 - SABZ23 SBRJ 292100
2020032921 - METAR SBRJ 292100Z 18008KT 9999 FEW030 FEW035TCU SCT050 BKN100 26/21 Q1015=
2020032922 - SABZ23 SBRJ 292200
2020032922 - METAR SBRJ 292200Z 19011KT 9999 FEW017 SCT050 BKN100 26/22 Q1016=
2020032923 - SABZ23 SBRJ 292300
2020032923 - METAR SBRJ 292300Z 20008KT 9000 -RA FEW020 BKN050 BKN100 25/22 Q1016=
2020033000 - SABZ23 SBRJ 300000
2020033000 - METAR SBRJ 300000Z 19006KT 9000 -RA BKN040 OVC100 25/22 Q1017=
2020033001 - SABZ23 SBRJ 300100
2020033001 - METAR SBRJ 300100Z 19003KT 9999 -RA BKN045 OVC100 25/22 Q1017=
2020033002 - SABZ23 SBRJ 300200
2020033002 - METAR SBRJ 300200Z 14002KT 9999 -RA BKN045 OVC100 25/22 Q1017=
2020033003 - SABZ23 SBRJ 300300
2020033003 - METAR SBRJ 300300Z 11001KT 9999 -RA BKN045 OVC100 25/22 Q1017=
2020033004 - SABZ23 SBRJ 300400
2020033004 - METAR SBRJ 300400Z 32003KT 9999 -RA FEW025 BKN050 OVC100 25/22 Q1017=
2020033005 - SABZ23 SBRJ 300500
2020033005 - METAR SBRJ 300500Z 35004KT 9999 -RA FEW020 BKN050 OVC100 24/22 Q1016=
2020033006 - SABZ23 SBRJ 300600
2020033006 - METAR SBRJ 300600Z 36005KT 9999 -RA FEW018 BKN050 OVC100 24/22 Q1015=
2020033007 - SABZ23 SBRJ 300700
2020033007 - METAR SBRJ 300700Z 04004KT 9999 SCT015 BKN050 OVC100 24/23 Q1015=
2020033008 - SABZ23 SBRJ 300800
2020033008 - METAR SBRJ 300800Z 07004KT 9999 SCT013 BKN050 OVC100 24/23 Q1014=
2020033009 - SABZ23 SBRJ 300900
2020033009 - METAR SBRJ 300900Z 36003KT 9999 FEW012 BKN050 OVC100 24/23 Q1014=
2020033010 - SABZ23 SBRJ 301000
2020033010 - METAR SBRJ 301000Z 30005KT 6000 BKN012 BKN040 OVC100 24/23 Q1015=
2020033011 - SABZ23 SBRJ 301100
2020033011 - METAR SBRJ 301100Z 06002KT 5000 BR BKN012 BKN040 OVC100 24/23 Q1015=
2020033012 - SABZ23 SBRJ 301200
2020033012 - METAR SBRJ 301200Z 01004KT 5000 BR BKN012 BKN040 OVC100 25/23 Q1016=
2020033013 - SABZ23 SBRJ 301300
2020033013 - METAR SBRJ 301300Z 03003KT 6000 BKN012 BKN040 OVC100 25/23 Q1016=
2020033014 - SABZ23 SBRJ 301400
2020033014 - METAR SBRJ 301400Z 04002KT 6000 BKN012 BKN040 BKN090 26/24 Q1016=
2020033015 - SABZ23 SBRJ 301500
2020033015 - METAR SBRJ 301500Z 13004KT 7000 BKN012 BKN040 BKN090 26/23 Q1015=
2020033016 - SABZ23 SBRJ 301600
2020033016 - METAR SBRJ 301600Z 15006KT 8000 FEW018 SCT040 BKN100 26/23 Q1014=
2020033017 - SABZ23 SBRJ 301700
2020033017 - METAR SBRJ 301700Z 14009KT 9999 SCT020 BKN100 26/23 Q1014=
2020033018 - SABZ23 SBRJ 301800
2020033018 - METAR SBRJ 301800Z 16011KT 9999 FEW010 BKN100 26/22 Q1013=
2020033019 - SABZ23 SBRJ 301900
2020033019 - METAR SBRJ 301900Z 17011KT 9999 FEW008 SCT040 BKN100 25/22 Q1014=
2020033020 - SABZ23 SBRJ 302000
2020033020 - METAR SBRJ 302000Z 17011KT 9999 FEW008 SCT040 BKN100 26/22 Q1013=
2020033021 - SABZ23 SBRJ 302100
2020033021 - METAR SBRJ 302100Z 18009KT 9999 FEW012 SCT040 BKN100 25/22 Q1014=
2020033022 - SABZ23 SBRJ 302200
2020033022 - METAR SBRJ 302200Z 17008KT 9999 FEW012 SCT050 BKN100 25/23 Q1014=
2020033023 - SABZ23 SBRJ 302300
2020033023 - METAR SBRJ 302300Z 16004KT 9999 FEW015 BKN050 BKN090 25/23 Q1015=
2020033100 - SABZ23 SBRJ 310000
2020033100 - METAR SBRJ 310000Z 16004KT 9999 FEW015 SCT045 BKN090 25/23 Q1016=
2020033101 - SABZ23 SBRJ 310100
2020033101 - METAR SBRJ 310100Z 16004KT 9999 FEW012 BKN090 25/23 Q1015=
2020033102 - SABZ23 SBRJ 310200
2020033102 - METAR SBRJ 310200Z 17003KT 9999 FEW010 SCT030 BKN090 25/23 Q1015=
2020033103 - SABZ23 SBRJ 310300
2020033103 - METAR SBRJ 310300Z 18004KT 9999 FEW015 BKN100 24/23 Q1015=
2020033104 - SABZ23 SBRJ 310400
2020033104 - METAR SBRJ 310400Z 21003KT 9999 FEW025 BKN090 25/23 Q1014=
2020033105 - SABZ23 SBRJ 310500
2020033105 - METAR SBRJ 310500Z 17002KT 9999 FEW025 SCT040 BKN090 24/23 Q1014=
2020033106 - SABZ23 SBRJ 310600
2020033106 - METAR SBRJ 310600Z 16002KT 9999 FEW020 SCT040 BKN100 24/23 Q1013=
2020033107 - SABZ23 SBRJ 310700
2020033107 - METAR SBRJ 310700Z 13004KT 9999 FEW020 SCT040 BKN100 24/23 Q1013=
2020033108 - SABZ23 SBRJ 310800
2020033108 - METAR SBRJ 310800Z 17001KT 9999 FEW020 BKN100 24/23 Q1013=
2020033109 - SABZ23 SBRJ 310900
2020033109 - METAR SBRJ 310900Z 00000KT 9999 FEW020 BKN100 24/23 Q1013=
2020033110 - SABZ23 SBRJ 311000
2020033110 - METAR SBRJ 311000Z 05001KT 9999 FEW008 SCT015 BKN100 24/23 Q1014=
2020033111 - SABZ23 SBRJ 311100
2020033111 - METAR SBRJ 311100Z 04003KT 9999 FEW008 SCT100 25/23 Q1014=
2020033112 - SABZ23 SBRJ 311200
2020033112 - METAR SBRJ 311200Z 13003KT 9999 FEW010 SCT020 26/23 Q1015=
2020033113 - SABZ23 SBRJ 311300
2020033113 - METAR SBRJ 311300Z 15006KT 9999 FEW015 SCT020 26/23 Q1014=
2020033114 - SABZ23 SBRJ 311400
2020033114 - METAR SBRJ 311400Z 16009KT 9999 SCT020 27/23 Q1014=
2020033115 - SABZ23 SBRJ 311500
2020033115 - METAR SBRJ 311500Z 16010KT 9999 FEW025 SCT050 26/23 Q1013=
2020033116 - SABZ23 SBRJ 311600
2020033116 - METAR SBRJ 311600Z 16011KT 9999 FEW023 BKN050 BKN070 26/22 Q1013=
2020033117 - SABZ23 SBRJ 311700
2020033117 - METAR SBRJ 311700Z 17010KT 9999 FEW023 26/23 Q1012=
2020033118 - SABZ23 SBRJ 311800
2020033118 - METAR SBRJ 311800Z 17012KT 9999 FEW015 SCT020 FEW035TCU BKN080 26/23 Q1012=
2020033119 - SABZ23 SBRJ 311900
2020033119 - METAR SBRJ 311900Z 16011KT 9999 FEW015 FEW035TCU SCT040 26/23 Q1012=
2020033120 - SABZ23 SBRJ 312000
2020033120 - METAR SBRJ 312000Z 17012KT 9999 FEW020 FEW035TCU SCT040 BKN067 25/22 Q1012=
2020033121 - SABZ23 SBRJ 312100
2020033121 - METAR SBRJ 312100Z 17010KT 9999 FEW020 FEW035TCU SCT040 BKN067 25/22 Q1013=
2020033122 - SABZ23 SBRJ 312200
2020033122 - METAR SBRJ 312200Z 17009KT 9999 FEW020 BKN040 BKN090 25/22 Q1013=
2020033123 - SABZ23 SBRJ 312300
2020033123 - METAR SBRJ 312300Z 15004KT 9999 FEW015 BKN040 BKN090 25/22 Q1014=
